{
  "updated": "2026-05-03T19:15:00.000Z",
  "airports": {
    "KPOC": {
      "name": "Brackett Field",
      "metar": "METAR KPOC 031847Z 25006KT 2SM BR OVC007 14/13 A2998",
      "metarTime": "2026-05-03T19:00:00.000Z",
      "taf": "",
      "tafTime": ""
    },
    "KCCB": {
      "name": "Cable Airport",
      "metar": "METAR KCCB 031915Z AUTO 26008KT 3SM BR BKN006 BKN012 14/14 A2996 RMK AO2",
      "metarTime": "2026-05-03T19:15:00.000Z",
      "taf": "",
      "tafTime": ""
    },
    "KRAL": {
      "name": "Riverside Municipal",
      "metar": "METAR KRAL 031853Z 28005KT 10SM FEW009 SCT018 OVC034 15/13 A2996 RMK AO2 SLP135 T01500133",
      "metarTime": "2026-05-03T19:00:00.000Z",
      "taf": "",
      "tafTime": ""
    }
  }
}
