{
  "updated": "2026-05-31T18:00:00.000Z",
  "airports": {
    "KPOC": {
      "name": "Brackett Field",
      "metar": "METAR KPOC 311747Z 25008KT 10SM CLR 23/12 A2995",
      "metarTime": "2026-05-31T18:00:00.000Z",
      "taf": "",
      "tafTime": ""
    },
    "KCCB": {
      "name": "Cable Airport",
      "metar": "METAR KCCB 311735Z AUTO 25006KT 10SM CLR 23/10 A2994 RMK AO2",
      "metarTime": "2026-05-31T17:35:00.000Z",
      "taf": "",
      "tafTime": ""
    },
    "KRAL": {
      "name": "Riverside Municipal",
      "metar": "METAR KRAL 311653Z COR VRB04KT 10SM CLR 23/12 A2993 RMK AO2 SLP121 T02280117",
      "metarTime": "2026-05-31T17:00:00.000Z",
      "taf": "",
      "tafTime": ""
    }
  }
}
