{
  "updated": "2026-05-03T08:15:00.000Z",
  "airports": {
    "KPOC": {
      "name": "Brackett Field",
      "metar": "",
      "metarTime": "",
      "taf": "",
      "tafTime": ""
    },
    "KCCB": {
      "name": "Cable Airport",
      "metar": "METAR KCCB 030815Z AUTO 26008KT 9SM BKN006 OVC120 14/14 A2992 RMK AO2",
      "metarTime": "2026-05-03T08:15:00.000Z",
      "taf": "",
      "tafTime": ""
    },
    "KRAL": {
      "name": "Riverside Municipal",
      "metar": "METAR KRAL 030753Z AUTO 28004KT 10SM CLR 16/12 A2992 RMK AO2 SLP117 T01560117 402830128",
      "metarTime": "2026-05-03T08:00:00.000Z",
      "taf": "",
      "tafTime": ""
    }
  }
}
