{
  "updated": "2026-03-11T05:00:00.000Z",
  "airports": {
    "KPOC": {
      "name": "Brackett Field",
      "metar": "",
      "metarTime": "",
      "taf": "",
      "tafTime": ""
    },
    "KCCB": {
      "name": "Cable Airport",
      "metar": "METAR KCCB 110455Z AUTO 27005KT 10SM CLR 14/12 A3016 RMK AO2",
      "metarTime": "2026-03-11T05:00:00.000Z",
      "taf": "",
      "tafTime": ""
    },
    "KRAL": {
      "name": "Riverside Municipal",
      "metar": "METAR KRAL 110453Z AUTO 27004KT 10SM CLR 13/10 A3017 RMK AO2 SLP207 T01330100",
      "metarTime": "2026-03-11T05:00:00.000Z",
      "taf": "",
      "tafTime": ""
    }
  }
}
