{
  "updated": "2026-05-13T05:15:00.000Z",
  "airports": {
    "KPOC": {
      "name": "Brackett Field",
      "metar": "",
      "metarTime": "",
      "taf": "",
      "tafTime": ""
    },
    "KCCB": {
      "name": "Cable Airport",
      "metar": "METAR KCCB 130515Z AUTO 25007KT 10SM BKN014 15/13 A3005 RMK AO2",
      "metarTime": "2026-05-13T05:15:00.000Z",
      "taf": "",
      "tafTime": ""
    },
    "KRAL": {
      "name": "Riverside Municipal",
      "metar": "METAR KRAL 130453Z AUTO 28005KT 10SM CLR 16/12 A3005 RMK AO2 SLP164 T01610122",
      "metarTime": "2026-05-13T05:00:00.000Z",
      "taf": "",
      "tafTime": ""
    }
  }
}
