{
  "updated": "2026-03-07T19:00:00.000Z",
  "airports": {
    "KPOC": {
      "name": "Brackett Field",
      "metar": "METAR KPOC 071847Z 03008G18KT 10SM CLR 21/M07 A3007",
      "metarTime": "2026-03-07T19:00:00.000Z",
      "taf": "",
      "tafTime": ""
    },
    "KCCB": {
      "name": "Cable Airport",
      "metar": "METAR KCCB 071835Z AUTO 03013G25KT 10SM CLR 20/M10 A3004 RMK AO2",
      "metarTime": "2026-03-07T18:35:00.000Z",
      "taf": "",
      "tafTime": ""
    },
    "KRAL": {
      "name": "Riverside Municipal",
      "metar": "METAR KRAL 071753Z 04014G33KT 10SM CLR 19/M08 A3007 RMK AO2 PK WND 03033/1746 SLP168 T01941078 10194 20144 51013",
      "metarTime": "2026-03-07T18:00:00.000Z",
      "taf": "",
      "tafTime": ""
    }
  }
}
