{
  "updated": "2026-06-07T15:00:00.000Z",
  "airports": {
    "KPOC": {
      "name": "Brackett Field",
      "metar": "METAR KPOC 071447Z 22003KT 10SM OVC015 17/12 A2985",
      "metarTime": "2026-06-07T15:00:00.000Z",
      "taf": "",
      "tafTime": ""
    },
    "KCCB": {
      "name": "Cable Airport",
      "metar": "METAR KCCB 071455Z AUTO 00000KT 10SM OVC016 16/13 A2984 RMK AO2",
      "metarTime": "2026-06-07T15:00:00.000Z",
      "taf": "",
      "tafTime": ""
    },
    "KRAL": {
      "name": "Riverside Municipal",
      "metar": "METAR KRAL 071453Z VRB03KT 10SM OVC017 18/13 A2983 RMK AO2 SLP090 T01780128 51001",
      "metarTime": "2026-06-07T15:00:00.000Z",
      "taf": "",
      "tafTime": ""
    }
  }
}
