{
  "updated": "2026-02-15T15:00:00.000Z",
  "airports": {
    "KPOC": {
      "name": "Brackett Field",
      "metar": "METAR KPOC 151447Z 00000KT 10SM CLR 10/08 A3003",
      "metarTime": "2026-02-15T15:00:00.000Z",
      "taf": "",
      "tafTime": ""
    },
    "KCCB": {
      "name": "Cable Airport",
      "metar": "METAR KCCB 151455Z AUTO 02005KT 10SM CLR 10/07 A3002 RMK AO2",
      "metarTime": "2026-02-15T15:00:00.000Z",
      "taf": "",
      "tafTime": ""
    },
    "KRAL": {
      "name": "Riverside Municipal",
      "metar": "METAR KRAL 151453Z AUTO 01003KT 7SM FEW016 OVC029 11/09 A3004 RMK AO2 SLP161 T01110094 53006",
      "metarTime": "2026-02-15T15:00:00.000Z",
      "taf": "",
      "tafTime": ""
    }
  }
}
