{
  "updated": "2026-04-04T08:15:00.000Z",
  "airports": {
    "KPOC": {
      "name": "Brackett Field",
      "metar": "",
      "metarTime": "",
      "taf": "",
      "tafTime": ""
    },
    "KCCB": {
      "name": "Cable Airport",
      "metar": "METAR KCCB 040815Z AUTO 21004KT 10SM CLR 18/M12 A3006 RMK AO2",
      "metarTime": "2026-04-04T08:15:00.000Z",
      "taf": "",
      "tafTime": ""
    },
    "KRAL": {
      "name": "Riverside Municipal",
      "metar": "METAR KRAL 040753Z AUTO 06005KT 10SM CLR 18/M12 A3007 RMK AO2 SLP169 T01831122 402670106",
      "metarTime": "2026-04-04T08:00:00.000Z",
      "taf": "",
      "tafTime": ""
    }
  }
}
