{
  "updated": "2026-05-14T23:35:00.000Z",
  "airports": {
    "KPOC": {
      "name": "Brackett Field",
      "metar": "METAR KPOC 142247Z 24008G14KT 10SM CLR 23/12 A2997",
      "metarTime": "2026-05-14T23:00:00.000Z",
      "taf": "",
      "tafTime": ""
    },
    "KCCB": {
      "name": "Cable Airport",
      "metar": "METAR KCCB 142335Z AUTO 25009KT 10SM CLR 23/11 A2996 RMK AO2",
      "metarTime": "2026-05-14T23:35:00.000Z",
      "taf": "",
      "tafTime": ""
    },
    "KRAL": {
      "name": "Riverside Municipal",
      "metar": "METAR KRAL 142253Z 27013G17KT 10SM CLR 26/11 A2994 RMK AO2 SLP126 T02560111",
      "metarTime": "2026-05-14T23:00:00.000Z",
      "taf": "",
      "tafTime": ""
    }
  }
}
