{
  "updated": "2026-07-23T21:15:00.000Z",
  "airports": {
    "KPOC": {
      "name": "Brackett Field",
      "metar": "",
      "metarTime": "",
      "taf": "",
      "tafTime": ""
    },
    "KCCB": {
      "name": "Cable Airport",
      "metar": "METAR KCCB 232115Z AUTO 26011G18KT 10SM CLR 35/16 A2988 RMK AO2",
      "metarTime": "2026-07-23T21:15:00.000Z",
      "taf": "",
      "tafTime": ""
    },
    "KRAL": {
      "name": "Riverside Municipal",
      "metar": "METAR KRAL 232053Z 27011G18KT 10SM CLR 38/16 A2983 RMK AO2 SLP083 T03780161 58017",
      "metarTime": "2026-07-23T21:00:00.000Z",
      "taf": "",
      "tafTime": ""
    }
  }
}
