{
  "updated": "2026-02-28T21:35:00.000Z",
  "airports": {
    "KPOC": {
      "name": "Brackett Field",
      "metar": "METAR KPOC 282047Z 22008KT 10SM CLR 30/12 A2994",
      "metarTime": "2026-02-28T21:00:00.000Z",
      "taf": "",
      "tafTime": ""
    },
    "KCCB": {
      "name": "Cable Airport",
      "metar": "METAR KCCB 282135Z AUTO 25008G14KT 10SM CLR 30/09 A2993 RMK AO2",
      "metarTime": "2026-02-28T21:35:00.000Z",
      "taf": "",
      "tafTime": ""
    },
    "KRAL": {
      "name": "Riverside Municipal",
      "metar": "METAR KRAL 282053Z 26004KT 10SM CLR 31/09 A2991 RMK AO2 SLP113 T03060089 58013",
      "metarTime": "2026-02-28T21:00:00.000Z",
      "taf": "",
      "tafTime": ""
    }
  }
}
