{
  "updated": "2026-02-15T11:00:00.000Z",
  "airports": {
    "KPOC": {
      "name": "Brackett Field",
      "metar": "",
      "metarTime": "",
      "taf": "",
      "tafTime": ""
    },
    "KCCB": {
      "name": "Cable Airport",
      "metar": "METAR KCCB 151055Z AUTO 26004KT 7SM 11/11 A3003 RMK AO2",
      "metarTime": "2026-02-15T11:00:00.000Z",
      "taf": "",
      "tafTime": ""
    },
    "KRAL": {
      "name": "Riverside Municipal",
      "metar": "METAR KRAL 151053Z AUTO 00000KT 10SM BKN010 OVC018 09/08 A3003 RMK AO2 SLP159 T00940083",
      "metarTime": "2026-02-15T11:00:00.000Z",
      "taf": "",
      "tafTime": ""
    }
  }
}
