{
  "updated": "2026-04-12T18:00:00.000Z",
  "airports": {
    "KPOC": {
      "name": "Brackett Field",
      "metar": "METAR KPOC 121647Z 25008KT 1 1/2SM RABR OVC006 13/12 A3000",
      "metarTime": "2026-04-12T17:00:00.000Z",
      "taf": "",
      "tafTime": ""
    },
    "KCCB": {
      "name": "Cable Airport",
      "metar": "METAR KCCB 121735Z AUTO 27011KT 3SM BR FEW003 BKN043 12/12 A2999 RMK AO2",
      "metarTime": "2026-04-12T17:35:00.000Z",
      "taf": "",
      "tafTime": ""
    },
    "KRAL": {
      "name": "Riverside Municipal",
      "metar": "METAR KRAL 121753Z 27004KT 8SM -RA SCT026 OVC033 13/12 A3001 RMK AO2 SLP151 P0007 60007 T01330122 10161 20128 51012",
      "metarTime": "2026-04-12T18:00:00.000Z",
      "taf": "",
      "tafTime": ""
    }
  }
}
