{
  "updated": "2026-03-03T23:00:00.000Z",
  "airports": {
    "KPOC": {
      "name": "Brackett Field",
      "metar": "METAR KPOC 032247Z 24008KT 10SM CLR 22/09 A3000",
      "metarTime": "2026-03-03T23:00:00.000Z",
      "taf": "",
      "tafTime": ""
    },
    "KCCB": {
      "name": "Cable Airport",
      "metar": "METAR KCCB 032255Z AUTO 26008KT 10SM CLR 22/06 A2999 RMK AO2",
      "metarTime": "2026-03-03T23:00:00.000Z",
      "taf": "",
      "tafTime": ""
    },
    "KRAL": {
      "name": "Riverside Municipal",
      "metar": "METAR KRAL 032253Z VRB05KT 10SM CLR 25/09 A2997 RMK AO2 SLP137 T02500094",
      "metarTime": "2026-03-03T23:00:00.000Z",
      "taf": "",
      "tafTime": ""
    }
  }
}
