{
  "updated": "2026-02-05T03:35:00.000Z",
  "airports": {
    "KPOC": {
      "name": "Brackett Field",
      "metar": "METAR KPOC 050247Z VRB03KT 10SM CLR 24/M04 A3011",
      "metarTime": "2026-02-05T03:00:00.000Z",
      "taf": "",
      "tafTime": ""
    },
    "KCCB": {
      "name": "Cable Airport",
      "metar": "METAR KCCB 050335Z AUTO 02006KT 10SM CLR 24/M09 A3012 RMK AO2",
      "metarTime": "2026-02-05T03:35:00.000Z",
      "taf": "",
      "tafTime": ""
    },
    "KRAL": {
      "name": "Riverside Municipal",
      "metar": "METAR KRAL 050253Z 08005G14KT 10SM CLR 23/M05 A3012 RMK AO2 SLP185 T02331050 51012",
      "metarTime": "2026-02-05T03:00:00.000Z",
      "taf": "",
      "tafTime": ""
    }
  }
}
