{
  "updated": "2026-04-11T01:15:00.000Z",
  "airports": {
    "KPOC": {
      "name": "Brackett Field",
      "metar": "METAR KPOC 110047Z 21010KT 10SM SCT065 22/10 A2992",
      "metarTime": "2026-04-11T01:00:00.000Z",
      "taf": "",
      "tafTime": ""
    },
    "KCCB": {
      "name": "Cable Airport",
      "metar": "METAR KCCB 110115Z AUTO 24010KT 10SM OVC090 21/08 A2991 RMK AO2",
      "metarTime": "2026-04-11T01:15:00.000Z",
      "taf": "",
      "tafTime": ""
    },
    "KRAL": {
      "name": "Riverside Municipal",
      "metar": "METAR KRAL 110053Z 26015G20KT 10SM CLR 22/11 A2989 RMK AO2 SLP108 T02220111",
      "metarTime": "2026-04-11T01:00:00.000Z",
      "taf": "",
      "tafTime": ""
    }
  }
}
