{
  "updated": "2026-04-26T18:00:00.000Z",
  "airports": {
    "KPOC": {
      "name": "Brackett Field",
      "metar": "METAR KPOC 261747Z 26006KT 10SM BKN040 14/07 A2996",
      "metarTime": "2026-04-26T18:00:00.000Z",
      "taf": "",
      "tafTime": ""
    },
    "KCCB": {
      "name": "Cable Airport",
      "metar": "METAR KCCB 261755Z AUTO 25009KT 10SM FEW031 OVC050 14/06 A2994 RMK AO2",
      "metarTime": "2026-04-26T18:00:00.000Z",
      "taf": "",
      "tafTime": ""
    },
    "KRAL": {
      "name": "Riverside Municipal",
      "metar": "METAR KRAL 261753Z 26009KT 10SM FEW037 BKN046 OVC055 16/08 A2996 RMK AO2 RAB30E39 SLP133 P0000 60000 T01610083 10161 20111 53012",
      "metarTime": "2026-04-26T18:00:00.000Z",
      "taf": "",
      "tafTime": ""
    }
  }
}
