{
  "updated": "2026-03-06T17:15:00.000Z",
  "airports": {
    "KPOC": {
      "name": "Brackett Field",
      "metar": "METAR KPOC 061647Z 13006KT 10SM CLR 17/M02 A3003",
      "metarTime": "2026-03-06T17:00:00.000Z",
      "taf": "",
      "tafTime": ""
    },
    "KCCB": {
      "name": "Cable Airport",
      "metar": "METAR KCCB 061715Z AUTO 00000KT 10SM CLR 17/M08 A3002 RMK AO2",
      "metarTime": "2026-03-06T17:15:00.000Z",
      "taf": "",
      "tafTime": ""
    },
    "KRAL": {
      "name": "Riverside Municipal",
      "metar": "METAR KRAL 061653Z 03007G21KT 10SM CLR 18/M07 A3005 RMK AO2 PK WND 04030/1557 SLP164 T01781072",
      "metarTime": "2026-03-06T17:00:00.000Z",
      "taf": "",
      "tafTime": ""
    }
  }
}
