{
  "updated": "2026-05-06T23:35:00.000Z",
  "airports": {
    "KPOC": {
      "name": "Brackett Field",
      "metar": "METAR KPOC 062247Z 26010G16KT 10SM CLR 24/10 A2999",
      "metarTime": "2026-05-06T23:00:00.000Z",
      "taf": "",
      "tafTime": ""
    },
    "KCCB": {
      "name": "Cable Airport",
      "metar": "METAR KCCB 062335Z AUTO 26007G15KT 10SM CLR 23/09 A2998 RMK AO2",
      "metarTime": "2026-05-06T23:35:00.000Z",
      "taf": "",
      "tafTime": ""
    },
    "KRAL": {
      "name": "Riverside Municipal",
      "metar": "METAR KRAL 062253Z 27010G17KT 10SM CLR 26/09 A2997 RMK AO2 SLP136 T02560089",
      "metarTime": "2026-05-06T23:00:00.000Z",
      "taf": "",
      "tafTime": ""
    }
  }
}
