{
  "updated": "2026-02-21T21:35:00.000Z",
  "airports": {
    "KPOC": {
      "name": "Brackett Field",
      "metar": "METAR KPOC 212047Z 09012KT 10SM CLR 19/M03 A3015",
      "metarTime": "2026-02-21T21:00:00.000Z",
      "taf": "",
      "tafTime": ""
    },
    "KCCB": {
      "name": "Cable Airport",
      "metar": "METAR KCCB 212135Z AUTO VRB06G14KT 10SM CLR 19/M07 A3012 RMK AO2",
      "metarTime": "2026-02-21T21:35:00.000Z",
      "taf": "",
      "tafTime": ""
    },
    "KRAL": {
      "name": "Riverside Municipal",
      "metar": "METAR KRAL 212053Z AUTO 06009G16KT 10SM CLR 19/M03 A3014 RMK AO2 SLP197 T01941033 58010 $",
      "metarTime": "2026-02-21T21:00:00.000Z",
      "taf": "",
      "tafTime": ""
    }
  }
}
