{
  "updated": "2026-05-09T10:00:00.000Z",
  "airports": {
    "KPOC": {
      "name": "Brackett Field",
      "metar": "",
      "metarTime": "",
      "taf": "",
      "tafTime": ""
    },
    "KCCB": {
      "name": "Cable Airport",
      "metar": "METAR KCCB 090955Z AUTO 27004KT 3SM BR CLR 14/14 A2993 RMK AO2",
      "metarTime": "2026-05-09T10:00:00.000Z",
      "taf": "",
      "tafTime": ""
    },
    "KRAL": {
      "name": "Riverside Municipal",
      "metar": "METAR KRAL 090953Z AUTO 28003KT 7SM CLR 15/13 A2993 RMK AO2 SLP121 T01500133",
      "metarTime": "2026-05-09T10:00:00.000Z",
      "taf": "",
      "tafTime": ""
    }
  }
}
