{
  "updated": "2026-04-28T15:00:00.000Z",
  "airports": {
    "KPOC": {
      "name": "Brackett Field",
      "metar": "METAR KPOC 281347Z 00000KT 10SM CLR 09/05 A3008",
      "metarTime": "2026-04-28T14:00:00.000Z",
      "taf": "",
      "tafTime": ""
    },
    "KCCB": {
      "name": "Cable Airport",
      "metar": "METAR KCCB 281455Z AUTO 09004KT 10SM CLR 11/06 A3007 RMK AO2",
      "metarTime": "2026-04-28T15:00:00.000Z",
      "taf": "",
      "tafTime": ""
    },
    "KRAL": {
      "name": "Riverside Municipal",
      "metar": "METAR KRAL 281453Z 06004KT 10SM CLR 11/06 A3008 RMK AO2 SLP176 T01110061 51015",
      "metarTime": "2026-04-28T15:00:00.000Z",
      "taf": "",
      "tafTime": ""
    }
  }
}
