{
  "updated": "2026-04-26T10:23:00.000Z",
  "airports": {
    "KPOC": {
      "name": "Brackett Field",
      "metar": "",
      "metarTime": "",
      "taf": "",
      "tafTime": ""
    },
    "KCCB": {
      "name": "Cable Airport",
      "metar": "METAR KCCB 261015Z AUTO 26008KT 5SM BR OVC003 10/10 A2985 RMK AO2",
      "metarTime": "2026-04-26T10:15:00.000Z",
      "taf": "",
      "tafTime": ""
    },
    "KRAL": {
      "name": "Riverside Municipal",
      "metar": "SPECI KRAL 261023Z AUTO 26004KT 4SM RA BR SCT006 BKN010 OVC028 12/11 A2986 RMK AO2 P0003 T01170106",
      "metarTime": "2026-04-26T10:23:00.000Z",
      "taf": "",
      "tafTime": ""
    }
  }
}
