{
  "updated": "2026-03-24T11:15:00.000Z",
  "airports": {
    "KPOC": {
      "name": "Brackett Field",
      "metar": "",
      "metarTime": "",
      "taf": "",
      "tafTime": ""
    },
    "KCCB": {
      "name": "Cable Airport",
      "metar": "METAR KCCB 241115Z AUTO 00000KT 10SM 16/14 A2996 RMK AO2",
      "metarTime": "2026-03-24T11:15:00.000Z",
      "taf": "",
      "tafTime": ""
    },
    "KRAL": {
      "name": "Riverside Municipal",
      "metar": "METAR KRAL 241053Z AUTO 00000KT 8SM CLR 15/13 A2996 RMK AO2 SLP132 T01500133",
      "metarTime": "2026-03-24T11:00:00.000Z",
      "taf": "",
      "tafTime": ""
    }
  }
}
