{
  "updated": "2026-04-16T05:35:00.000Z",
  "airports": {
    "KPOC": {
      "name": "Brackett Field",
      "metar": "",
      "metarTime": "",
      "taf": "",
      "tafTime": ""
    },
    "KCCB": {
      "name": "Cable Airport",
      "metar": "METAR KCCB 160535Z AUTO 25006KT 10SM CLR 15/08 A2998 RMK AO2",
      "metarTime": "2026-04-16T05:35:00.000Z",
      "taf": "",
      "tafTime": ""
    },
    "KRAL": {
      "name": "Riverside Municipal",
      "metar": "METAR KRAL 160453Z AUTO 29004KT 10SM CLR 17/08 A2999 RMK AO2 SLP143 T01720083",
      "metarTime": "2026-04-16T05:00:00.000Z",
      "taf": "",
      "tafTime": ""
    }
  }
}
