{
  "updated": "2026-07-07T12:35:00.000Z",
  "airports": {
    "KPOC": {
      "name": "Brackett Field",
      "metar": "",
      "metarTime": "",
      "taf": "",
      "tafTime": ""
    },
    "KCCB": {
      "name": "Cable Airport",
      "metar": "METAR KCCB 071235Z AUTO 00000KT 9SM 19/08 A2994 RMK AO2",
      "metarTime": "2026-07-07T12:35:00.000Z",
      "taf": "",
      "tafTime": ""
    },
    "KRAL": {
      "name": "Riverside Municipal",
      "metar": "METAR KRAL 071153Z AUTO 00000KT 10SM CLR 18/13 A2992 RMK AO2 SLP116 T01830133 10222 20178 57003",
      "metarTime": "2026-07-07T12:00:00.000Z",
      "taf": "",
      "tafTime": ""
    }
  }
}
