{
  "updated": "2026-03-20T18:15:00.000Z",
  "airports": {
    "KPOC": {
      "name": "Brackett Field",
      "metar": "METAR KPOC 201747Z 12005KT 10SM CLR 30/09 A3002",
      "metarTime": "2026-03-20T18:00:00.000Z",
      "taf": "",
      "tafTime": ""
    },
    "KCCB": {
      "name": "Cable Airport",
      "metar": "METAR KCCB 201815Z AUTO 00000KT 10SM CLR 31/05 A3002 RMK AO2",
      "metarTime": "2026-03-20T18:15:00.000Z",
      "taf": "",
      "tafTime": ""
    },
    "KRAL": {
      "name": "Riverside Municipal",
      "metar": "METAR KRAL 201753Z 00000KT 10SM CLR 30/09 A2999 RMK AO2 SLP139 T03000089 10306 20172 58002",
      "metarTime": "2026-03-20T18:00:00.000Z",
      "taf": "",
      "tafTime": ""
    }
  }
}
