{
  "updated": "2026-05-02T12:19:00.000Z",
  "airports": {
    "KPOC": {
      "name": "Brackett Field",
      "metar": "",
      "metarTime": "",
      "taf": "",
      "tafTime": ""
    },
    "KCCB": {
      "name": "Cable Airport",
      "metar": "METAR KCCB 021215Z AUTO 00000KT 5SM BR 13/13 A2993 RMK AO2",
      "metarTime": "2026-05-02T12:15:00.000Z",
      "taf": "",
      "tafTime": ""
    },
    "KRAL": {
      "name": "Riverside Municipal",
      "metar": "SPECI KRAL 021219Z AUTO 00000KT 9SM BKN018 13/12 A2993 RMK AO2 T01330117",
      "metarTime": "2026-05-02T12:19:00.000Z",
      "taf": "",
      "tafTime": ""
    }
  }
}
