{
  "updated": "2026-07-02T13:00:00.000Z",
  "airports": {
    "KPOC": {
      "name": "Brackett Field",
      "metar": "",
      "metarTime": "",
      "taf": "",
      "tafTime": ""
    },
    "KCCB": {
      "name": "Cable Airport",
      "metar": "METAR KCCB 021255Z AUTO 36004KT 6SM BR 14/14 A2995 RMK AO2",
      "metarTime": "2026-07-02T13:00:00.000Z",
      "taf": "",
      "tafTime": ""
    },
    "KRAL": {
      "name": "Riverside Municipal",
      "metar": "METAR KRAL 021253Z AUTO VRB03KT 10SM OVC012 17/14 A2995 RMK AO2 SLP126 T01670139",
      "metarTime": "2026-07-02T13:00:00.000Z",
      "taf": "",
      "tafTime": ""
    }
  }
}
