{
  "updated": "2026-05-29T09:15:00.000Z",
  "airports": {
    "KPOC": {
      "name": "Brackett Field",
      "metar": "",
      "metarTime": "",
      "taf": "",
      "tafTime": ""
    },
    "KCCB": {
      "name": "Cable Airport",
      "metar": "METAR KCCB 290915Z AUTO 23005KT 10SM OVC016 13/10 A2995 RMK AO2",
      "metarTime": "2026-05-29T09:15:00.000Z",
      "taf": "",
      "tafTime": ""
    },
    "KRAL": {
      "name": "Riverside Municipal",
      "metar": "METAR KRAL 290853Z AUTO 00000KT 10SM OVC046 14/09 A2996 RMK AO2 SLP132 T01440089 50001",
      "metarTime": "2026-05-29T09:00:00.000Z",
      "taf": "",
      "tafTime": ""
    }
  }
}
