{
  "updated": "2026-02-05T15:15:00.000Z",
  "airports": {
    "KPOC": {
      "name": "Brackett Field",
      "metar": "METAR KPOC 051447Z 00000KT 10SM CLR 13/M03 A3008",
      "metarTime": "2026-02-05T15:00:00.000Z",
      "taf": "",
      "tafTime": ""
    },
    "KCCB": {
      "name": "Cable Airport",
      "metar": "METAR KCCB 051515Z AUTO 04006KT 10SM CLR 15/M07 A3009 RMK AO2",
      "metarTime": "2026-02-05T15:15:00.000Z",
      "taf": "",
      "tafTime": ""
    },
    "KRAL": {
      "name": "Riverside Municipal",
      "metar": "METAR KRAL 051453Z 10004KT 10SM CLR 12/M03 A3008 RMK AO2 SLP173 T01221028 53005",
      "metarTime": "2026-02-05T15:00:00.000Z",
      "taf": "",
      "tafTime": ""
    }
  }
}
