{
  "updated": "2026-07-05T17:35:00.000Z",
  "airports": {
    "KPOC": {
      "name": "Brackett Field",
      "metar": "METAR KPOC 051647Z 27006KT 4SM HZ CLR 23/15 A3002",
      "metarTime": "2026-07-05T17:00:00.000Z",
      "taf": "",
      "tafTime": ""
    },
    "KCCB": {
      "name": "Cable Airport",
      "metar": "METAR KCCB 051735Z AUTO 23006KT 6SM HZ CLR 25/13 A3001 RMK AO2",
      "metarTime": "2026-07-05T17:35:00.000Z",
      "taf": "",
      "tafTime": ""
    },
    "KRAL": {
      "name": "Riverside Municipal",
      "metar": "METAR KRAL 051653Z VRB04KT 5SM HZ CLR 25/13 A3000 RMK AO2 SLP142 T02500133",
      "metarTime": "2026-07-05T17:00:00.000Z",
      "taf": "",
      "tafTime": ""
    }
  }
}
