{
  "updated": "2026-04-02T23:15:00.000Z",
  "airports": {
    "KPOC": {
      "name": "Brackett Field",
      "metar": "METAR KPOC 022247Z 25010KT 10SM FEW040 BKN100 19/10 A2992",
      "metarTime": "2026-04-02T23:00:00.000Z",
      "taf": "",
      "tafTime": ""
    },
    "KCCB": {
      "name": "Cable Airport",
      "metar": "METAR KCCB 022315Z AUTO 25010KT 10SM OVC035 18/09 A2991 RMK AO2",
      "metarTime": "2026-04-02T23:15:00.000Z",
      "taf": "",
      "tafTime": ""
    },
    "KRAL": {
      "name": "Riverside Municipal",
      "metar": "METAR KRAL 022253Z AUTO 32006KT 10SM BKN050 21/09 A2990 RMK AO2 SLP112 T02110089",
      "metarTime": "2026-04-02T23:00:00.000Z",
      "taf": "",
      "tafTime": ""
    }
  }
}
