{
  "updated": "2026-06-22T22:00:00.000Z",
  "airports": {
    "KPOC": {
      "name": "Brackett Field",
      "metar": "METAR KPOC 222147Z 26009KT 10SM CLR 28/13 A2993",
      "metarTime": "2026-06-22T22:00:00.000Z",
      "taf": "",
      "tafTime": ""
    },
    "KCCB": {
      "name": "Cable Airport",
      "metar": "METAR KCCB 222135Z AUTO 27012KT 10SM CLR 28/12 A2994 RMK AO2",
      "metarTime": "2026-06-22T21:35:00.000Z",
      "taf": "",
      "tafTime": ""
    },
    "KRAL": {
      "name": "Riverside Municipal",
      "metar": "METAR KRAL 222053Z 29007KT 260V330 10SM CLR 32/12 A2990 RMK AO2 SLP109 T03170117 58012",
      "metarTime": "2026-06-22T21:00:00.000Z",
      "taf": "",
      "tafTime": ""
    }
  }
}
