{
  "updated": "2026-05-11T17:00:00.000Z",
  "airports": {
    "KPOC": {
      "name": "Brackett Field",
      "metar": "METAR KPOC 111647Z VRB06KT 10SM CLR 27/13 A2997",
      "metarTime": "2026-05-11T17:00:00.000Z",
      "taf": "",
      "tafTime": ""
    },
    "KCCB": {
      "name": "Cable Airport",
      "metar": "METAR KCCB 111655Z AUTO 15003KT 10SM CLR 28/10 A2997 RMK AO2",
      "metarTime": "2026-05-11T17:00:00.000Z",
      "taf": "",
      "tafTime": ""
    },
    "KRAL": {
      "name": "Riverside Municipal",
      "metar": "METAR KRAL 111653Z 00000KT 10SM CLR 28/11 A2994 RMK AO2 SLP124 T02780111",
      "metarTime": "2026-05-11T17:00:00.000Z",
      "taf": "",
      "tafTime": ""
    }
  }
}
