{
  "updated": "2026-03-21T22:00:00.000Z",
  "airports": {
    "KPOC": {
      "name": "Brackett Field",
      "metar": "METAR KPOC 212047Z 25010KT 10SM CLR 30/11 A2994",
      "metarTime": "2026-03-21T21:00:00.000Z",
      "taf": "",
      "tafTime": ""
    },
    "KCCB": {
      "name": "Cable Airport",
      "metar": "METAR KCCB 212155Z AUTO 25011G17KT 10SM CLR 30/08 A2993 RMK AO2",
      "metarTime": "2026-03-21T22:00:00.000Z",
      "taf": "",
      "tafTime": ""
    },
    "KRAL": {
      "name": "Riverside Municipal",
      "metar": "METAR KRAL 212153Z 27012G17KT 10SM CLR 33/04 A2989 RMK AO2 SLP105 T03330044",
      "metarTime": "2026-03-21T22:00:00.000Z",
      "taf": "",
      "tafTime": ""
    }
  }
}
