{
  "updated": "2026-04-26T16:15:00.000Z",
  "airports": {
    "KPOC": {
      "name": "Brackett Field",
      "metar": "METAR KPOC 261547Z 27008KT 10SM SCT015 13/09 A2993",
      "metarTime": "2026-04-26T16:00:00.000Z",
      "taf": "",
      "tafTime": ""
    },
    "KCCB": {
      "name": "Cable Airport",
      "metar": "METAR KCCB 261615Z AUTO 27009KT 10SM SCT017 SCT023 BKN027 12/09 A2992 RMK AO2",
      "metarTime": "2026-04-26T16:15:00.000Z",
      "taf": "",
      "tafTime": ""
    },
    "KRAL": {
      "name": "Riverside Municipal",
      "metar": "METAR KRAL 261553Z 26013KT 10SM SCT018 SCT035 14/09 A2992 RMK AO2 SLP121 T01390089",
      "metarTime": "2026-04-26T16:00:00.000Z",
      "taf": "",
      "tafTime": ""
    }
  }
}
