{
  "updated": "2026-03-22T21:30:00.000Z",
  "airports": {
    "KPOC": {
      "name": "Brackett Field",
      "metar": "",
      "metarTime": "",
      "taf": "",
      "tafTime": ""
    },
    "KCCB": {
      "name": "Cable Airport",
      "metar": "METAR KCCB 222130Z AUTO 27012KT 9SM CLR 27/11 A2990 RMK AO2",
      "metarTime": "2026-03-22T21:30:00.000Z",
      "taf": "",
      "tafTime": ""
    },
    "KRAL": {
      "name": "Riverside Municipal",
      "metar": "METAR KRAL 222053Z VRB05KT 10SM CLR 31/07 A2988 RMK AO2 SLP101 T03060072 56018",
      "metarTime": "2026-03-22T21:00:00.000Z",
      "taf": "",
      "tafTime": ""
    }
  }
}
