{
  "updated": "2026-02-26T05:00:00.000Z",
  "airports": {
    "KPOC": {
      "name": "Brackett Field",
      "metar": "METAR KPOC 260447Z 28004KT 10SM CLR 17/12 A3008",
      "metarTime": "2026-02-26T05:00:00.000Z",
      "taf": "",
      "tafTime": ""
    },
    "KCCB": {
      "name": "Cable Airport",
      "metar": "METAR KCCB 260455Z AUTO 27005KT 10SM CLR 18/12 A3007 RMK AO2",
      "metarTime": "2026-02-26T05:00:00.000Z",
      "taf": "",
      "tafTime": ""
    },
    "KRAL": {
      "name": "Riverside Municipal",
      "metar": "METAR KRAL 260453Z AUTO 00000KT 10SM CLR 18/12 A3006 RMK AO2 SLP167 T01830122",
      "metarTime": "2026-02-26T05:00:00.000Z",
      "taf": "",
      "tafTime": ""
    }
  }
}
