{
  "updated": "2026-05-04T11:35:00.000Z",
  "airports": {
    "KPOC": {
      "name": "Brackett Field",
      "metar": "",
      "metarTime": "",
      "taf": "",
      "tafTime": ""
    },
    "KCCB": {
      "name": "Cable Airport",
      "metar": "METAR KCCB 041135Z AUTO 27005KT 10SM OVC046 12/11 A2996 RMK AO2",
      "metarTime": "2026-05-04T11:35:00.000Z",
      "taf": "",
      "tafTime": ""
    },
    "KRAL": {
      "name": "Riverside Municipal",
      "metar": "METAR KRAL 041053Z AUTO 27004KT 10SM SCT050 13/08 A2996 RMK AO2 SLP134 T01330083",
      "metarTime": "2026-05-04T11:00:00.000Z",
      "taf": "",
      "tafTime": ""
    }
  }
}
