{
  "updated": "2026-03-12T19:15:00.000Z",
  "airports": {
    "KPOC": {
      "name": "Brackett Field",
      "metar": "METAR KPOC 121847Z 15003KT 10SM CLR 28/03 A3021",
      "metarTime": "2026-03-12T19:00:00.000Z",
      "taf": "",
      "tafTime": ""
    },
    "KCCB": {
      "name": "Cable Airport",
      "metar": "METAR KCCB 121915Z AUTO 27005KT 10SM CLR 28/01 A3020 RMK AO2",
      "metarTime": "2026-03-12T19:15:00.000Z",
      "taf": "",
      "tafTime": ""
    },
    "KRAL": {
      "name": "Riverside Municipal",
      "metar": "METAR KRAL 121853Z 03005KT 10SM CLR 31/01 A3018 RMK AO2 SLP206 T03110006 $",
      "metarTime": "2026-03-12T19:00:00.000Z",
      "taf": "",
      "tafTime": ""
    }
  }
}
