{
  "updated": "2026-06-17T20:15:00.000Z",
  "airports": {
    "KPOC": {
      "name": "Brackett Field",
      "metar": "METAR KPOC 171947Z 27007KT 10SM CLR 25/13 A2994",
      "metarTime": "2026-06-17T20:00:00.000Z",
      "taf": "",
      "tafTime": ""
    },
    "KCCB": {
      "name": "Cable Airport",
      "metar": "METAR KCCB 172015Z AUTO 26012KT 10SM CLR 26/12 A2993 RMK AO2",
      "metarTime": "2026-06-17T20:15:00.000Z",
      "taf": "",
      "tafTime": ""
    },
    "KRAL": {
      "name": "Riverside Municipal",
      "metar": "METAR KRAL 171953Z 27009G18KT 10SM CLR 28/13 A2991 RMK AO2 SLP113 T02830128",
      "metarTime": "2026-06-17T20:00:00.000Z",
      "taf": "",
      "tafTime": ""
    }
  }
}
