{
  "updated": "2026-04-20T05:15:00.000Z",
  "airports": {
    "KPOC": {
      "name": "Brackett Field",
      "metar": "",
      "metarTime": "",
      "taf": "",
      "tafTime": ""
    },
    "KCCB": {
      "name": "Cable Airport",
      "metar": "METAR KCCB 200515Z AUTO 27004KT 10SM CLR 17/08 A2995 RMK AO2",
      "metarTime": "2026-04-20T05:15:00.000Z",
      "taf": "",
      "tafTime": ""
    },
    "KRAL": {
      "name": "Riverside Municipal",
      "metar": "METAR KRAL 200453Z AUTO 28004KT 10SM CLR 17/09 A2993 RMK AO2 SLP124 T01720094",
      "metarTime": "2026-04-20T05:00:00.000Z",
      "taf": "",
      "tafTime": ""
    }
  }
}
