{
  "updated": "2026-05-18T14:15:00.000Z",
  "airports": {
    "KPOC": {
      "name": "Brackett Field",
      "metar": "METAR KPOC 181347Z 26005KT 4SM BR OVC012 14/12 A2987",
      "metarTime": "2026-05-18T14:00:00.000Z",
      "taf": "",
      "tafTime": ""
    },
    "KCCB": {
      "name": "Cable Airport",
      "metar": "METAR KCCB 181415Z AUTO 26007KT 7SM BKN009 BKN014 14/14 A2986 RMK AO2",
      "metarTime": "2026-05-18T14:15:00.000Z",
      "taf": "",
      "tafTime": ""
    },
    "KRAL": {
      "name": "Riverside Municipal",
      "metar": "METAR KRAL 181353Z AUTO 25005KT 9SM FEW013 14/12 A2986 RMK AO2 SLP099 T01390117",
      "metarTime": "2026-05-18T14:00:00.000Z",
      "taf": "",
      "tafTime": ""
    }
  }
}
