{
  "updated": "2026-07-11T04:00:00.000Z",
  "airports": {
    "KPOC": {
      "name": "Brackett Field",
      "metar": "METAR KPOC 110347Z 25008KT 10SM CLR 24/16 A2987 RMK LAST",
      "metarTime": "2026-07-11T04:00:00.000Z",
      "taf": "",
      "tafTime": ""
    },
    "KCCB": {
      "name": "Cable Airport",
      "metar": "METAR KCCB 110335Z AUTO 27010KT 10SM 25/14 A2987 RMK AO2",
      "metarTime": "2026-07-11T03:35:00.000Z",
      "taf": "",
      "tafTime": ""
    },
    "KRAL": {
      "name": "Riverside Municipal",
      "metar": "METAR KRAL 110253Z 25007KT 10SM CLR 27/14 A2984 RMK AO2 SLP088 T02670144 55001",
      "metarTime": "2026-07-11T03:00:00.000Z",
      "taf": "",
      "tafTime": ""
    }
  }
}
