{
  "updated": "2026-05-19T20:15:00.000Z",
  "airports": {
    "KPOC": {
      "name": "Brackett Field",
      "metar": "METAR KPOC 191947Z 25005KT 10SM CLR 28/M04 A2996",
      "metarTime": "2026-05-19T20:00:00.000Z",
      "taf": "",
      "tafTime": ""
    },
    "KCCB": {
      "name": "Cable Airport",
      "metar": "METAR KCCB 192015Z AUTO 30006G14KT 10SM CLR 28/M08 A2996 RMK AO2",
      "metarTime": "2026-05-19T20:15:00.000Z",
      "taf": "",
      "tafTime": ""
    },
    "KRAL": {
      "name": "Riverside Municipal",
      "metar": "METAR KRAL 191953Z VRB06KT 10SM CLR 31/M07 A2994 RMK AO2 SLP122 T03061072",
      "metarTime": "2026-05-19T20:00:00.000Z",
      "taf": "",
      "tafTime": ""
    }
  }
}
