{
  "updated": "2026-03-09T22:00:00.000Z",
  "airports": {
    "KPOC": {
      "name": "Brackett Field",
      "metar": "METAR KPOC 092147Z 24005KT 10SM CLR 22/07 A2987",
      "metarTime": "2026-03-09T22:00:00.000Z",
      "taf": "",
      "tafTime": ""
    },
    "KCCB": {
      "name": "Cable Airport",
      "metar": "METAR KCCB 092135Z AUTO 27007G12KT 10SM CLR 22/06 A2987 RMK AO2",
      "metarTime": "2026-03-09T21:35:00.000Z",
      "taf": "",
      "tafTime": ""
    },
    "KRAL": {
      "name": "Riverside Municipal",
      "metar": "METAR KRAL 092053Z 00000KT 10SM CLR 23/06 A2988 RMK AO2 SLP104 T02280056 58023",
      "metarTime": "2026-03-09T21:00:00.000Z",
      "taf": "",
      "tafTime": ""
    }
  }
}
