{
  "updated": "2026-07-22T00:00:00.000Z",
  "airports": {
    "KPOC": {
      "name": "Brackett Field",
      "metar": "METAR KPOC 212247Z 26013G17KT 10SM CLR 32/16 A2997",
      "metarTime": "2026-07-21T23:00:00.000Z",
      "taf": "",
      "tafTime": ""
    },
    "KCCB": {
      "name": "Cable Airport",
      "metar": "METAR KCCB 212355Z AUTO 25013G19KT 10SM CLR 31/11 A2996 RMK AO2",
      "metarTime": "2026-07-22T00:00:00.000Z",
      "taf": "",
      "tafTime": ""
    },
    "KRAL": {
      "name": "Riverside Municipal",
      "metar": "METAR KRAL 212353Z 27015KT 10SM CLR 32/10 A2994 RMK AO2 SLP120 T03220100 10339 20289 56011",
      "metarTime": "2026-07-22T00:00:00.000Z",
      "taf": "",
      "tafTime": ""
    }
  }
}
