{
  "updated": "2026-02-08T04:00:00.000Z",
  "airports": {
    "KPOC": {
      "name": "Brackett Field",
      "metar": "METAR KPOC 080347Z 00000KT 10SM CLR 17/08 A3017",
      "metarTime": "2026-02-08T04:00:00.000Z",
      "taf": "",
      "tafTime": ""
    },
    "KCCB": {
      "name": "Cable Airport",
      "metar": "METAR KCCB 080355Z AUTO 00000KT 10SM CLR 19/M02 A3018 RMK AO2",
      "metarTime": "2026-02-08T04:00:00.000Z",
      "taf": "",
      "tafTime": ""
    },
    "KRAL": {
      "name": "Riverside Municipal",
      "metar": "METAR KRAL 080353Z AUTO 15003KT 10SM CLR 18/07 A3018 RMK AO2 SLP208 T01830067 $",
      "metarTime": "2026-02-08T04:00:00.000Z",
      "taf": "",
      "tafTime": ""
    }
  }
}
