{
  "updated": "2026-04-21T17:15:00.000Z",
  "airports": {
    "KPOC": {
      "name": "Brackett Field",
      "metar": "METAR KPOC 211647Z 15004KT 10SM CLR 17/09 A3006",
      "metarTime": "2026-04-21T17:00:00.000Z",
      "taf": "",
      "tafTime": ""
    },
    "KCCB": {
      "name": "Cable Airport",
      "metar": "METAR KCCB 211715Z AUTO VRB04KT 9SM CLR 16/09 A3006 RMK AO2",
      "metarTime": "2026-04-21T17:15:00.000Z",
      "taf": "",
      "tafTime": ""
    },
    "KRAL": {
      "name": "Riverside Municipal",
      "metar": "METAR KRAL 211653Z VRB03KT 10SM CLR 18/09 A3005 RMK AO2 SLP166 T01780094",
      "metarTime": "2026-04-21T17:00:00.000Z",
      "taf": "",
      "tafTime": ""
    }
  }
}
