{
  "updated": "2026-06-09T14:00:00.000Z",
  "airports": {
    "KPOC": {
      "name": "Brackett Field",
      "metar": "METAR KPOC 091347Z 27005KT 10SM CLR 16/13 A2991",
      "metarTime": "2026-06-09T14:00:00.000Z",
      "taf": "",
      "tafTime": ""
    },
    "KCCB": {
      "name": "Cable Airport",
      "metar": "METAR KCCB 091355Z AUTO 00000KT 9SM CLR 16/13 A2990 RMK AO2",
      "metarTime": "2026-06-09T14:00:00.000Z",
      "taf": "",
      "tafTime": ""
    },
    "KRAL": {
      "name": "Riverside Municipal",
      "metar": "METAR KRAL 091353Z 26003KT 10SM CLR 16/13 A2990 RMK AO2 SLP111 T01610128",
      "metarTime": "2026-06-09T14:00:00.000Z",
      "taf": "",
      "tafTime": ""
    }
  }
}
