{
  "updated": "2026-02-19T10:15:00.000Z",
  "airports": {
    "KPOC": {
      "name": "Brackett Field",
      "metar": "",
      "metarTime": "",
      "taf": "",
      "tafTime": ""
    },
    "KCCB": {
      "name": "Cable Airport",
      "metar": "METAR KCCB 191015Z AUTO 32004KT 10SM CLR 07/04 A2999 RMK AO2",
      "metarTime": "2026-02-19T10:15:00.000Z",
      "taf": "",
      "tafTime": ""
    },
    "KRAL": {
      "name": "Riverside Municipal",
      "metar": "METAR KRAL 190953Z AUTO 10004KT 10SM BKN039 BKN047 07/03 A3001 RMK AO2 SLP155 T00670033 $",
      "metarTime": "2026-02-19T10:00:00.000Z",
      "taf": "",
      "tafTime": ""
    }
  }
}
