{
  "updated": "2026-02-23T09:35:00.000Z",
  "airports": {
    "KPOC": {
      "name": "Brackett Field",
      "metar": "",
      "metarTime": "",
      "taf": "",
      "tafTime": ""
    },
    "KCCB": {
      "name": "Cable Airport",
      "metar": "METAR KCCB 230935Z AUTO 00000KT 10SM CLR 15/M03 A3019 RMK AO2",
      "metarTime": "2026-02-23T09:35:00.000Z",
      "taf": "",
      "tafTime": ""
    },
    "KRAL": {
      "name": "Riverside Municipal",
      "metar": "METAR KRAL 230853Z AUTO 10SM CLR 11/03 A3019 RMK AO2 SLP213 T01110028 57002 $",
      "metarTime": "2026-02-23T09:00:00.000Z",
      "taf": "",
      "tafTime": ""
    }
  }
}
