{
  "updated": "2026-05-17T23:35:00.000Z",
  "airports": {
    "KPOC": {
      "name": "Brackett Field",
      "metar": "METAR KPOC 172247Z 29006KT 10SM OVC035 18/11 A2975",
      "metarTime": "2026-05-17T23:00:00.000Z",
      "taf": "",
      "tafTime": ""
    },
    "KCCB": {
      "name": "Cable Airport",
      "metar": "METAR KCCB 172335Z AUTO 29009KT 8SM OVC028 17/12 A2973 RMK AO2",
      "metarTime": "2026-05-17T23:35:00.000Z",
      "taf": "",
      "tafTime": ""
    },
    "KRAL": {
      "name": "Riverside Municipal",
      "metar": "METAR KRAL 172253Z 28006G15KT 10SM BKN050 21/11 A2973 RMK AO2 SLP054 T02060106",
      "metarTime": "2026-05-17T23:00:00.000Z",
      "taf": "",
      "tafTime": ""
    }
  }
}
