{
  "updated": "2026-02-27T20:00:00.000Z",
  "airports": {
    "KPOC": {
      "name": "Brackett Field",
      "metar": "METAR KPOC 271947Z 16003KT 10SM CLR 30/09 A3001",
      "metarTime": "2026-02-27T20:00:00.000Z",
      "taf": "",
      "tafTime": ""
    },
    "KCCB": {
      "name": "Cable Airport",
      "metar": "METAR KCCB 271955Z AUTO 20004KT 10SM CLR 29/06 A3002 RMK AO2",
      "metarTime": "2026-02-27T20:00:00.000Z",
      "taf": "",
      "tafTime": ""
    },
    "KRAL": {
      "name": "Riverside Municipal",
      "metar": "METAR KRAL 271953Z 11005KT 10SM CLR 32/09 A2999 RMK AO2 SLP137 T03170089",
      "metarTime": "2026-02-27T20:00:00.000Z",
      "taf": "",
      "tafTime": ""
    }
  }
}
