{
  "updated": "2026-05-11T22:00:00.000Z",
  "airports": {
    "KPOC": {
      "name": "Brackett Field",
      "metar": "METAR KPOC 112147Z 25010KT 10SM CLR 32/11 A2996",
      "metarTime": "2026-05-11T22:00:00.000Z",
      "taf": "",
      "tafTime": ""
    },
    "KCCB": {
      "name": "Cable Airport",
      "metar": "METAR KCCB 112155Z AUTO 24008G14KT 10SM CLR 33/05 A2997 RMK AO2",
      "metarTime": "2026-05-11T22:00:00.000Z",
      "taf": "",
      "tafTime": ""
    },
    "KRAL": {
      "name": "Riverside Municipal",
      "metar": "METAR KRAL 112153Z 28011G19KT 10SM CLR 36/08 A2991 RMK AO2 SLP113 T03560083",
      "metarTime": "2026-05-11T22:00:00.000Z",
      "taf": "",
      "tafTime": ""
    }
  }
}
