{
  "updated": "2026-04-27T06:35:00.000Z",
  "airports": {
    "KPOC": {
      "name": "Brackett Field",
      "metar": "",
      "metarTime": "",
      "taf": "",
      "tafTime": ""
    },
    "KCCB": {
      "name": "Cable Airport",
      "metar": "METAR KCCB 270635Z AUTO 27005KT 10SM FEW028 SCT034 BKN041 12/06 A3000 RMK AO2",
      "metarTime": "2026-04-27T06:35:00.000Z",
      "taf": "",
      "tafTime": ""
    },
    "KRAL": {
      "name": "Riverside Municipal",
      "metar": "METAR KRAL 270553Z AUTO 26008KT 10SM BKN055 12/07 A3000 RMK AO2 SLP147 T01220072 10183 20122 51012",
      "metarTime": "2026-04-27T06:00:00.000Z",
      "taf": "",
      "tafTime": ""
    }
  }
}
