{
  "updated": "2026-03-27T17:00:00.000Z",
  "airports": {
    "KPOC": {
      "name": "Brackett Field",
      "metar": "METAR KPOC 271647Z 13004KT 7SM CLR 22/13 A2999",
      "metarTime": "2026-03-27T17:00:00.000Z",
      "taf": "",
      "tafTime": ""
    },
    "KCCB": {
      "name": "Cable Airport",
      "metar": "METAR KCCB 271655Z AUTO VRB04KT 9SM CLR 24/10 A2999 RMK AO2",
      "metarTime": "2026-03-27T17:00:00.000Z",
      "taf": "",
      "tafTime": ""
    },
    "KRAL": {
      "name": "Riverside Municipal",
      "metar": "METAR KRAL 271653Z 26003KT 7SM CLR 22/11 A2998 RMK AO2 SLP138 T02220111",
      "metarTime": "2026-03-27T17:00:00.000Z",
      "taf": "",
      "tafTime": ""
    }
  }
}
