{
  "updated": "2026-02-19T22:00:00.000Z",
  "airports": {
    "KPOC": {
      "name": "Brackett Field",
      "metar": "METAR KPOC 192147Z 08004KT 3/4SM -RABR VV005 08/08 A2985",
      "metarTime": "2026-02-19T22:00:00.000Z",
      "taf": "",
      "tafTime": ""
    },
    "KCCB": {
      "name": "Cable Airport",
      "metar": "METAR KCCB 192135Z AUTO 00000KT 1 1/2SM +RA FEW007 BKN013 08/08 A2984 RMK AO2",
      "metarTime": "2026-02-19T21:35:00.000Z",
      "taf": "",
      "tafTime": ""
    },
    "KRAL": {
      "name": "Riverside Municipal",
      "metar": "SPECI KRAL 192148Z 00000KT 2 1/2SM -RA BR BKN004 OVC033 10/09 A2985 RMK AO2 P0005",
      "metarTime": "2026-02-19T21:48:00.000Z",
      "taf": "",
      "tafTime": ""
    }
  }
}
