{
  "updated": "2026-04-03T23:15:00.000Z",
  "airports": {
    "KPOC": {
      "name": "Brackett Field",
      "metar": "METAR KPOC 032247Z 24005KT 10SM CLR 27/05 A3000",
      "metarTime": "2026-04-03T23:00:00.000Z",
      "taf": "",
      "tafTime": ""
    },
    "KCCB": {
      "name": "Cable Airport",
      "metar": "METAR KCCB 032315Z AUTO VRB04KT 10SM CLR 26/00 A2999 RMK AO2",
      "metarTime": "2026-04-03T23:15:00.000Z",
      "taf": "",
      "tafTime": ""
    },
    "KRAL": {
      "name": "Riverside Municipal",
      "metar": "METAR KRAL 032253Z 02010G26KT 10SM CLR 26/M12 A3000 RMK AO2 PK WND 01032/2219 SLP146 T02611122",
      "metarTime": "2026-04-03T23:00:00.000Z",
      "taf": "",
      "tafTime": ""
    }
  }
}
