{
  "updated": "2026-02-21T16:00:00.000Z",
  "airports": {
    "KPOC": {
      "name": "Brackett Field",
      "metar": "METAR KPOC 211547Z VRB05KT 10SM CLR 08/01 A3017",
      "metarTime": "2026-02-21T16:00:00.000Z",
      "taf": "",
      "tafTime": ""
    },
    "KCCB": {
      "name": "Cable Airport",
      "metar": "METAR KCCB 211555Z AUTO 00000KT 10SM CLR 08/M02 A3015 RMK AO2",
      "metarTime": "2026-02-21T16:00:00.000Z",
      "taf": "",
      "tafTime": ""
    },
    "KRAL": {
      "name": "Riverside Municipal",
      "metar": "METAR KRAL 211553Z 08005KT 10SM CLR 08/02 A3016 RMK AO2 SLP207 T00780022 $",
      "metarTime": "2026-02-21T16:00:00.000Z",
      "taf": "",
      "tafTime": ""
    }
  }
}
