{
  "updated": "2026-06-12T16:00:00.000Z",
  "airports": {
    "KPOC": {
      "name": "Brackett Field",
      "metar": "METAR KPOC 121547Z 27003KT 10SM CLR 23/17 A2992",
      "metarTime": "2026-06-12T16:00:00.000Z",
      "taf": "",
      "tafTime": ""
    },
    "KCCB": {
      "name": "Cable Airport",
      "metar": "METAR KCCB 121555Z AUTO 21004KT 10SM CLR 24/16 A2992 RMK AO2",
      "metarTime": "2026-06-12T16:00:00.000Z",
      "taf": "",
      "tafTime": ""
    },
    "KRAL": {
      "name": "Riverside Municipal",
      "metar": "METAR KRAL 121553Z 00000KT 10SM CLR 24/16 A2990 RMK AO2 SLP111 T02390161",
      "metarTime": "2026-06-12T16:00:00.000Z",
      "taf": "",
      "tafTime": ""
    }
  }
}
