{
  "updated": "2026-03-18T06:15:00.000Z",
  "airports": {
    "KPOC": {
      "name": "Brackett Field",
      "metar": "",
      "metarTime": "",
      "taf": "",
      "tafTime": ""
    },
    "KCCB": {
      "name": "Cable Airport",
      "metar": "METAR KCCB 180615Z AUTO 06005KT 10SM 26/04 A3002 RMK AO2",
      "metarTime": "2026-03-18T06:15:00.000Z",
      "taf": "",
      "tafTime": ""
    },
    "KRAL": {
      "name": "Riverside Municipal",
      "metar": "METAR KRAL 180553Z AUTO 09003KT 10SM CLR 24/06 A2999 RMK AO2 SLP138 T02390061 10356 20239 51022",
      "metarTime": "2026-03-18T06:00:00.000Z",
      "taf": "",
      "tafTime": ""
    }
  }
}
