{
  "updated": "2026-03-22T22:35:00.000Z",
  "airports": {
    "KPOC": {
      "name": "Brackett Field",
      "metar": "",
      "metarTime": "",
      "taf": "",
      "tafTime": ""
    },
    "KCCB": {
      "name": "Cable Airport",
      "metar": "METAR KCCB 222235Z AUTO 26011KT 10SM CLR 27/10 A2989 RMK AO2",
      "metarTime": "2026-03-22T22:35:00.000Z",
      "taf": "",
      "tafTime": ""
    },
    "KRAL": {
      "name": "Riverside Municipal",
      "metar": "METAR KRAL 222153Z 28013G20KT 10SM CLR 31/11 A2985 RMK AO2 SLP093 T03060111",
      "metarTime": "2026-03-22T22:00:00.000Z",
      "taf": "",
      "tafTime": ""
    }
  }
}
