{
  "updated": "2026-04-01T06:00:00.000Z",
  "airports": {
    "KPOC": {
      "name": "Brackett Field",
      "metar": "",
      "metarTime": "",
      "taf": "",
      "tafTime": ""
    },
    "KCCB": {
      "name": "Cable Airport",
      "metar": "METAR KCCB 010555Z AUTO 06004KT 10SM OVC070 16/16 A2993 RMK AO2 P0002",
      "metarTime": "2026-04-01T06:00:00.000Z",
      "taf": "",
      "tafTime": ""
    },
    "KRAL": {
      "name": "Riverside Municipal",
      "metar": "METAR KRAL 010553Z AUTO 00000KT 10SM -RA OVC100 16/15 A2993 RMK AO2 SLP124 P0001 60003 T01610150 10194 20161 50004",
      "metarTime": "2026-04-01T06:00:00.000Z",
      "taf": "",
      "tafTime": ""
    }
  }
}
