{
  "updated": "2026-02-18T06:15:00.000Z",
  "airports": {
    "KPOC": {
      "name": "Brackett Field",
      "metar": "",
      "metarTime": "",
      "taf": "",
      "tafTime": ""
    },
    "KCCB": {
      "name": "Cable Airport",
      "metar": "METAR KCCB 180615Z AUTO 26008G15KT 3SM RA FEW007 SCT015 BKN019 09/09 A2995 RMK AO2",
      "metarTime": "2026-02-18T06:15:00.000Z",
      "taf": "",
      "tafTime": ""
    },
    "KRAL": {
      "name": "Riverside Municipal",
      "metar": "METAR KRAL 180553Z AUTO 17015G22KT 10SM FEW044 OVC055 12/05 A2996 RMK AO2 SLP137 T01170050 10139 20106 58017",
      "metarTime": "2026-02-18T06:00:00.000Z",
      "taf": "",
      "tafTime": ""
    }
  }
}
