{
  "updated": "2026-03-06T11:15:00.000Z",
  "airports": {
    "KPOC": {
      "name": "Brackett Field",
      "metar": "",
      "metarTime": "",
      "taf": "",
      "tafTime": ""
    },
    "KCCB": {
      "name": "Cable Airport",
      "metar": "METAR KCCB 061115Z AUTO 36004KT 10SM CLR 11/M04 A2994 RMK AO2",
      "metarTime": "2026-03-06T11:15:00.000Z",
      "taf": "",
      "tafTime": ""
    },
    "KRAL": {
      "name": "Riverside Municipal",
      "metar": "METAR KRAL 061053Z AUTO 04008KT 10SM CLR 14/M04 A2996 RMK AO2 SLP134 T01441039",
      "metarTime": "2026-03-06T11:00:00.000Z",
      "taf": "",
      "tafTime": ""
    }
  }
}
