{
  "updated": "2026-07-02T05:15:00.000Z",
  "airports": {
    "KPOC": {
      "name": "Brackett Field",
      "metar": "",
      "metarTime": "",
      "taf": "",
      "tafTime": ""
    },
    "KCCB": {
      "name": "Cable Airport",
      "metar": "METAR KCCB 020515Z AUTO 26006KT 10SM 17/15 A2994 RMK AO2",
      "metarTime": "2026-07-02T05:15:00.000Z",
      "taf": "",
      "tafTime": ""
    },
    "KRAL": {
      "name": "Riverside Municipal",
      "metar": "METAR KRAL 020453Z AUTO 26008KT 10SM CLR 18/13 A2993 RMK AO2 SLP121 T01830133",
      "metarTime": "2026-07-02T05:00:00.000Z",
      "taf": "",
      "tafTime": ""
    }
  }
}
