{
  "updated": "2026-02-14T15:00:00.000Z",
  "airports": {
    "KPOC": {
      "name": "Brackett Field",
      "metar": "METAR KPOC 141447Z VRB04KT 10SM CLR 08/04 A3014",
      "metarTime": "2026-02-14T15:00:00.000Z",
      "taf": "",
      "tafTime": ""
    },
    "KCCB": {
      "name": "Cable Airport",
      "metar": "METAR KCCB 141455Z AUTO 00000KT 10SM CLR 10/04 A3012 RMK AO2",
      "metarTime": "2026-02-14T15:00:00.000Z",
      "taf": "",
      "tafTime": ""
    },
    "KRAL": {
      "name": "Riverside Municipal",
      "metar": "METAR KRAL 141453Z AUTO 03004KT 10SM FEW005 08/07 A3014 RMK AO2 SLP196 T00830067 51011",
      "metarTime": "2026-02-14T15:00:00.000Z",
      "taf": "",
      "tafTime": ""
    }
  }
}
