{
  "updated": "2026-02-09T06:35:00.000Z",
  "airports": {
    "KPOC": {
      "name": "Brackett Field",
      "metar": "",
      "metarTime": "",
      "taf": "",
      "tafTime": ""
    },
    "KCCB": {
      "name": "Cable Airport",
      "metar": "METAR KCCB 090635Z AUTO 03006KT 10SM CLR 19/M01 A3015 RMK AO2",
      "metarTime": "2026-02-09T06:35:00.000Z",
      "taf": "",
      "tafTime": ""
    },
    "KRAL": {
      "name": "Riverside Municipal",
      "metar": "METAR KRAL 090553Z AUTO 00000KT 10SM CLR 17/04 A3014 RMK AO2 SLP192 T01670044 10283 20161 58006 $",
      "metarTime": "2026-02-09T06:00:00.000Z",
      "taf": "",
      "tafTime": ""
    }
  }
}
