{
  "updated": "2026-04-30T23:35:00.000Z",
  "airports": {
    "KPOC": {
      "name": "Brackett Field",
      "metar": "METAR KPOC 302247Z 25012G19KT 10SM CLR 23/12 A2984",
      "metarTime": "2026-04-30T23:00:00.000Z",
      "taf": "",
      "tafTime": ""
    },
    "KCCB": {
      "name": "Cable Airport",
      "metar": "METAR KCCB 302335Z AUTO 27014G22KT 10SM CLR 23/11 A2983 RMK AO2",
      "metarTime": "2026-04-30T23:35:00.000Z",
      "taf": "",
      "tafTime": ""
    },
    "KRAL": {
      "name": "Riverside Municipal",
      "metar": "METAR KRAL 302253Z 27013G22KT 10SM CLR 25/11 A2982 RMK AO2 SLP084 T02500106",
      "metarTime": "2026-04-30T23:00:00.000Z",
      "taf": "",
      "tafTime": ""
    }
  }
}
