{
  "updated": "2026-04-22T08:00:00.000Z",
  "airports": {
    "KPOC": {
      "name": "Brackett Field",
      "metar": "",
      "metarTime": "",
      "taf": "",
      "tafTime": ""
    },
    "KCCB": {
      "name": "Cable Airport",
      "metar": "METAR KCCB 220755Z AUTO 25006KT 10SM BKN009 12/12 A3010 RMK AO2",
      "metarTime": "2026-04-22T08:00:00.000Z",
      "taf": "",
      "tafTime": ""
    },
    "KRAL": {
      "name": "Riverside Municipal",
      "metar": "METAR KRAL 220753Z AUTO 00000KT 10SM CLR 13/10 A3011 RMK AO2 SLP185 T01330100 402280106",
      "metarTime": "2026-04-22T08:00:00.000Z",
      "taf": "",
      "tafTime": ""
    }
  }
}
