{
  "updated": "2026-02-05T11:00:00.000Z",
  "airports": {
    "KPOC": {
      "name": "Brackett Field",
      "metar": "",
      "metarTime": "",
      "taf": "",
      "tafTime": ""
    },
    "KCCB": {
      "name": "Cable Airport",
      "metar": "METAR KCCB 051055Z AUTO 02005KT 10SM CLR 20/M11 A3008 RMK AO2",
      "metarTime": "2026-02-05T11:00:00.000Z",
      "taf": "",
      "tafTime": ""
    },
    "KRAL": {
      "name": "Riverside Municipal",
      "metar": "METAR KRAL 051053Z AUTO 06006KT 10SM CLR 14/M03 A3008 RMK AO2 SLP171 T01441028",
      "metarTime": "2026-02-05T11:00:00.000Z",
      "taf": "",
      "tafTime": ""
    }
  }
}
