{
  "updated": "2026-04-19T09:15:00.000Z",
  "airports": {
    "KPOC": {
      "name": "Brackett Field",
      "metar": "",
      "metarTime": "",
      "taf": "",
      "tafTime": ""
    },
    "KCCB": {
      "name": "Cable Airport",
      "metar": "METAR KCCB 190915Z AUTO 06004KT 10SM CLR 17/02 A2993 RMK AO2",
      "metarTime": "2026-04-19T09:15:00.000Z",
      "taf": "",
      "tafTime": ""
    },
    "KRAL": {
      "name": "Riverside Municipal",
      "metar": "METAR KRAL 190853Z AUTO 00000KT 10SM CLR 16/08 A2994 RMK AO2 SLP121 T01610083 58007",
      "metarTime": "2026-04-19T09:00:00.000Z",
      "taf": "",
      "tafTime": ""
    }
  }
}
