{
  "updated": "2026-05-17T17:35:00.000Z",
  "airports": {
    "KPOC": {
      "name": "Brackett Field",
      "metar": "METAR KPOC 171647Z 21006KT 7SM OVC016 16/12 A2982",
      "metarTime": "2026-05-17T17:00:00.000Z",
      "taf": "",
      "tafTime": ""
    },
    "KCCB": {
      "name": "Cable Airport",
      "metar": "METAR KCCB 171735Z AUTO 23005KT 7SM OVC020 15/13 A2981 RMK AO2",
      "metarTime": "2026-05-17T17:35:00.000Z",
      "taf": "",
      "tafTime": ""
    },
    "KRAL": {
      "name": "Riverside Municipal",
      "metar": "METAR KRAL 171653Z 25007KT 10SM OVC040 18/11 A2980 RMK AO2 SLP079 T01780106",
      "metarTime": "2026-05-17T17:00:00.000Z",
      "taf": "",
      "tafTime": ""
    }
  }
}
