{
  "updated": "2026-03-29T05:35:00.000Z",
  "airports": {
    "KPOC": {
      "name": "Brackett Field",
      "metar": "",
      "metarTime": "",
      "taf": "",
      "tafTime": ""
    },
    "KCCB": {
      "name": "Cable Airport",
      "metar": "METAR KCCB 290535Z AUTO 00000KT 10SM 21/06 A2998 RMK AO2",
      "metarTime": "2026-03-29T05:35:00.000Z",
      "taf": "",
      "tafTime": ""
    },
    "KRAL": {
      "name": "Riverside Municipal",
      "metar": "METAR KRAL 290453Z AUTO 00000KT 10SM CLR 21/12 A2997 RMK AO2 SLP135 T02110117",
      "metarTime": "2026-03-29T05:00:00.000Z",
      "taf": "",
      "tafTime": ""
    }
  }
}
