{
  "updated": "2026-05-17T21:35:00.000Z",
  "airports": {
    "KPOC": {
      "name": "Brackett Field",
      "metar": "METAR KPOC 172047Z 28005KT 7SM SCT030 OVC045 17/11 A2979",
      "metarTime": "2026-05-17T21:00:00.000Z",
      "taf": "",
      "tafTime": ""
    },
    "KCCB": {
      "name": "Cable Airport",
      "metar": "METAR KCCB 172135Z AUTO 27009KT 8SM BKN030 OVC035 17/11 A2977 RMK AO2",
      "metarTime": "2026-05-17T21:35:00.000Z",
      "taf": "",
      "tafTime": ""
    },
    "KRAL": {
      "name": "Riverside Municipal",
      "metar": "METAR KRAL 172053Z 26008KT 10SM FEW035 OVC050 21/10 A2977 RMK AO2 SLP067 T02060100 58010",
      "metarTime": "2026-05-17T21:00:00.000Z",
      "taf": "",
      "tafTime": ""
    }
  }
}
