{
  "updated": "2026-06-19T22:35:00.000Z",
  "airports": {
    "KPOC": {
      "name": "Brackett Field",
      "metar": "METAR KPOC 192147Z 26007KT 7SM CLR 22/13 A3000",
      "metarTime": "2026-06-19T22:00:00.000Z",
      "taf": "",
      "tafTime": ""
    },
    "KCCB": {
      "name": "Cable Airport",
      "metar": "METAR KCCB 192235Z AUTO 25011KT 10SM CLR 23/11 A2998 RMK AO2",
      "metarTime": "2026-06-19T22:35:00.000Z",
      "taf": "",
      "tafTime": ""
    },
    "KRAL": {
      "name": "Riverside Municipal",
      "metar": "",
      "metarTime": "",
      "taf": "",
      "tafTime": ""
    }
  }
}
