{
  "updated": "2026-04-01T08:00:00.000Z",
  "airports": {
    "KPOC": {
      "name": "Brackett Field",
      "metar": "",
      "metarTime": "",
      "taf": "",
      "tafTime": ""
    },
    "KCCB": {
      "name": "Cable Airport",
      "metar": "METAR KCCB 010735Z AUTO 00000KT 5SM RA BKN046 OVC055 15/15 A2995 RMK AO2",
      "metarTime": "2026-04-01T07:35:00.000Z",
      "taf": "",
      "tafTime": ""
    },
    "KRAL": {
      "name": "Riverside Municipal",
      "metar": "METAR KRAL 010753Z AUTO 20005KT 6SM -RA BR SCT019 BKN070 OVC080 16/15 A2994 RMK AO2 SLP127 P0003 T01610150 402170150",
      "metarTime": "2026-04-01T08:00:00.000Z",
      "taf": "",
      "tafTime": ""
    }
  }
}
