{
  "updated": "2026-07-06T17:15:00.000Z",
  "airports": {
    "KPOC": {
      "name": "Brackett Field",
      "metar": "METAR KPOC 061647Z 26005KT 10SM CLR 24/13 A2997",
      "metarTime": "2026-07-06T17:00:00.000Z",
      "taf": "",
      "tafTime": ""
    },
    "KCCB": {
      "name": "Cable Airport",
      "metar": "METAR KCCB 061715Z AUTO VRB05KT 10SM CLR 25/12 A2996 RMK AO2",
      "metarTime": "2026-07-06T17:15:00.000Z",
      "taf": "",
      "tafTime": ""
    },
    "KRAL": {
      "name": "Riverside Municipal",
      "metar": "METAR KRAL 061653Z 27005KT 10SM CLR 26/12 A2994 RMK AO2 SLP124 T02560122",
      "metarTime": "2026-07-06T17:00:00.000Z",
      "taf": "",
      "tafTime": ""
    }
  }
}
