{
  "updated": "2026-03-04T11:35:00.000Z",
  "airports": {
    "KPOC": {
      "name": "Brackett Field",
      "metar": "",
      "metarTime": "",
      "taf": "",
      "tafTime": ""
    },
    "KCCB": {
      "name": "Cable Airport",
      "metar": "METAR KCCB 041135Z AUTO 00000KT 10SM CLR 13/08 A2999 RMK AO2",
      "metarTime": "2026-03-04T11:35:00.000Z",
      "taf": "",
      "tafTime": ""
    },
    "KRAL": {
      "name": "Riverside Municipal",
      "metar": "METAR KRAL 041053Z AUTO 00000KT 10SM CLR 11/08 A3000 RMK AO2 SLP147 T01060083",
      "metarTime": "2026-03-04T11:00:00.000Z",
      "taf": "",
      "tafTime": ""
    }
  }
}
