{
  "updated": "2026-03-10T08:15:00.000Z",
  "airports": {
    "KPOC": {
      "name": "Brackett Field",
      "metar": "",
      "metarTime": "",
      "taf": "",
      "tafTime": ""
    },
    "KCCB": {
      "name": "Cable Airport",
      "metar": "METAR KCCB 100815Z AUTO 30004KT 10SM BKN005 13/13 A2997 RMK AO2",
      "metarTime": "2026-03-10T08:15:00.000Z",
      "taf": "",
      "tafTime": ""
    },
    "KRAL": {
      "name": "Riverside Municipal",
      "metar": "METAR KRAL 100753Z AUTO 17003KT 10SM CLR 13/10 A2997 RMK AO2 SLP136 T01280100 402440100",
      "metarTime": "2026-03-10T08:00:00.000Z",
      "taf": "",
      "tafTime": ""
    }
  }
}
