{
  "updated": "2026-02-21T14:00:00.000Z",
  "airports": {
    "KPOC": {
      "name": "Brackett Field",
      "metar": "",
      "metarTime": "",
      "taf": "",
      "tafTime": ""
    },
    "KCCB": {
      "name": "Cable Airport",
      "metar": "METAR KCCB 211355Z AUTO 00000KT 10SM CLR 05/00 A3010 RMK AO2",
      "metarTime": "2026-02-21T14:00:00.000Z",
      "taf": "",
      "tafTime": ""
    },
    "KRAL": {
      "name": "Riverside Municipal",
      "metar": "METAR KRAL 211353Z AUTO 00000KT 10SM CLR 03/01 A3013 RMK AO2 SLP195 T00280006 $",
      "metarTime": "2026-02-21T14:00:00.000Z",
      "taf": "",
      "tafTime": ""
    }
  }
}
