{
  "updated": "2026-07-23T01:35:00.000Z",
  "airports": {
    "KPOC": {
      "name": "Brackett Field",
      "metar": "METAR KPOC 230047Z 26010KT 10SM CLR 30/17 A2990",
      "metarTime": "2026-07-23T01:00:00.000Z",
      "taf": "",
      "tafTime": ""
    },
    "KCCB": {
      "name": "Cable Airport",
      "metar": "METAR KCCB 230135Z AUTO 27009KT 10SM CLR 29/16 A2991 RMK AO2",
      "metarTime": "2026-07-23T01:35:00.000Z",
      "taf": "",
      "tafTime": ""
    },
    "KRAL": {
      "name": "Riverside Municipal",
      "metar": "METAR KRAL 230053Z 28010KT 10SM CLR 32/18 A2988 RMK AO2 SLP101 T03170178",
      "metarTime": "2026-07-23T01:00:00.000Z",
      "taf": "",
      "tafTime": ""
    }
  }
}
