{
  "updated": "2026-04-04T21:15:00.000Z",
  "airports": {
    "KPOC": {
      "name": "Brackett Field",
      "metar": "METAR KPOC 042047Z 20003KT 10SM CLR 29/M11 A3001",
      "metarTime": "2026-04-04T21:00:00.000Z",
      "taf": "",
      "tafTime": ""
    },
    "KCCB": {
      "name": "Cable Airport",
      "metar": "METAR KCCB 042115Z AUTO 00000KT 10SM CLR 28/M19 A3000 RMK AO2",
      "metarTime": "2026-04-04T21:15:00.000Z",
      "taf": "",
      "tafTime": ""
    },
    "KRAL": {
      "name": "Riverside Municipal",
      "metar": "METAR KRAL 042053Z VRB06G18KT 10SM CLR 30/M10 A3000 RMK AO2 SLP143 T03001100 58022",
      "metarTime": "2026-04-04T21:00:00.000Z",
      "taf": "",
      "tafTime": ""
    }
  }
}
