{
  "updated": "2026-02-20T19:00:00.000Z",
  "airports": {
    "KPOC": {
      "name": "Brackett Field",
      "metar": "METAR KPOC 201847Z 20004KT 10SM CLR 10/03 A3004",
      "metarTime": "2026-02-20T19:00:00.000Z",
      "taf": "",
      "tafTime": ""
    },
    "KCCB": {
      "name": "Cable Airport",
      "metar": "METAR KCCB 201855Z AUTO VRB04KT 10SM CLR 10/01 A3002 RMK AO2",
      "metarTime": "2026-02-20T19:00:00.000Z",
      "taf": "",
      "tafTime": ""
    },
    "KRAL": {
      "name": "Riverside Municipal",
      "metar": "METAR KRAL 201853Z AUTO 00000KT 10SM CLR 11/M01 A3004 RMK AO2 SLP163 T01061011",
      "metarTime": "2026-02-20T19:00:00.000Z",
      "taf": "",
      "tafTime": ""
    }
  }
}
