{
  "updated": "2026-03-12T09:15:00.000Z",
  "airports": {
    "KPOC": {
      "name": "Brackett Field",
      "metar": "",
      "metarTime": "",
      "taf": "",
      "tafTime": ""
    },
    "KCCB": {
      "name": "Cable Airport",
      "metar": "METAR KCCB 120915Z AUTO 05003KT 10SM CLR 19/08 A3022 RMK AO2",
      "metarTime": "2026-03-12T09:15:00.000Z",
      "taf": "",
      "tafTime": ""
    },
    "KRAL": {
      "name": "Riverside Municipal",
      "metar": "METAR KRAL 120853Z AUTO 06003KT 10SM CLR 15/11 A3022 RMK AO2 SLP220 T01500111 50000",
      "metarTime": "2026-03-12T09:00:00.000Z",
      "taf": "",
      "tafTime": ""
    }
  }
}
