{
  "updated": "2026-06-06T00:00:00.000Z",
  "airports": {
    "KPOC": {
      "name": "Brackett Field",
      "metar": "METAR KPOC 052347Z 25015KT 10SM CLR 27/15 A2983",
      "metarTime": "2026-06-06T00:00:00.000Z",
      "taf": "",
      "tafTime": ""
    },
    "KCCB": {
      "name": "Cable Airport",
      "metar": "METAR KCCB 052355Z AUTO 26015G21KT 9SM CLR 27/14 A2983 RMK AO2",
      "metarTime": "2026-06-06T00:00:00.000Z",
      "taf": "",
      "tafTime": ""
    },
    "KRAL": {
      "name": "Riverside Municipal",
      "metar": "METAR KRAL 052353Z 27015G22KT 10SM CLR 28/14 A2980 RMK AO2 SLP078 T02830144 10311 20256 56006",
      "metarTime": "2026-06-06T00:00:00.000Z",
      "taf": "",
      "tafTime": ""
    }
  }
}
