{
  "updated": "2026-06-27T00:00:00.000Z",
  "airports": {
    "KPOC": {
      "name": "Brackett Field",
      "metar": "METAR KPOC 262347Z 26010KT 10SM CLR 26/12 A2992",
      "metarTime": "2026-06-27T00:00:00.000Z",
      "taf": "",
      "tafTime": ""
    },
    "KCCB": {
      "name": "Cable Airport",
      "metar": "METAR KCCB 262355Z AUTO 24013KT 10SM CLR 26/09 A2991 RMK AO2",
      "metarTime": "2026-06-27T00:00:00.000Z",
      "taf": "",
      "tafTime": ""
    },
    "KRAL": {
      "name": "Riverside Municipal",
      "metar": "METAR KRAL 262353Z 28013G20KT 10SM CLR 27/12 A2989 RMK AO2 SLP105 T02720122 10306 20217 56008",
      "metarTime": "2026-06-27T00:00:00.000Z",
      "taf": "",
      "tafTime": ""
    }
  }
}
