{
  "updated": "2026-02-22T16:35:00.000Z",
  "airports": {
    "KPOC": {
      "name": "Brackett Field",
      "metar": "METAR KPOC 221547Z 00000KT 10SM CLR 11/03 A3023",
      "metarTime": "2026-02-22T16:00:00.000Z",
      "taf": "",
      "tafTime": ""
    },
    "KCCB": {
      "name": "Cable Airport",
      "metar": "METAR KCCB 221635Z AUTO 00000KT 10SM CLR 15/M02 A3023 RMK AO2",
      "metarTime": "2026-02-22T16:35:00.000Z",
      "taf": "",
      "tafTime": ""
    },
    "KRAL": {
      "name": "Riverside Municipal",
      "metar": "METAR KRAL 221553Z 00000KT 10SM CLR 12/01 A3022 RMK AO2 SLP225 T01170011 $",
      "metarTime": "2026-02-22T16:00:00.000Z",
      "taf": "",
      "tafTime": ""
    }
  }
}
