{
  "updated": "2026-02-06T16:00:00.000Z",
  "airports": {
    "KPOC": {
      "name": "Brackett Field",
      "metar": "METAR KPOC 061547Z 00000KT 7SM FEW018 14/12 A3015",
      "metarTime": "2026-02-06T16:00:00.000Z",
      "taf": "",
      "tafTime": ""
    },
    "KCCB": {
      "name": "Cable Airport",
      "metar": "METAR KCCB 061555Z AUTO 00000KT 8SM CLR 14/13 A3014 RMK AO2",
      "metarTime": "2026-02-06T16:00:00.000Z",
      "taf": "",
      "tafTime": ""
    },
    "KRAL": {
      "name": "Riverside Municipal",
      "metar": "METAR KRAL 061553Z 00000KT 10SM CLR 13/07 A3016 RMK AO2 SLP200 T01280072",
      "metarTime": "2026-02-06T16:00:00.000Z",
      "taf": "",
      "tafTime": ""
    }
  }
}
