{
  "updated": "2026-03-18T11:15:00.000Z",
  "airports": {
    "KPOC": {
      "name": "Brackett Field",
      "metar": "",
      "metarTime": "",
      "taf": "",
      "tafTime": ""
    },
    "KCCB": {
      "name": "Cable Airport",
      "metar": "METAR KCCB 181115Z AUTO 04004KT 10SM 22/04 A3001 RMK AO2",
      "metarTime": "2026-03-18T11:15:00.000Z",
      "taf": "",
      "tafTime": ""
    },
    "KRAL": {
      "name": "Riverside Municipal",
      "metar": "METAR KRAL 181053Z AUTO 00000KT 10SM CLR 18/07 A2999 RMK AO2 SLP139 T01830072",
      "metarTime": "2026-03-18T11:00:00.000Z",
      "taf": "",
      "tafTime": ""
    }
  }
}
