{
  "updated": "2026-02-04T16:15:00.000Z",
  "airports": {
    "KPOC": {
      "name": "Brackett Field",
      "metar": "",
      "metarTime": "",
      "taf": "",
      "tafTime": ""
    },
    "KCCB": {
      "name": "Cable Airport",
      "metar": "METAR KCCB 041615Z AUTO VRB03KT 10SM CLR 21/M05 A3019 RMK AO2",
      "metarTime": "2026-02-04T16:15:00.000Z",
      "taf": "",
      "tafTime": ""
    },
    "KRAL": {
      "name": "Riverside Municipal",
      "metar": "METAR KRAL 041553Z 07005KT 10SM CLR 21/M04 A3020 RMK AO2 SLP211 T02111044",
      "metarTime": "2026-02-04T16:00:00.000Z",
      "taf": "",
      "tafTime": ""
    }
  }
}
