{
  "updated": "2026-05-20T22:15:00.000Z",
  "airports": {
    "KPOC": {
      "name": "Brackett Field",
      "metar": "METAR KPOC 202147Z 27010KT 10SM CLR 31/04 A2986",
      "metarTime": "2026-05-20T22:00:00.000Z",
      "taf": "",
      "tafTime": ""
    },
    "KCCB": {
      "name": "Cable Airport",
      "metar": "METAR KCCB 202215Z AUTO 26012KT 10SM CLR 30/M01 A2986 RMK AO2",
      "metarTime": "2026-05-20T22:15:00.000Z",
      "taf": "",
      "tafTime": ""
    },
    "KRAL": {
      "name": "Riverside Municipal",
      "metar": "METAR KRAL 202153Z 25018KT 10SM CLR 33/M02 A2983 RMK AO2 SLP083 T03281017",
      "metarTime": "2026-05-20T22:00:00.000Z",
      "taf": "",
      "tafTime": ""
    }
  }
}
