{
  "updated": "2026-05-13T23:00:00.000Z",
  "airports": {
    "KPOC": {
      "name": "Brackett Field",
      "metar": "METAR KPOC 132247Z 26014KT 10SM CLR 24/11 A3002",
      "metarTime": "2026-05-13T23:00:00.000Z",
      "taf": "",
      "tafTime": ""
    },
    "KCCB": {
      "name": "Cable Airport",
      "metar": "METAR KCCB 132235Z AUTO 25012KT 10SM CLR 23/09 A3003 RMK AO2",
      "metarTime": "2026-05-13T22:35:00.000Z",
      "taf": "",
      "tafTime": ""
    },
    "KRAL": {
      "name": "Riverside Municipal",
      "metar": "METAR KRAL 132153Z VRB06KT 10SM CLR 26/11 A3002 RMK AO2 SLP151 T02610106",
      "metarTime": "2026-05-13T22:00:00.000Z",
      "taf": "",
      "tafTime": ""
    }
  }
}
