{
  "updated": "2026-02-13T11:00:00.000Z",
  "airports": {
    "KPOC": {
      "name": "Brackett Field",
      "metar": "",
      "metarTime": "",
      "taf": "",
      "tafTime": ""
    },
    "KCCB": {
      "name": "Cable Airport",
      "metar": "",
      "metarTime": "",
      "taf": "",
      "tafTime": ""
    },
    "KRAL": {
      "name": "Riverside Municipal",
      "metar": "METAR KRAL 131053Z AUTO 00000KT 10SM CLR 11/08 A2997 RMK AO2 SLP138 T01060083",
      "metarTime": "2026-02-13T11:00:00.000Z",
      "taf": "",
      "tafTime": ""
    }
  }
}
