{
  "updated": "2026-06-29T22:00:00.000Z",
  "airports": {
    "KPOC": {
      "name": "Brackett Field",
      "metar": "METAR KPOC 292147Z 28012G15KT 10SM SCT040 22/13 A2990",
      "metarTime": "2026-06-29T22:00:00.000Z",
      "taf": "",
      "tafTime": ""
    },
    "KCCB": {
      "name": "Cable Airport",
      "metar": "METAR KCCB 292155Z AUTO 25010G16KT 10SM CLR 22/12 A2989 RMK AO2",
      "metarTime": "2026-06-29T22:00:00.000Z",
      "taf": "",
      "tafTime": ""
    },
    "KRAL": {
      "name": "Riverside Municipal",
      "metar": "METAR KRAL 292153Z 25013G23KT 10SM CLR 25/13 A2987 RMK AO2 SLP099 T02500133",
      "metarTime": "2026-06-29T22:00:00.000Z",
      "taf": "",
      "tafTime": ""
    }
  }
}
