{
  "updated": "2026-05-17T08:00:00.000Z",
  "airports": {
    "KPOC": {
      "name": "Brackett Field",
      "metar": "",
      "metarTime": "",
      "taf": "",
      "tafTime": ""
    },
    "KCCB": {
      "name": "Cable Airport",
      "metar": "METAR KCCB 170755Z AUTO 25008KT 9SM OVC012 15/13 A2984 RMK AO2",
      "metarTime": "2026-05-17T08:00:00.000Z",
      "taf": "",
      "tafTime": ""
    },
    "KRAL": {
      "name": "Riverside Municipal",
      "metar": "METAR KRAL 170753Z AUTO 26004KT 10SM OVC041 16/12 A2983 RMK AO2 SLP089 T01610122 402500156",
      "metarTime": "2026-05-17T08:00:00.000Z",
      "taf": "",
      "tafTime": ""
    }
  }
}
