{
  "updated": "2026-07-04T15:15:00.000Z",
  "airports": {
    "KPOC": {
      "name": "Brackett Field",
      "metar": "METAR KPOC 041447Z 12007KT 10SM CLR 21/14 A3005",
      "metarTime": "2026-07-04T15:00:00.000Z",
      "taf": "",
      "tafTime": ""
    },
    "KCCB": {
      "name": "Cable Airport",
      "metar": "METAR KCCB 041515Z AUTO 08006KT 10SM CLR 23/09 A3005 RMK AO2",
      "metarTime": "2026-07-04T15:15:00.000Z",
      "taf": "",
      "tafTime": ""
    },
    "KRAL": {
      "name": "Riverside Municipal",
      "metar": "METAR KRAL 041453Z 05003KT 10SM CLR 21/13 A3004 RMK AO2 SLP156 T02060133 51012",
      "metarTime": "2026-07-04T15:00:00.000Z",
      "taf": "",
      "tafTime": ""
    }
  }
}
