{
  "updated": "2026-04-10T21:15:00.000Z",
  "airports": {
    "KPOC": {
      "name": "Brackett Field",
      "metar": "METAR KPOC 102047Z 27007KT 10SM SCT055 23/12 A2990",
      "metarTime": "2026-04-10T21:00:00.000Z",
      "taf": "",
      "tafTime": ""
    },
    "KCCB": {
      "name": "Cable Airport",
      "metar": "METAR KCCB 102115Z AUTO 26007G13KT 210V300 10SM FEW043 SCT080 23/10 A2995 RMK AO2",
      "metarTime": "2026-04-10T21:15:00.000Z",
      "taf": "",
      "tafTime": ""
    },
    "KRAL": {
      "name": "Riverside Municipal",
      "metar": "METAR KRAL 102053Z 28008G20KT 260V330 10SM SCT049 26/11 A2993 RMK AO2 SLP122 T02610111 58017",
      "metarTime": "2026-04-10T21:00:00.000Z",
      "taf": "",
      "tafTime": ""
    }
  }
}
