{
  "updated": "2026-05-22T20:35:00.000Z",
  "airports": {
    "KPOC": {
      "name": "Brackett Field",
      "metar": "METAR KPOC 221947Z 26010KT 8SM CLR 23/12 A2986",
      "metarTime": "2026-05-22T20:00:00.000Z",
      "taf": "",
      "tafTime": ""
    },
    "KCCB": {
      "name": "Cable Airport",
      "metar": "METAR KCCB 222035Z AUTO VRB06G13KT 9SM CLR 23/11 A2986 RMK AO2",
      "metarTime": "2026-05-22T20:35:00.000Z",
      "taf": "",
      "tafTime": ""
    },
    "KRAL": {
      "name": "Riverside Municipal",
      "metar": "METAR KRAL 221953Z 29005KT 10SM CLR 26/09 A2984 RMK AO2 SLP089 T02560094",
      "metarTime": "2026-05-22T20:00:00.000Z",
      "taf": "",
      "tafTime": ""
    }
  }
}
