{
  "updated": "2026-03-19T16:00:00.000Z",
  "airports": {
    "KPOC": {
      "name": "Brackett Field",
      "metar": "METAR KPOC 191547Z 00000KT 10SM CLR 23/09 A3008",
      "metarTime": "2026-03-19T16:00:00.000Z",
      "taf": "",
      "tafTime": ""
    },
    "KCCB": {
      "name": "Cable Airport",
      "metar": "METAR KCCB 191555Z AUTO 00000KT 10SM CLR 25/08 A3010 RMK AO2",
      "metarTime": "2026-03-19T16:00:00.000Z",
      "taf": "",
      "tafTime": ""
    },
    "KRAL": {
      "name": "Riverside Municipal",
      "metar": "METAR KRAL 191553Z 36003KT 10SM CLR 22/09 A3008 RMK AO2 SLP172 T02170089",
      "metarTime": "2026-03-19T16:00:00.000Z",
      "taf": "",
      "tafTime": ""
    }
  }
}
