{
  "updated": "2026-07-03T08:35:00.000Z",
  "airports": {
    "KPOC": {
      "name": "Brackett Field",
      "metar": "",
      "metarTime": "",
      "taf": "",
      "tafTime": ""
    },
    "KCCB": {
      "name": "Cable Airport",
      "metar": "METAR KCCB 030835Z AUTO 00000KT 10SM 17/11 A2996 RMK AO2",
      "metarTime": "2026-07-03T08:35:00.000Z",
      "taf": "",
      "tafTime": ""
    },
    "KRAL": {
      "name": "Riverside Municipal",
      "metar": "METAR KRAL 030753Z AUTO 25003KT 10SM CLR 18/13 A2996 RMK AO2 SLP131 T01780133 403000150",
      "metarTime": "2026-07-03T08:00:00.000Z",
      "taf": "",
      "tafTime": ""
    }
  }
}
