{
  "updated": "2026-07-22T21:15:00.000Z",
  "airports": {
    "KPOC": {
      "name": "Brackett Field",
      "metar": "METAR KPOC 222047Z 29006G15KT 10SM CLR 31/19 A2997",
      "metarTime": "2026-07-22T21:00:00.000Z",
      "taf": "",
      "tafTime": ""
    },
    "KCCB": {
      "name": "Cable Airport",
      "metar": "METAR KCCB 222115Z AUTO 27011G16KT 10SM CLR 31/18 A2996 RMK AO2",
      "metarTime": "2026-07-22T21:15:00.000Z",
      "taf": "",
      "tafTime": ""
    },
    "KRAL": {
      "name": "Riverside Municipal",
      "metar": "METAR KRAL 222053Z VRB05G15KT 10SM CLR 33/18 A2993 RMK AO2 SLP119 T03280178 58017",
      "metarTime": "2026-07-22T21:00:00.000Z",
      "taf": "",
      "tafTime": ""
    }
  }
}
