{
  "updated": "2026-02-03T03:35:00.000Z",
  "airports": {
    "KPOC": {
      "name": "Brackett Field",
      "metar": "",
      "metarTime": "",
      "taf": "",
      "tafTime": ""
    },
    "KCCB": {
      "name": "Cable Airport",
      "metar": "METAR KCCB 030335Z AUTO 29005KT 10SM CLR 17/06 A3012 RMK AO2",
      "metarTime": "2026-02-03T03:35:00.000Z",
      "taf": "",
      "tafTime": ""
    },
    "KRAL": {
      "name": "Riverside Municipal",
      "metar": "METAR KRAL 030253Z 00000KT 10SM CLR 18/07 A3011 RMK AO2 SLP184 T01830072 53014",
      "metarTime": "2026-02-03T03:00:00.000Z",
      "taf": "",
      "tafTime": ""
    }
  }
}
