{
  "updated": "2026-03-06T10:00:00.000Z",
  "airports": {
    "KPOC": {
      "name": "Brackett Field",
      "metar": "",
      "metarTime": "",
      "taf": "",
      "tafTime": ""
    },
    "KCCB": {
      "name": "Cable Airport",
      "metar": "METAR KCCB 060935Z AUTO 35004KT 10SM CLR 11/M03 A2995 RMK AO2",
      "metarTime": "2026-03-06T09:35:00.000Z",
      "taf": "",
      "tafTime": ""
    },
    "KRAL": {
      "name": "Riverside Municipal",
      "metar": "METAR KRAL 060953Z AUTO 07004KT 10SM CLR 12/M02 A2996 RMK AO2 SLP132 T01221022",
      "metarTime": "2026-03-06T10:00:00.000Z",
      "taf": "",
      "tafTime": ""
    }
  }
}
