{
  "updated": "2026-04-21T16:00:00.000Z",
  "airports": {
    "KPOC": {
      "name": "Brackett Field",
      "metar": "METAR KPOC 211547Z 00000KT 10SM CLR 15/08 A3005",
      "metarTime": "2026-04-21T16:00:00.000Z",
      "taf": "",
      "tafTime": ""
    },
    "KCCB": {
      "name": "Cable Airport",
      "metar": "METAR KCCB 211555Z AUTO 00000KT 10SM CLR 15/08 A3004 RMK AO2",
      "metarTime": "2026-04-21T16:00:00.000Z",
      "taf": "",
      "tafTime": ""
    },
    "KRAL": {
      "name": "Riverside Municipal",
      "metar": "METAR KRAL 211553Z VRB04KT 10SM FEW020 16/10 A3005 RMK AO2 SLP163 T01610100",
      "metarTime": "2026-04-21T16:00:00.000Z",
      "taf": "",
      "tafTime": ""
    }
  }
}
