{
  "updated": "2026-04-24T19:35:00.000Z",
  "airports": {
    "KPOC": {
      "name": "Brackett Field",
      "metar": "METAR KPOC 241847Z 25007KT 10SM CLR 21/09 A2993",
      "metarTime": "2026-04-24T19:00:00.000Z",
      "taf": "",
      "tafTime": ""
    },
    "KCCB": {
      "name": "Cable Airport",
      "metar": "METAR KCCB 241935Z AUTO 22010KT 10SM CLR 21/06 A2990 RMK AO2",
      "metarTime": "2026-04-24T19:35:00.000Z",
      "taf": "",
      "tafTime": ""
    },
    "KRAL": {
      "name": "Riverside Municipal",
      "metar": "METAR KRAL 241853Z VRB06KT 10SM CLR 22/07 A2991 RMK AO2 SLP115 T02220072",
      "metarTime": "2026-04-24T19:00:00.000Z",
      "taf": "",
      "tafTime": ""
    }
  }
}
