{
  "updated": "2026-04-08T05:00:00.000Z",
  "airports": {
    "KPOC": {
      "name": "Brackett Field",
      "metar": "METAR KPOC 080347Z 24003KT 10SM CLR 18/12 A2994 RMK LAST",
      "metarTime": "2026-04-08T04:00:00.000Z",
      "taf": "",
      "tafTime": ""
    },
    "KCCB": {
      "name": "Cable Airport",
      "metar": "METAR KCCB 080435Z AUTO 26004KT 10SM BKN045 18/13 A2994 RMK AO2",
      "metarTime": "2026-04-08T04:35:00.000Z",
      "taf": "",
      "tafTime": ""
    },
    "KRAL": {
      "name": "Riverside Municipal",
      "metar": "METAR KRAL 080453Z AUTO 00000KT 10SM CLR 19/13 A2994 RMK AO2 SLP125 T01890128",
      "metarTime": "2026-04-08T05:00:00.000Z",
      "taf": "",
      "tafTime": ""
    }
  }
}
