{
  "updated": "2026-04-25T09:35:00.000Z",
  "airports": {
    "KPOC": {
      "name": "Brackett Field",
      "metar": "",
      "metarTime": "",
      "taf": "",
      "tafTime": ""
    },
    "KCCB": {
      "name": "Cable Airport",
      "metar": "METAR KCCB 250935Z AUTO 19003KT 10SM OVC027 14/10 A2988 RMK AO2",
      "metarTime": "2026-04-25T09:35:00.000Z",
      "taf": "",
      "tafTime": ""
    },
    "KRAL": {
      "name": "Riverside Municipal",
      "metar": "METAR KRAL 250853Z AUTO 13003KT 10SM OVC035 14/08 A2989 RMK AO2 SLP107 T01440083 56007",
      "metarTime": "2026-04-25T09:00:00.000Z",
      "taf": "",
      "tafTime": ""
    }
  }
}
