{
  "updated": "2026-02-28T19:00:00.000Z",
  "airports": {
    "KPOC": {
      "name": "Brackett Field",
      "metar": "METAR KPOC 281847Z VRB04KT 10SM CLR 28/08 A2997",
      "metarTime": "2026-02-28T19:00:00.000Z",
      "taf": "",
      "tafTime": ""
    },
    "KCCB": {
      "name": "Cable Airport",
      "metar": "METAR KCCB 281855Z AUTO VRB04KT 10SM CLR 28/05 A2997 RMK AO2",
      "metarTime": "2026-02-28T19:00:00.000Z",
      "taf": "",
      "tafTime": ""
    },
    "KRAL": {
      "name": "Riverside Municipal",
      "metar": "METAR KRAL 281853Z AUTO 00000KT 10SM CLR 27/09 A2995 RMK AO2 SLP126 T02720094",
      "metarTime": "2026-02-28T19:00:00.000Z",
      "taf": "",
      "tafTime": ""
    }
  }
}
