{
  "updated": "2026-02-21T09:35:00.000Z",
  "airports": {
    "KPOC": {
      "name": "Brackett Field",
      "metar": "",
      "metarTime": "",
      "taf": "",
      "tafTime": ""
    },
    "KCCB": {
      "name": "Cable Airport",
      "metar": "METAR KCCB 210935Z AUTO 08004KT 10SM CLR 07/00 A3010 RMK AO2",
      "metarTime": "2026-02-21T09:35:00.000Z",
      "taf": "",
      "tafTime": ""
    },
    "KRAL": {
      "name": "Riverside Municipal",
      "metar": "METAR KRAL 210853Z AUTO 00000KT 10SM CLR 06/02 A3012 RMK AO2 SLP192 T00560017 51008 $",
      "metarTime": "2026-02-21T09:00:00.000Z",
      "taf": "",
      "tafTime": ""
    }
  }
}
