{
  "updated": "2026-04-16T23:00:00.000Z",
  "airports": {
    "KPOC": {
      "name": "Brackett Field",
      "metar": "METAR KPOC 162247Z 26009KT 10SM CLR 23/08 A2988",
      "metarTime": "2026-04-16T23:00:00.000Z",
      "taf": "",
      "tafTime": ""
    },
    "KCCB": {
      "name": "Cable Airport",
      "metar": "METAR KCCB 162255Z AUTO 26010G15KT 10SM CLR 22/07 A2988 RMK AO2",
      "metarTime": "2026-04-16T23:00:00.000Z",
      "taf": "",
      "tafTime": ""
    },
    "KRAL": {
      "name": "Riverside Municipal",
      "metar": "METAR KRAL 162253Z 29007G16KT 260V330 10SM CLR 23/08 A2986 RMK AO2 SLP100 T02330083",
      "metarTime": "2026-04-16T23:00:00.000Z",
      "taf": "",
      "tafTime": ""
    }
  }
}
