{
  "updated": "2026-06-04T18:00:00.000Z",
  "airports": {
    "KPOC": {
      "name": "Brackett Field",
      "metar": "METAR KPOC 041747Z 27007KT 10SM HZ CLR 23/14 A2991",
      "metarTime": "2026-06-04T18:00:00.000Z",
      "taf": "",
      "tafTime": ""
    },
    "KCCB": {
      "name": "Cable Airport",
      "metar": "METAR KCCB 041755Z AUTO VRB06KT 9SM CLR 23/14 A2991 RMK AO2",
      "metarTime": "2026-06-04T18:00:00.000Z",
      "taf": "",
      "tafTime": ""
    },
    "KRAL": {
      "name": "Riverside Municipal",
      "metar": "METAR KRAL 041753Z VRB05KT 10SM CLR 24/14 A2989 RMK AO2 SLP106 T02440139 10244 20144 50002",
      "metarTime": "2026-06-04T18:00:00.000Z",
      "taf": "",
      "tafTime": ""
    }
  }
}
