{
  "updated": "2026-03-31T16:35:00.000Z",
  "airports": {
    "KPOC": {
      "name": "Brackett Field",
      "metar": "METAR KPOC 311547Z 12004KT 06SM HZ OVC015 17/14 A2998",
      "metarTime": "2026-03-31T16:00:00.000Z",
      "taf": "",
      "tafTime": ""
    },
    "KCCB": {
      "name": "Cable Airport",
      "metar": "METAR KCCB 311635Z AUTO 00000KT 6SM BR FEW013 17/16 A3000 RMK AO2",
      "metarTime": "2026-03-31T16:35:00.000Z",
      "taf": "",
      "tafTime": ""
    },
    "KRAL": {
      "name": "Riverside Municipal",
      "metar": "SPECI KRAL 311625Z 00000KT 8SM SCT018 18/14 A2998 RMK AO2 T01830144",
      "metarTime": "2026-03-31T16:25:00.000Z",
      "taf": "",
      "tafTime": ""
    }
  }
}
