{
  "updated": "2026-04-13T11:00:00.000Z",
  "airports": {
    "KPOC": {
      "name": "Brackett Field",
      "metar": "",
      "metarTime": "",
      "taf": "",
      "tafTime": ""
    },
    "KCCB": {
      "name": "Cable Airport",
      "metar": "METAR KCCB 131035Z AUTO 00000KT 10SM OVC060 11/08 A3001 RMK AO2",
      "metarTime": "2026-04-13T10:35:00.000Z",
      "taf": "",
      "tafTime": ""
    },
    "KRAL": {
      "name": "Riverside Municipal",
      "metar": "METAR KRAL 131053Z AUTO 00000KT 10SM CLR 10/09 A3002 RMK AO2 SLP157 T01000089",
      "metarTime": "2026-04-13T11:00:00.000Z",
      "taf": "",
      "tafTime": ""
    }
  }
}
