{
  "updated": "2026-02-24T16:15:00.000Z",
  "airports": {
    "KPOC": {
      "name": "Brackett Field",
      "metar": "METAR KPOC 241547Z VRB05KT 10SM CLR 15/06 A3007",
      "metarTime": "2026-02-24T16:00:00.000Z",
      "taf": "",
      "tafTime": ""
    },
    "KCCB": {
      "name": "Cable Airport",
      "metar": "METAR KCCB 241615Z AUTO 10004KT 10SM CLR 20/02 A3008 RMK AO2",
      "metarTime": "2026-02-24T16:15:00.000Z",
      "taf": "",
      "tafTime": ""
    },
    "KRAL": {
      "name": "Riverside Municipal",
      "metar": "METAR KRAL 241553Z 06004KT 10SM CLR 14/05 A3008 RMK AO2 SLP176 T01440050",
      "metarTime": "2026-02-24T16:00:00.000Z",
      "taf": "",
      "tafTime": ""
    }
  }
}
