{
  "updated": "2026-05-01T14:15:00.000Z",
  "airports": {
    "KPOC": {
      "name": "Brackett Field",
      "metar": "",
      "metarTime": "",
      "taf": "",
      "tafTime": ""
    },
    "KCCB": {
      "name": "Cable Airport",
      "metar": "METAR KCCB 011415Z AUTO 00000KT 4SM BR OVC007 13/13 A2996 RMK AO2",
      "metarTime": "2026-05-01T14:15:00.000Z",
      "taf": "",
      "tafTime": ""
    },
    "KRAL": {
      "name": "Riverside Municipal",
      "metar": "METAR KRAL 011353Z 26004KT 9SM OVC010 14/12 A2996 RMK AO2 SLP133 T01440122",
      "metarTime": "2026-05-01T14:00:00.000Z",
      "taf": "",
      "tafTime": ""
    }
  }
}
