{
  "updated": "2026-04-06T09:35:00.000Z",
  "airports": {
    "KPOC": {
      "name": "Brackett Field",
      "metar": "",
      "metarTime": "",
      "taf": "",
      "tafTime": ""
    },
    "KCCB": {
      "name": "Cable Airport",
      "metar": "METAR KCCB 060935Z AUTO 00000KT 10SM CLR 18/01 A2999 RMK AO2",
      "metarTime": "2026-04-06T09:35:00.000Z",
      "taf": "",
      "tafTime": ""
    },
    "KRAL": {
      "name": "Riverside Municipal",
      "metar": "METAR KRAL 060853Z AUTO 16003KT 10SM CLR 18/05 A2999 RMK AO2 SLP139 T01830050 58002",
      "metarTime": "2026-04-06T09:00:00.000Z",
      "taf": "",
      "tafTime": ""
    }
  }
}
