{
  "updated": "2026-05-24T16:35:00.000Z",
  "airports": {
    "KPOC": {
      "name": "Brackett Field",
      "metar": "METAR KPOC 241547Z 29004KT 4SM BR OVC017 16/12 A3004",
      "metarTime": "2026-05-24T16:00:00.000Z",
      "taf": "",
      "tafTime": ""
    },
    "KCCB": {
      "name": "Cable Airport",
      "metar": "METAR KCCB 241635Z AUTO 32003KT 7SM OVC013 15/14 A3004 RMK AO2",
      "metarTime": "2026-05-24T16:35:00.000Z",
      "taf": "",
      "tafTime": ""
    },
    "KRAL": {
      "name": "Riverside Municipal",
      "metar": "METAR KRAL 241553Z VRB04KT 10SM OVC016 17/12 A3002 RMK AO2 SLP155 T01670122",
      "metarTime": "2026-05-24T16:00:00.000Z",
      "taf": "",
      "tafTime": ""
    }
  }
}
