{
  "updated": "2026-03-31T04:00:00.000Z",
  "airports": {
    "KPOC": {
      "name": "Brackett Field",
      "metar": "METAR KPOC 310247Z 25008KT 10SM CLR 18/14 A2999",
      "metarTime": "2026-03-31T03:00:00.000Z",
      "taf": "",
      "tafTime": ""
    },
    "KCCB": {
      "name": "Cable Airport",
      "metar": "METAR KCCB 310355Z AUTO 26006KT 10SM 17/15 A2999 RMK AO2",
      "metarTime": "2026-03-31T04:00:00.000Z",
      "taf": "",
      "tafTime": ""
    },
    "KRAL": {
      "name": "Riverside Municipal",
      "metar": "METAR KRAL 310353Z AUTO 28004KT 10SM CLR 17/14 A2999 RMK AO2 SLP144 T01720144",
      "metarTime": "2026-03-31T04:00:00.000Z",
      "taf": "",
      "tafTime": ""
    }
  }
}
