{
  "updated": "2026-07-10T01:35:00.000Z",
  "airports": {
    "KPOC": {
      "name": "Brackett Field",
      "metar": "METAR KPOC 100047Z 25012KT 10SM CLR 29/17 A2984",
      "metarTime": "2026-07-10T01:00:00.000Z",
      "taf": "",
      "tafTime": ""
    },
    "KCCB": {
      "name": "Cable Airport",
      "metar": "METAR KCCB 100135Z AUTO 25014KT 10SM CLR 28/15 A2984 RMK AO2",
      "metarTime": "2026-07-10T01:35:00.000Z",
      "taf": "",
      "tafTime": ""
    },
    "KRAL": {
      "name": "Riverside Municipal",
      "metar": "METAR KRAL 100053Z 27012G18KT 10SM CLR 32/14 A2981 RMK AO2 SLP078 T03170144",
      "metarTime": "2026-07-10T01:00:00.000Z",
      "taf": "",
      "tafTime": ""
    }
  }
}
