{
  "updated": "2026-04-11T23:00:00.000Z",
  "airports": {
    "KPOC": {
      "name": "Brackett Field",
      "metar": "METAR KPOC 112247Z 26011G16KT 10SM SCT050 22/08 A2995",
      "metarTime": "2026-04-11T23:00:00.000Z",
      "taf": "",
      "tafTime": ""
    },
    "KCCB": {
      "name": "Cable Airport",
      "metar": "METAR KCCB 112235Z AUTO 23012KT 10SM CLR 21/06 A2995 RMK AO2",
      "metarTime": "2026-04-11T22:35:00.000Z",
      "taf": "",
      "tafTime": ""
    },
    "KRAL": {
      "name": "Riverside Municipal",
      "metar": "METAR KRAL 112253Z 26014G27KT 230V290 10SM CLR 23/07 A2993 RMK AO2 PK WND 27027/2253 SLP123 T02280067",
      "metarTime": "2026-04-11T23:00:00.000Z",
      "taf": "",
      "tafTime": ""
    }
  }
}
