{
  "updated": "2026-03-06T23:35:00.000Z",
  "airports": {
    "KPOC": {
      "name": "Brackett Field",
      "metar": "METAR KPOC 062247Z 18005KT 10SM CLR 22/M07 A2999",
      "metarTime": "2026-03-06T23:00:00.000Z",
      "taf": "",
      "tafTime": ""
    },
    "KCCB": {
      "name": "Cable Airport",
      "metar": "METAR KCCB 062335Z AUTO VRB05KT 10SM CLR 21/M11 A2998 RMK AO2",
      "metarTime": "2026-03-06T23:35:00.000Z",
      "taf": "",
      "tafTime": ""
    },
    "KRAL": {
      "name": "Riverside Municipal",
      "metar": "METAR KRAL 062253Z 02012G26KT 10SM CLR 21/M08 A3000 RMK AO2 PK WND 03026/2156 SLP145 T02111078",
      "metarTime": "2026-03-06T23:00:00.000Z",
      "taf": "",
      "tafTime": ""
    }
  }
}
