{
  "updated": "2026-07-04T16:35:00.000Z",
  "airports": {
    "KPOC": {
      "name": "Brackett Field",
      "metar": "METAR KPOC 041547Z 12006KT 10SM CLR 24/12 A3005",
      "metarTime": "2026-07-04T16:00:00.000Z",
      "taf": "",
      "tafTime": ""
    },
    "KCCB": {
      "name": "Cable Airport",
      "metar": "METAR KCCB 041635Z AUTO 17007KT 150V220 10SM CLR 26/09 A3005 RMK AO2",
      "metarTime": "2026-07-04T16:35:00.000Z",
      "taf": "",
      "tafTime": ""
    },
    "KRAL": {
      "name": "Riverside Municipal",
      "metar": "METAR KRAL 041553Z 00000KT 10SM CLR 24/13 A3004 RMK AO2 SLP156 T02440133",
      "metarTime": "2026-07-04T16:00:00.000Z",
      "taf": "",
      "tafTime": ""
    }
  }
}
