{
  "updated": "2026-04-06T14:00:00.000Z",
  "airports": {
    "KPOC": {
      "name": "Brackett Field",
      "metar": "METAR KPOC 061347Z 00000KT 10SM CLR 16/M09 A3002",
      "metarTime": "2026-04-06T14:00:00.000Z",
      "taf": "",
      "tafTime": ""
    },
    "KCCB": {
      "name": "Cable Airport",
      "metar": "METAR KCCB 061355Z AUTO 00000KT 9SM SCT100 SCT120 16/06 A3002 RMK AO2",
      "metarTime": "2026-04-06T14:00:00.000Z",
      "taf": "",
      "tafTime": ""
    },
    "KRAL": {
      "name": "Riverside Municipal",
      "metar": "METAR KRAL 061353Z AUTO 00000KT 10SM CLR 16/04 A3002 RMK AO2 SLP151 T01610044",
      "metarTime": "2026-04-06T14:00:00.000Z",
      "taf": "",
      "tafTime": ""
    }
  }
}
