{
  "updated": "2026-02-26T03:35:00.000Z",
  "airports": {
    "KPOC": {
      "name": "Brackett Field",
      "metar": "METAR KPOC 260247Z 27006KT 10SM CLR 19/13 A3004",
      "metarTime": "2026-02-26T03:00:00.000Z",
      "taf": "",
      "tafTime": ""
    },
    "KCCB": {
      "name": "Cable Airport",
      "metar": "METAR KCCB 260335Z AUTO 29006KT 10SM CLR 19/13 A3004 RMK AO2",
      "metarTime": "2026-02-26T03:35:00.000Z",
      "taf": "",
      "tafTime": ""
    },
    "KRAL": {
      "name": "Riverside Municipal",
      "metar": "METAR KRAL 260253Z 27007KT 10SM CLR 19/13 A3002 RMK AO2 SLP155 T01940128 53015",
      "metarTime": "2026-02-26T03:00:00.000Z",
      "taf": "",
      "tafTime": ""
    }
  }
}
