{
  "updated": "2026-03-08T22:35:00.000Z",
  "airports": {
    "KPOC": {
      "name": "Brackett Field",
      "metar": "METAR KPOC 082147Z 08010G20KT 10SM CLR 29/M09 A2983",
      "metarTime": "2026-03-08T22:00:00.000Z",
      "taf": "",
      "tafTime": ""
    },
    "KCCB": {
      "name": "Cable Airport",
      "metar": "METAR KCCB 082235Z AUTO 11013G20KT 10SM CLR 28/M13 A2983 RMK AO2",
      "metarTime": "2026-03-08T22:35:00.000Z",
      "taf": "",
      "tafTime": ""
    },
    "KRAL": {
      "name": "Riverside Municipal",
      "metar": "METAR KRAL 082153Z 02013G26KT 10SM CLR 29/M07 A2982 RMK AO2 PK WND 02026/2150 SLP083 T02891072",
      "metarTime": "2026-03-08T22:00:00.000Z",
      "taf": "",
      "tafTime": ""
    }
  }
}
