{
  "updated": "2026-03-09T10:15:00.000Z",
  "airports": {
    "KPOC": {
      "name": "Brackett Field",
      "metar": "",
      "metarTime": "",
      "taf": "",
      "tafTime": ""
    },
    "KCCB": {
      "name": "Cable Airport",
      "metar": "METAR KCCB 091015Z AUTO 30009KT 10SM CLR 15/05 A2989 RMK AO2",
      "metarTime": "2026-03-09T10:15:00.000Z",
      "taf": "",
      "tafTime": ""
    },
    "KRAL": {
      "name": "Riverside Municipal",
      "metar": "METAR KRAL 090953Z AUTO 08010KT 10SM CLR 14/05 A2989 RMK AO2 SLP106 T01440050",
      "metarTime": "2026-03-09T10:00:00.000Z",
      "taf": "",
      "tafTime": ""
    }
  }
}
