{
  "updated": "2026-03-12T15:35:00.000Z",
  "airports": {
    "KPOC": {
      "name": "Brackett Field",
      "metar": "METAR KPOC 121447Z 11004KT 10SM CLR 14/08 A3021",
      "metarTime": "2026-03-12T15:00:00.000Z",
      "taf": "",
      "tafTime": ""
    },
    "KCCB": {
      "name": "Cable Airport",
      "metar": "METAR KCCB 121535Z AUTO 00000KT 10SM CLR 20/03 A3022 RMK AO2",
      "metarTime": "2026-03-12T15:35:00.000Z",
      "taf": "",
      "tafTime": ""
    },
    "KRAL": {
      "name": "Riverside Municipal",
      "metar": "METAR KRAL 121453Z 07004KT 10SM CLR 14/07 A3021 RMK AO2 SLP218 T01390067 52005",
      "metarTime": "2026-03-12T15:00:00.000Z",
      "taf": "",
      "tafTime": ""
    }
  }
}
