{
  "updated": "2026-03-05T19:00:00.000Z",
  "airports": {
    "KPOC": {
      "name": "Brackett Field",
      "metar": "METAR KPOC 051847Z 00000KT 10SM FEW020 17/09 A2998",
      "metarTime": "2026-03-05T19:00:00.000Z",
      "taf": "",
      "tafTime": ""
    },
    "KCCB": {
      "name": "Cable Airport",
      "metar": "METAR KCCB 051855Z AUTO 00000KT 10SM CLR 17/07 A2996 RMK AO2",
      "metarTime": "2026-03-05T19:00:00.000Z",
      "taf": "",
      "tafTime": ""
    },
    "KRAL": {
      "name": "Riverside Municipal",
      "metar": "METAR KRAL 051853Z 01015G30KT 10SM CLR 19/M02 A2995 RMK AO2 PK WND 36030/1851 SLP129 T01941022",
      "metarTime": "2026-03-05T19:00:00.000Z",
      "taf": "",
      "tafTime": ""
    }
  }
}
