{
  "updated": "2026-07-20T16:35:00.000Z",
  "airports": {
    "KPOC": {
      "name": "Brackett Field",
      "metar": "METAR KPOC 201547Z 24006KT 10SM CLR 23/18 A2998",
      "metarTime": "2026-07-20T16:00:00.000Z",
      "taf": "",
      "tafTime": ""
    },
    "KCCB": {
      "name": "Cable Airport",
      "metar": "METAR KCCB 201635Z AUTO VRB03KT 10SM CLR 26/14 A2999 RMK AO2",
      "metarTime": "2026-07-20T16:35:00.000Z",
      "taf": "",
      "tafTime": ""
    },
    "KRAL": {
      "name": "Riverside Municipal",
      "metar": "METAR KRAL 201553Z VRB03KT 10SM CLR 25/17 A2997 RMK AO2 SLP133 T02500167",
      "metarTime": "2026-07-20T16:00:00.000Z",
      "taf": "",
      "tafTime": ""
    }
  }
}
