{
  "updated": "2026-03-06T21:15:00.000Z",
  "airports": {
    "KPOC": {
      "name": "Brackett Field",
      "metar": "METAR KPOC 062047Z 20004KT 10SM CLR 21/M06 A3002",
      "metarTime": "2026-03-06T21:00:00.000Z",
      "taf": "",
      "tafTime": ""
    },
    "KCCB": {
      "name": "Cable Airport",
      "metar": "METAR KCCB 062115Z AUTO 19009KT 150V220 10SM CLR 21/M10 A3000 RMK AO2",
      "metarTime": "2026-03-06T21:15:00.000Z",
      "taf": "",
      "tafTime": ""
    },
    "KRAL": {
      "name": "Riverside Municipal",
      "metar": "METAR KRAL 062053Z 36011G28KT 10SM CLR 21/M08 A3002 RMK AO2 PK WND 02029/2014 SLP154 T02061078 58011",
      "metarTime": "2026-03-06T21:00:00.000Z",
      "taf": "",
      "tafTime": ""
    }
  }
}
