{
  "updated": "2026-02-08T10:00:00.000Z",
  "airports": {
    "KPOC": {
      "name": "Brackett Field",
      "metar": "",
      "metarTime": "",
      "taf": "",
      "tafTime": ""
    },
    "KCCB": {
      "name": "Cable Airport",
      "metar": "METAR KCCB 080955Z AUTO 31004KT 10SM CLR 15/M01 A3017 RMK AO2",
      "metarTime": "2026-02-08T10:00:00.000Z",
      "taf": "",
      "tafTime": ""
    },
    "KRAL": {
      "name": "Riverside Municipal",
      "metar": "METAR KRAL 080953Z AUTO 02005KT 10SM CLR 16/03 A3017 RMK AO2 SLP203 T01560033 $",
      "metarTime": "2026-02-08T10:00:00.000Z",
      "taf": "",
      "tafTime": ""
    }
  }
}
