{
  "updated": "2026-07-09T17:35:00.000Z",
  "airports": {
    "KPOC": {
      "name": "Brackett Field",
      "metar": "METAR KPOC 091647Z 00000KT 10SM CLR 27/14 A2991",
      "metarTime": "2026-07-09T17:00:00.000Z",
      "taf": "",
      "tafTime": ""
    },
    "KCCB": {
      "name": "Cable Airport",
      "metar": "METAR KCCB 091735Z AUTO 23006KT 10SM CLR 29/13 A2991 RMK AO2",
      "metarTime": "2026-07-09T17:35:00.000Z",
      "taf": "",
      "tafTime": ""
    },
    "KRAL": {
      "name": "Riverside Municipal",
      "metar": "METAR KRAL 091653Z 00000KT 10SM CLR 28/14 A2989 RMK AO2 SLP104 T02780144",
      "metarTime": "2026-07-09T17:00:00.000Z",
      "taf": "",
      "tafTime": ""
    }
  }
}
