{
  "updated": "2026-05-23T22:35:00.000Z",
  "airports": {
    "KPOC": {
      "name": "Brackett Field",
      "metar": "METAR KPOC 232147Z 27007G14KT 10SM CLR 23/11 A2995",
      "metarTime": "2026-05-23T22:00:00.000Z",
      "taf": "",
      "tafTime": ""
    },
    "KCCB": {
      "name": "Cable Airport",
      "metar": "METAR KCCB 232235Z AUTO 28009G14KT 10SM CLR 24/10 A2993 RMK AO2",
      "metarTime": "2026-05-23T22:35:00.000Z",
      "taf": "",
      "tafTime": ""
    },
    "KRAL": {
      "name": "Riverside Municipal",
      "metar": "METAR KRAL 232153Z VRB06KT 10SM CLR 27/12 A2992 RMK AO2 SLP117 T02720117",
      "metarTime": "2026-05-23T22:00:00.000Z",
      "taf": "",
      "tafTime": ""
    }
  }
}
