{
  "updated": "2026-02-21T15:35:00.000Z",
  "airports": {
    "KPOC": {
      "name": "Brackett Field",
      "metar": "METAR KPOC 211447Z 00000KT 10SM CLR 04/01 A3014",
      "metarTime": "2026-02-21T15:00:00.000Z",
      "taf": "",
      "tafTime": ""
    },
    "KCCB": {
      "name": "Cable Airport",
      "metar": "METAR KCCB 211535Z AUTO 26004KT 10SM CLR 07/M01 A3014 RMK AO2",
      "metarTime": "2026-02-21T15:35:00.000Z",
      "taf": "",
      "tafTime": ""
    },
    "KRAL": {
      "name": "Riverside Municipal",
      "metar": "METAR KRAL 211453Z AUTO 00000KT 10SM CLR 03/01 A3013 RMK AO2 SLP198 T00330006 53005 $",
      "metarTime": "2026-02-21T15:00:00.000Z",
      "taf": "",
      "tafTime": ""
    }
  }
}
