{
  "updated": "2026-03-14T08:35:00.000Z",
  "airports": {
    "KPOC": {
      "name": "Brackett Field",
      "metar": "",
      "metarTime": "",
      "taf": "",
      "tafTime": ""
    },
    "KCCB": {
      "name": "Cable Airport",
      "metar": "METAR KCCB 140835Z AUTO 02004KT 10SM CLR 21/02 A2995 RMK AO2",
      "metarTime": "2026-03-14T08:35:00.000Z",
      "taf": "",
      "tafTime": ""
    },
    "KRAL": {
      "name": "Riverside Municipal",
      "metar": "METAR KRAL 140753Z AUTO 08003KT 10SM CLR 18/05 A2994 RMK AO2 SLP121 T01830050 403390111",
      "metarTime": "2026-03-14T08:00:00.000Z",
      "taf": "",
      "tafTime": ""
    }
  }
}
