{
  "updated": "2026-04-18T07:15:00.000Z",
  "airports": {
    "KPOC": {
      "name": "Brackett Field",
      "metar": "",
      "metarTime": "",
      "taf": "",
      "tafTime": ""
    },
    "KCCB": {
      "name": "Cable Airport",
      "metar": "METAR KCCB 180715Z AUTO 00000KT 10SM FEW049 FEW055 16/07 A2999 RMK AO2",
      "metarTime": "2026-04-18T07:15:00.000Z",
      "taf": "",
      "tafTime": ""
    },
    "KRAL": {
      "name": "Riverside Municipal",
      "metar": "METAR KRAL 180653Z AUTO 11003KT 10SM CLR 16/07 A2999 RMK AO2 SLP141 T01560072",
      "metarTime": "2026-04-18T07:00:00.000Z",
      "taf": "",
      "tafTime": ""
    }
  }
}
