{
  "updated": "2026-05-02T15:00:00.000Z",
  "airports": {
    "KPOC": {
      "name": "Brackett Field",
      "metar": "METAR KPOC 021447Z 00000KT 2SM OVC006 13/12 A2997 BR",
      "metarTime": "2026-05-02T15:00:00.000Z",
      "taf": "",
      "tafTime": ""
    },
    "KCCB": {
      "name": "Cable Airport",
      "metar": "METAR KCCB 021455Z AUTO 00000KT 3/4SM BR OVC003 13/13 A2997 RMK AO2",
      "metarTime": "2026-05-02T15:00:00.000Z",
      "taf": "",
      "tafTime": ""
    },
    "KRAL": {
      "name": "Riverside Municipal",
      "metar": "METAR KRAL 021453Z COR 00000KT 2SM BR OVC004 14/13 A2998 RMK AO2 SLP139 T01440133 53011",
      "metarTime": "2026-05-02T15:00:00.000Z",
      "taf": "",
      "tafTime": ""
    }
  }
}
