{
  "updated": "2026-06-11T22:35:00.000Z",
  "airports": {
    "KPOC": {
      "name": "Brackett Field",
      "metar": "METAR KPOC 112147Z 25010KT 10SM CLR 32/16 A2985",
      "metarTime": "2026-06-11T22:00:00.000Z",
      "taf": "",
      "tafTime": ""
    },
    "KCCB": {
      "name": "Cable Airport",
      "metar": "METAR KCCB 112235Z AUTO 24010KT 220V280 10SM CLR 32/14 A2985 RMK AO2",
      "metarTime": "2026-06-11T22:35:00.000Z",
      "taf": "",
      "tafTime": ""
    },
    "KRAL": {
      "name": "Riverside Municipal",
      "metar": "METAR KRAL 112153Z 27010G15KT 10SM CLR 34/14 A2981 RMK AO2 SLP078 T03390144",
      "metarTime": "2026-06-11T22:00:00.000Z",
      "taf": "",
      "tafTime": ""
    }
  }
}
