{
  "updated": "2026-05-10T07:15:00.000Z",
  "airports": {
    "KPOC": {
      "name": "Brackett Field",
      "metar": "",
      "metarTime": "",
      "taf": "",
      "tafTime": ""
    },
    "KCCB": {
      "name": "Cable Airport",
      "metar": "METAR KCCB 100715Z AUTO 00000KT 6SM BR CLR 16/15 A2992 RMK AO2",
      "metarTime": "2026-05-10T07:15:00.000Z",
      "taf": "",
      "tafTime": ""
    },
    "KRAL": {
      "name": "Riverside Municipal",
      "metar": "METAR KRAL 100653Z AUTO 24003KT CLR 17/14 A2992 RMK AO2 SLP118 T01670139 $",
      "metarTime": "2026-05-10T07:00:00.000Z",
      "taf": "",
      "tafTime": ""
    }
  }
}
