{
  "updated": "2026-03-09T17:35:00.000Z",
  "airports": {
    "KPOC": {
      "name": "Brackett Field",
      "metar": "METAR KPOC 091647Z 19006KT 10SM CLR 17/06 A2995",
      "metarTime": "2026-03-09T17:00:00.000Z",
      "taf": "",
      "tafTime": ""
    },
    "KCCB": {
      "name": "Cable Airport",
      "metar": "METAR KCCB 091735Z AUTO 22005KT 10SM CLR 17/05 A2995 RMK AO2",
      "metarTime": "2026-03-09T17:35:00.000Z",
      "taf": "",
      "tafTime": ""
    },
    "KRAL": {
      "name": "Riverside Municipal",
      "metar": "METAR KRAL 091653Z VRB03KT 10SM CLR 16/06 A2995 RMK AO2 SLP129 T01610056",
      "metarTime": "2026-03-09T17:00:00.000Z",
      "taf": "",
      "tafTime": ""
    }
  }
}
