{
  "updated": "2026-05-27T06:15:00.000Z",
  "airports": {
    "KPOC": {
      "name": "Brackett Field",
      "metar": "",
      "metarTime": "",
      "taf": "",
      "tafTime": ""
    },
    "KCCB": {
      "name": "Cable Airport",
      "metar": "METAR KCCB 270615Z AUTO 26007KT 10SM OVC020 14/10 A2980 RMK AO2",
      "metarTime": "2026-05-27T06:15:00.000Z",
      "taf": "",
      "tafTime": ""
    },
    "KRAL": {
      "name": "Riverside Municipal",
      "metar": "METAR KRAL 270553Z AUTO 10SM BKN046 OVC060 16/09 A2980 RMK AO2 SLP078 T01560094 10217 20156 51011",
      "metarTime": "2026-05-27T06:00:00.000Z",
      "taf": "",
      "tafTime": ""
    }
  }
}
