{
  "updated": "2026-03-25T00:00:00.000Z",
  "airports": {
    "KPOC": {
      "name": "Brackett Field",
      "metar": "METAR KPOC 242347Z 25010KT 10SM CLR 27/14 A2997",
      "metarTime": "2026-03-25T00:00:00.000Z",
      "taf": "",
      "tafTime": ""
    },
    "KCCB": {
      "name": "Cable Airport",
      "metar": "METAR KCCB 242335Z AUTO 26011KT 10SM CLR 28/12 A2997 RMK AO2",
      "metarTime": "2026-03-24T23:35:00.000Z",
      "taf": "",
      "tafTime": ""
    },
    "KRAL": {
      "name": "Riverside Municipal",
      "metar": "METAR KRAL 242253Z 28010KT 10SM CLR 31/13 A2994 RMK AO2 SLP122 T03060133",
      "metarTime": "2026-03-24T23:00:00.000Z",
      "taf": "",
      "tafTime": ""
    }
  }
}
