{
  "updated": "2026-02-11T04:35:00.000Z",
  "airports": {
    "KPOC": {
      "name": "Brackett Field",
      "metar": "METAR KPOC 110347Z 26004KT 7SM OVC095 14/11 A3001",
      "metarTime": "2026-02-11T04:00:00.000Z",
      "taf": "",
      "tafTime": ""
    },
    "KCCB": {
      "name": "Cable Airport",
      "metar": "METAR KCCB 110435Z AUTO 26005KT 9SM FEW085 FEW120 14/12 A3001 RMK AO2",
      "metarTime": "2026-02-11T04:35:00.000Z",
      "taf": "",
      "tafTime": ""
    },
    "KRAL": {
      "name": "Riverside Municipal",
      "metar": "METAR KRAL 110353Z AUTO 10005KT 10SM SCT100 15/10 A3000 RMK AO2 SLP149 T01500100 $",
      "metarTime": "2026-02-11T04:00:00.000Z",
      "taf": "",
      "tafTime": ""
    }
  }
}
