{
  "updated": "2026-06-10T12:00:00.000Z",
  "airports": {
    "KPOC": {
      "name": "Brackett Field",
      "metar": "",
      "metarTime": "",
      "taf": "",
      "tafTime": ""
    },
    "KCCB": {
      "name": "Cable Airport",
      "metar": "METAR KCCB 101155Z AUTO 00000KT 10SM 18/14 A2983 RMK AO2",
      "metarTime": "2026-06-10T12:00:00.000Z",
      "taf": "",
      "tafTime": ""
    },
    "KRAL": {
      "name": "Riverside Municipal",
      "metar": "METAR KRAL 101153Z AUTO 00000KT 10SM CLR 17/13 A2983 RMK AO2 SLP086 T01670133 10206 20161 56009",
      "metarTime": "2026-06-10T12:00:00.000Z",
      "taf": "",
      "tafTime": ""
    }
  }
}
