{
  "updated": "2026-02-17T14:35:00.000Z",
  "airports": {
    "KPOC": {
      "name": "Brackett Field",
      "metar": "",
      "metarTime": "",
      "taf": "",
      "tafTime": ""
    },
    "KCCB": {
      "name": "Cable Airport",
      "metar": "METAR KCCB 171435Z AUTO 07006KT 10SM OVC014 07/07 A3001 RMK AO2",
      "metarTime": "2026-02-17T14:35:00.000Z",
      "taf": "",
      "tafTime": ""
    },
    "KRAL": {
      "name": "Riverside Municipal",
      "metar": "METAR KRAL 171353Z AUTO 09005KT 10SM FEW022 SCT038 OVC048 08/07 A3001 RMK AO2 RAB19E42 SLP154 P0000 T00830067",
      "metarTime": "2026-02-17T14:00:00.000Z",
      "taf": "",
      "tafTime": ""
    }
  }
}
