{
  "updated": "2026-06-15T05:15:00.000Z",
  "airports": {
    "KPOC": {
      "name": "Brackett Field",
      "metar": "",
      "metarTime": "",
      "taf": "",
      "tafTime": ""
    },
    "KCCB": {
      "name": "Cable Airport",
      "metar": "METAR KCCB 150515Z AUTO 27004KT 10SM 21/13 A2999 RMK AO2",
      "metarTime": "2026-06-15T05:15:00.000Z",
      "taf": "",
      "tafTime": ""
    },
    "KRAL": {
      "name": "Riverside Municipal",
      "metar": "METAR KRAL 150453Z AUTO 27006KT 10SM CLR 24/11 A2997 RMK AO2 SLP132 T02390106",
      "metarTime": "2026-06-15T05:00:00.000Z",
      "taf": "",
      "tafTime": ""
    }
  }
}
