{
  "updated": "2026-04-08T21:00:00.000Z",
  "airports": {
    "KPOC": {
      "name": "Brackett Field",
      "metar": "METAR KPOC 082047Z 25007KT 10SM CLR 26/12 A2991",
      "metarTime": "2026-04-08T21:00:00.000Z",
      "taf": "",
      "tafTime": ""
    },
    "KCCB": {
      "name": "Cable Airport",
      "metar": "METAR KCCB 082055Z AUTO 26009KT 10SM CLR 25/10 A2991 RMK AO2",
      "metarTime": "2026-04-08T21:00:00.000Z",
      "taf": "",
      "tafTime": ""
    },
    "KRAL": {
      "name": "Riverside Municipal",
      "metar": "METAR KRAL 082053Z 28005KT 10SM CLR 28/11 A2988 RMK AO2 SLP102 T02830111 56023",
      "metarTime": "2026-04-08T21:00:00.000Z",
      "taf": "",
      "tafTime": ""
    }
  }
}
