{
  "updated": "2026-05-18T02:00:00.000Z",
  "airports": {
    "KPOC": {
      "name": "Brackett Field",
      "metar": "METAR KPOC 180147Z 23010KT 5SM BR OVC035 17/11 A2974",
      "metarTime": "2026-05-18T02:00:00.000Z",
      "taf": "",
      "tafTime": ""
    },
    "KCCB": {
      "name": "Cable Airport",
      "metar": "METAR KCCB 180155Z AUTO 25011KT 8SM OVC024 17/12 A2973 RMK AO2",
      "metarTime": "2026-05-18T02:00:00.000Z",
      "taf": "",
      "tafTime": ""
    },
    "KRAL": {
      "name": "Riverside Municipal",
      "metar": "METAR KRAL 180153Z 27009G15KT 10SM OVC050 19/11 A2971 RMK AO2 SLP048 T01940106",
      "metarTime": "2026-05-18T02:00:00.000Z",
      "taf": "",
      "tafTime": ""
    }
  }
}
