{
  "updated": "2026-02-12T17:15:00.000Z",
  "airports": {
    "KPOC": {
      "name": "Brackett Field",
      "metar": "METAR KPOC 121647Z VRB03KT 10SM CLR 12/07 A3017",
      "metarTime": "2026-02-12T17:00:00.000Z",
      "taf": "",
      "tafTime": ""
    },
    "KCCB": {
      "name": "Cable Airport",
      "metar": "METAR KCCB 121715Z AUTO 23003KT 10SM CLR 13/09 A3015 RMK AO2",
      "metarTime": "2026-02-12T17:15:00.000Z",
      "taf": "",
      "tafTime": ""
    },
    "KRAL": {
      "name": "Riverside Municipal",
      "metar": "METAR KRAL 121653Z 15003KT 10SM CLR 12/09 A3017 RMK AO2 SLP206 T01170089",
      "metarTime": "2026-02-12T17:00:00.000Z",
      "taf": "",
      "tafTime": ""
    }
  }
}
