{
  "updated": "2026-02-26T16:00:00.000Z",
  "airports": {
    "KPOC": {
      "name": "Brackett Field",
      "metar": "METAR KPOC 261547Z 00000KT 10SM CLR 15/11 A3011",
      "metarTime": "2026-02-26T16:00:00.000Z",
      "taf": "",
      "tafTime": ""
    },
    "KCCB": {
      "name": "Cable Airport",
      "metar": "METAR KCCB 261555Z AUTO 06005KT 9SM CLR 18/11 A3010 RMK AO2",
      "metarTime": "2026-02-26T16:00:00.000Z",
      "taf": "",
      "tafTime": ""
    },
    "KRAL": {
      "name": "Riverside Municipal",
      "metar": "METAR KRAL 261553Z 04004KT 10SM CLR 15/11 A3011 RMK AO2 SLP183 T01500111",
      "metarTime": "2026-02-26T16:00:00.000Z",
      "taf": "",
      "tafTime": ""
    }
  }
}
