{
  "updated": "2026-03-04T14:15:00.000Z",
  "airports": {
    "KPOC": {
      "name": "Brackett Field",
      "metar": "",
      "metarTime": "",
      "taf": "",
      "tafTime": ""
    },
    "KCCB": {
      "name": "Cable Airport",
      "metar": "METAR KCCB 041415Z AUTO 00000KT 10SM 11/09 A3001 RMK AO2",
      "metarTime": "2026-03-04T14:15:00.000Z",
      "taf": "",
      "tafTime": ""
    },
    "KRAL": {
      "name": "Riverside Municipal",
      "metar": "METAR KRAL 041353Z AUTO 00000KT 10SM CLR 10/08 A3001 RMK AO2 SLP151 T01000083",
      "metarTime": "2026-03-04T14:00:00.000Z",
      "taf": "",
      "tafTime": ""
    }
  }
}
