{
  "updated": "2026-04-20T00:00:00.000Z",
  "airports": {
    "KPOC": {
      "name": "Brackett Field",
      "metar": "METAR KPOC 192347Z 24009KT 10SM CLR 26/05 A2988",
      "metarTime": "2026-04-20T00:00:00.000Z",
      "taf": "",
      "tafTime": ""
    },
    "KCCB": {
      "name": "Cable Airport",
      "metar": "METAR KCCB 192335Z AUTO 26010KT 10SM CLR 26/03 A2988 RMK AO2",
      "metarTime": "2026-04-19T23:35:00.000Z",
      "taf": "",
      "tafTime": ""
    },
    "KRAL": {
      "name": "Riverside Municipal",
      "metar": "METAR KRAL 192353Z 26015G24KT 10SM CLR 27/09 A2985 RMK AO2 SLP094 T02670089 10289 20228 56015",
      "metarTime": "2026-04-20T00:00:00.000Z",
      "taf": "",
      "tafTime": ""
    }
  }
}
