{
  "updated": "2026-02-22T18:30:00.000Z",
  "airports": {
    "KPOC": {
      "name": "Brackett Field",
      "metar": "",
      "metarTime": "",
      "taf": "",
      "tafTime": ""
    },
    "KCCB": {
      "name": "Cable Airport",
      "metar": "METAR KCCB 221830Z AUTO 24005KT 10SM CLR 18/M02 A3024 RMK AO2",
      "metarTime": "2026-02-22T18:30:00.000Z",
      "taf": "",
      "tafTime": ""
    },
    "KRAL": {
      "name": "Riverside Municipal",
      "metar": "",
      "metarTime": "",
      "taf": "",
      "tafTime": ""
    }
  }
}
