{
  "updated": "2026-07-17T20:15:00.000Z",
  "airports": {
    "KPOC": {
      "name": "Brackett Field",
      "metar": "METAR KPOC 171947Z 27008KT 10SM CLR 31/16 A2997",
      "metarTime": "2026-07-17T20:00:00.000Z",
      "taf": "",
      "tafTime": ""
    },
    "KCCB": {
      "name": "Cable Airport",
      "metar": "METAR KCCB 172015Z AUTO 26011G17KT 9SM CLR 31/14 A2997 RMK AO2",
      "metarTime": "2026-07-17T20:15:00.000Z",
      "taf": "",
      "tafTime": ""
    },
    "KRAL": {
      "name": "Riverside Municipal",
      "metar": "METAR KRAL 171953Z 31008KT 10SM CLR 34/15 A2993 RMK AO2 SLP116 T03390150",
      "metarTime": "2026-07-17T20:00:00.000Z",
      "taf": "",
      "tafTime": ""
    }
  }
}
