{
  "updated": "2026-07-22T04:00:00.000Z",
  "airports": {
    "KPOC": {
      "name": "Brackett Field",
      "metar": "METAR KPOC 220347Z 25008KT 10SM CLR 25/13 A3001",
      "metarTime": "2026-07-22T04:00:00.000Z",
      "taf": "",
      "tafTime": ""
    },
    "KCCB": {
      "name": "Cable Airport",
      "metar": "METAR KCCB 220335Z AUTO 24009KT 10SM 25/13 A3001 RMK AO2",
      "metarTime": "2026-07-22T03:35:00.000Z",
      "taf": "",
      "tafTime": ""
    },
    "KRAL": {
      "name": "Riverside Municipal",
      "metar": "METAR KRAL 220253Z 27011KT 10SM CLR 28/11 A2998 RMK AO2 SLP134 T02830106 53012",
      "metarTime": "2026-07-22T03:00:00.000Z",
      "taf": "",
      "tafTime": ""
    }
  }
}
