{
  "updated": "2026-06-03T00:00:00.000Z",
  "airports": {
    "KPOC": {
      "name": "Brackett Field",
      "metar": "METAR KPOC 022347Z 25011KT 10SM CLR 27/13 A2995",
      "metarTime": "2026-06-03T00:00:00.000Z",
      "taf": "",
      "tafTime": ""
    },
    "KCCB": {
      "name": "Cable Airport",
      "metar": "METAR KCCB 022355Z AUTO 26011G18KT 10SM CLR 26/12 A2995 RMK AO2",
      "metarTime": "2026-06-03T00:00:00.000Z",
      "taf": "",
      "tafTime": ""
    },
    "KRAL": {
      "name": "Riverside Municipal",
      "metar": "METAR KRAL 022353Z 27011G18KT 10SM CLR 28/11 A2993 RMK AO2 SLP119 T02780111 10300 20206 56017",
      "metarTime": "2026-06-03T00:00:00.000Z",
      "taf": "",
      "tafTime": ""
    }
  }
}
