{
  "updated": "2026-03-30T16:35:00.000Z",
  "airports": {
    "KPOC": {
      "name": "Brackett Field",
      "metar": "METAR KPOC 301547Z 00000KT 10SM CLR 19/04 A3001",
      "metarTime": "2026-03-30T16:00:00.000Z",
      "taf": "",
      "tafTime": ""
    },
    "KCCB": {
      "name": "Cable Airport",
      "metar": "METAR KCCB 301635Z AUTO 00000KT 10SM CLR 21/M02 A3002 RMK AO2",
      "metarTime": "2026-03-30T16:35:00.000Z",
      "taf": "",
      "tafTime": ""
    },
    "KRAL": {
      "name": "Riverside Municipal",
      "metar": "METAR KRAL 301553Z 00000KT 10SM CLR 17/M01 A3000 RMK AO2 SLP146 T01721006",
      "metarTime": "2026-03-30T16:00:00.000Z",
      "taf": "",
      "tafTime": ""
    }
  }
}
