{
  "updated": "2026-02-23T10:15:00.000Z",
  "airports": {
    "KPOC": {
      "name": "Brackett Field",
      "metar": "",
      "metarTime": "",
      "taf": "",
      "tafTime": ""
    },
    "KCCB": {
      "name": "Cable Airport",
      "metar": "METAR KCCB 231015Z AUTO 35005KT 10SM CLR 13/M02 A3018 RMK AO2",
      "metarTime": "2026-02-23T10:15:00.000Z",
      "taf": "",
      "tafTime": ""
    },
    "KRAL": {
      "name": "Riverside Municipal",
      "metar": "METAR KRAL 230953Z AUTO 00000KT 10SM CLR 11/02 A3019 RMK AO2 SLP210 T01060017 $",
      "metarTime": "2026-02-23T10:00:00.000Z",
      "taf": "",
      "tafTime": ""
    }
  }
}
