{
  "updated": "2026-05-24T19:00:00.000Z",
  "airports": {
    "KPOC": {
      "name": "Brackett Field",
      "metar": "METAR KPOC 241847Z 21003KT 3SM BR OVC023 17/13 A3004",
      "metarTime": "2026-05-24T19:00:00.000Z",
      "taf": "",
      "tafTime": ""
    },
    "KCCB": {
      "name": "Cable Airport",
      "metar": "METAR KCCB 241835Z AUTO 00000KT 5SM BR OVC013 16/14 A3003 RMK AO2",
      "metarTime": "2026-05-24T18:35:00.000Z",
      "taf": "",
      "tafTime": ""
    },
    "KRAL": {
      "name": "Riverside Municipal",
      "metar": "METAR KRAL 241853Z VRB03KT 10SM OVC023 19/12 A3003 RMK AO2 SLP155 T01940122",
      "metarTime": "2026-05-24T19:00:00.000Z",
      "taf": "",
      "tafTime": ""
    }
  }
}
