{
  "updated": "2026-04-03T06:15:00.000Z",
  "airports": {
    "KPOC": {
      "name": "Brackett Field",
      "metar": "",
      "metarTime": "",
      "taf": "",
      "tafTime": ""
    },
    "KCCB": {
      "name": "Cable Airport",
      "metar": "METAR KCCB 030615Z AUTO 24003KT 10SM BKN046 14/11 A2997 RMK AO2",
      "metarTime": "2026-04-03T06:15:00.000Z",
      "taf": "",
      "tafTime": ""
    },
    "KRAL": {
      "name": "Riverside Municipal",
      "metar": "METAR KRAL 030553Z AUTO VRB03KT 10SM OVC055 16/10 A2997 RMK AO2 SLP138 T01610100 10211 20161 51019",
      "metarTime": "2026-04-03T06:00:00.000Z",
      "taf": "",
      "tafTime": ""
    }
  }
}
