{
  "updated": "2026-05-17T12:35:00.000Z",
  "airports": {
    "KPOC": {
      "name": "Brackett Field",
      "metar": "",
      "metarTime": "",
      "taf": "",
      "tafTime": ""
    },
    "KCCB": {
      "name": "Cable Airport",
      "metar": "METAR KCCB 171235Z AUTO 28006KT 8SM FEW009 OVC022 14/14 A2980 RMK AO2",
      "metarTime": "2026-05-17T12:35:00.000Z",
      "taf": "",
      "tafTime": ""
    },
    "KRAL": {
      "name": "Riverside Municipal",
      "metar": "METAR KRAL 171153Z AUTO 27004KT 10SM FEW012 OVC023 14/12 A2980 RMK AO2 SLP078 T01440122 10172 20144 57010",
      "metarTime": "2026-05-17T12:00:00.000Z",
      "taf": "",
      "tafTime": ""
    }
  }
}
