{
  "updated": "2026-04-05T08:15:00.000Z",
  "airports": {
    "KPOC": {
      "name": "Brackett Field",
      "metar": "",
      "metarTime": "",
      "taf": "",
      "tafTime": ""
    },
    "KCCB": {
      "name": "Cable Airport",
      "metar": "METAR KCCB 050815Z AUTO 02004KT 10SM CLR 18/M06 A3004 RMK AO2",
      "metarTime": "2026-04-05T08:15:00.000Z",
      "taf": "",
      "tafTime": ""
    },
    "KRAL": {
      "name": "Riverside Municipal",
      "metar": "METAR KRAL 050753Z AUTO 00000KT 10SM CLR 16/01 A3003 RMK AO2 SLP154 T01610011 403170122",
      "metarTime": "2026-04-05T08:00:00.000Z",
      "taf": "",
      "tafTime": ""
    }
  }
}
