{
  "updated": "2026-04-14T09:00:00.000Z",
  "airports": {
    "KPOC": {
      "name": "Brackett Field",
      "metar": "",
      "metarTime": "",
      "taf": "",
      "tafTime": ""
    },
    "KCCB": {
      "name": "Cable Airport",
      "metar": "METAR KCCB 140835Z AUTO 01005KT 10SM SCT018 BKN029 BKN035 11/05 A3008 RMK AO2",
      "metarTime": "2026-04-14T08:35:00.000Z",
      "taf": "",
      "tafTime": ""
    },
    "KRAL": {
      "name": "Riverside Municipal",
      "metar": "METAR KRAL 140853Z AUTO 00000KT 10SM OVC034 11/07 A3009 RMK AO2 SLP178 T01110072 50004",
      "metarTime": "2026-04-14T09:00:00.000Z",
      "taf": "",
      "tafTime": ""
    }
  }
}
