{
  "updated": "2026-03-12T17:35:00.000Z",
  "airports": {
    "KPOC": {
      "name": "Brackett Field",
      "metar": "METAR KPOC 121647Z 11003KT 10SM CLR 23/06 A3022",
      "metarTime": "2026-03-12T17:00:00.000Z",
      "taf": "",
      "tafTime": ""
    },
    "KCCB": {
      "name": "Cable Airport",
      "metar": "METAR KCCB 121735Z AUTO 20004KT 10SM CLR 25/03 A3022 RMK AO2",
      "metarTime": "2026-03-12T17:35:00.000Z",
      "taf": "",
      "tafTime": ""
    },
    "KRAL": {
      "name": "Riverside Municipal",
      "metar": "SPECI KRAL 121655Z 00000KT 10SM CLR 24/08 A3021 RMK AO2 T02440078 $",
      "metarTime": "2026-03-12T16:55:00.000Z",
      "taf": "",
      "tafTime": ""
    }
  }
}
