{
  "updated": "2026-03-15T22:00:00.000Z",
  "airports": {
    "KPOC": {
      "name": "Brackett Field",
      "metar": "METAR KPOC 152147Z 25010KT 10SM CLR 27/07 A2997",
      "metarTime": "2026-03-15T22:00:00.000Z",
      "taf": "",
      "tafTime": ""
    },
    "KCCB": {
      "name": "Cable Airport",
      "metar": "METAR KCCB 152155Z AUTO 29008KT 10SM CLR 27/05 A2998 RMK AO2",
      "metarTime": "2026-03-15T22:00:00.000Z",
      "taf": "",
      "tafTime": ""
    },
    "KRAL": {
      "name": "Riverside Municipal",
      "metar": "METAR KRAL 152153Z 28010G17KT 10SM CLR 31/06 A2993 RMK AO2 SLP122 T03110061",
      "metarTime": "2026-03-15T22:00:00.000Z",
      "taf": "",
      "tafTime": ""
    }
  }
}
