{
  "updated": "2026-02-16T01:00:00.000Z",
  "airports": {
    "KPOC": {
      "name": "Brackett Field",
      "metar": "METAR KPOC 160047Z 22005KT 7SM CLR 15/07 A2994",
      "metarTime": "2026-02-16T01:00:00.000Z",
      "taf": "",
      "tafTime": ""
    },
    "KCCB": {
      "name": "Cable Airport",
      "metar": "METAR KCCB 160055Z AUTO 25008KT 10SM CLR 14/05 A2993 RMK AO2",
      "metarTime": "2026-02-16T01:00:00.000Z",
      "taf": "",
      "tafTime": ""
    },
    "KRAL": {
      "name": "Riverside Municipal",
      "metar": "METAR KRAL 160053Z 27007KT 10SM CLR 15/06 A2993 RMK AO2 SLP124 T01500061",
      "metarTime": "2026-02-16T01:00:00.000Z",
      "taf": "",
      "tafTime": ""
    }
  }
}
