{
  "updated": "2026-04-19T19:00:00.000Z",
  "airports": {
    "KPOC": {
      "name": "Brackett Field",
      "metar": "METAR KPOC 191847Z 24005KT 10SM CLR 23/08 A2995",
      "metarTime": "2026-04-19T19:00:00.000Z",
      "taf": "",
      "tafTime": ""
    },
    "KCCB": {
      "name": "Cable Airport",
      "metar": "METAR KCCB 191835Z AUTO 27008KT 10SM CLR 23/05 A2995 RMK AO2",
      "metarTime": "2026-04-19T18:35:00.000Z",
      "taf": "",
      "tafTime": ""
    },
    "KRAL": {
      "name": "Riverside Municipal",
      "metar": "METAR KRAL 191753Z VRB04KT 10SM CLR 23/07 A2993 RMK AO2 SLP120 T02280067 10228 20139 51009",
      "metarTime": "2026-04-19T18:00:00.000Z",
      "taf": "",
      "tafTime": ""
    }
  }
}
