{
  "updated": "2026-04-02T15:00:00.000Z",
  "airports": {
    "KPOC": {
      "name": "Brackett Field",
      "metar": "METAR KPOC 021447Z 27005KT 5SM BR BKN035 OVC045 14/11 A2999",
      "metarTime": "2026-04-02T15:00:00.000Z",
      "taf": "",
      "tafTime": ""
    },
    "KCCB": {
      "name": "Cable Airport",
      "metar": "",
      "metarTime": "",
      "taf": "",
      "tafTime": ""
    },
    "KRAL": {
      "name": "Riverside Municipal",
      "metar": "METAR KRAL 021453Z 00000KT 10SM BKN012 14/11 A2999 RMK AO2 SLP144 T01390111 53012",
      "metarTime": "2026-04-02T15:00:00.000Z",
      "taf": "",
      "tafTime": ""
    }
  }
}
