{
  "updated": "2026-02-14T19:00:00.000Z",
  "airports": {
    "KPOC": {
      "name": "Brackett Field",
      "metar": "METAR KPOC 141847Z VRB05KT 10SM CLR 16/08 A3015",
      "metarTime": "2026-02-14T19:00:00.000Z",
      "taf": "",
      "tafTime": ""
    },
    "KCCB": {
      "name": "Cable Airport",
      "metar": "METAR KCCB 141835Z AUTO VRB05KT 10SM CLR 16/06 A3014 RMK AO2",
      "metarTime": "2026-02-14T18:35:00.000Z",
      "taf": "",
      "tafTime": ""
    },
    "KRAL": {
      "name": "Riverside Municipal",
      "metar": "METAR KRAL 141853Z AUTO 25003KT 10SM CLR 17/09 A3014 RMK AO2 SLP197 T01670089",
      "metarTime": "2026-02-14T19:00:00.000Z",
      "taf": "",
      "tafTime": ""
    }
  }
}
