{
  "updated": "2026-03-10T14:35:00.000Z",
  "airports": {
    "KPOC": {
      "name": "Brackett Field",
      "metar": "METAR KPOC 101347Z 00000KT 10SM SCT015 13/10 A3003",
      "metarTime": "2026-03-10T14:00:00.000Z",
      "taf": "",
      "tafTime": ""
    },
    "KCCB": {
      "name": "Cable Airport",
      "metar": "METAR KCCB 101435Z AUTO 00000KT 4SM BR BKN009 OVC013 13/12 A3003 RMK AO2",
      "metarTime": "2026-03-10T14:35:00.000Z",
      "taf": "",
      "tafTime": ""
    },
    "KRAL": {
      "name": "Riverside Municipal",
      "metar": "METAR KRAL 101353Z 12003KT 10SM SCT012 11/08 A3002 RMK AO2 SLP156 T01060083",
      "metarTime": "2026-03-10T14:00:00.000Z",
      "taf": "",
      "tafTime": ""
    }
  }
}
