{
  "updated": "2026-02-26T07:15:00.000Z",
  "airports": {
    "KPOC": {
      "name": "Brackett Field",
      "metar": "",
      "metarTime": "",
      "taf": "",
      "tafTime": ""
    },
    "KCCB": {
      "name": "Cable Airport",
      "metar": "METAR KCCB 260715Z AUTO 09004KT 10SM CLR 17/12 A3009 RMK AO2",
      "metarTime": "2026-02-26T07:15:00.000Z",
      "taf": "",
      "tafTime": ""
    },
    "KRAL": {
      "name": "Riverside Municipal",
      "metar": "METAR KRAL 260653Z AUTO 00000KT 10SM CLR 17/12 A3009 RMK AO2 SLP175 T01670122",
      "metarTime": "2026-02-26T07:00:00.000Z",
      "taf": "",
      "tafTime": ""
    }
  }
}
