{
  "updated": "2026-07-14T18:00:00.000Z",
  "airports": {
    "KPOC": {
      "name": "Brackett Field",
      "metar": "METAR KPOC 141747Z 26006KT 10SM CLR 29/17 A2999",
      "metarTime": "2026-07-14T18:00:00.000Z",
      "taf": "",
      "tafTime": ""
    },
    "KCCB": {
      "name": "Cable Airport",
      "metar": "METAR KCCB 141755Z AUTO VRB04KT 10SM CLR 29/15 A3000 RMK AO2",
      "metarTime": "2026-07-14T18:00:00.000Z",
      "taf": "",
      "tafTime": ""
    },
    "KRAL": {
      "name": "Riverside Municipal",
      "metar": "METAR KRAL 141753Z VRB05KT 10SM CLR 31/14 A2997 RMK AO2 SLP132 T03060144 10311 20194 58010",
      "metarTime": "2026-07-14T18:00:00.000Z",
      "taf": "",
      "tafTime": ""
    }
  }
}
