{
  "updated": "2026-03-08T11:00:00.000Z",
  "airports": {
    "KPOC": {
      "name": "Brackett Field",
      "metar": "",
      "metarTime": "",
      "taf": "",
      "tafTime": ""
    },
    "KCCB": {
      "name": "Cable Airport",
      "metar": "METAR KCCB 081055Z AUTO 06009G16KT 10SM 21/M14 A2994 RMK AO2",
      "metarTime": "2026-03-08T11:00:00.000Z",
      "taf": "",
      "tafTime": ""
    },
    "KRAL": {
      "name": "Riverside Municipal",
      "metar": "METAR KRAL 081053Z AUTO 00000KT 10SM CLR 17/M08 A2996 RMK AO2 SLP130 T01671083",
      "metarTime": "2026-03-08T11:00:00.000Z",
      "taf": "",
      "tafTime": ""
    }
  }
}
