{
  "updated": "2026-02-25T07:35:00.000Z",
  "airports": {
    "KPOC": {
      "name": "Brackett Field",
      "metar": "",
      "metarTime": "",
      "taf": "",
      "tafTime": ""
    },
    "KCCB": {
      "name": "Cable Airport",
      "metar": "METAR KCCB 250735Z AUTO 02004KT 10SM CLR 17/06 A3005 RMK AO2",
      "metarTime": "2026-02-25T07:35:00.000Z",
      "taf": "",
      "tafTime": ""
    },
    "KRAL": {
      "name": "Riverside Municipal",
      "metar": "METAR KRAL 250653Z AUTO 00000KT 10SM CLR 15/07 A3005 RMK AO2 SLP161 T01500072",
      "metarTime": "2026-02-25T07:00:00.000Z",
      "taf": "",
      "tafTime": ""
    }
  }
}
