{
  "updated": "2026-02-17T15:35:00.000Z",
  "airports": {
    "KPOC": {
      "name": "Brackett Field",
      "metar": "METAR KPOC 171447Z VRB05KT 8SM BKN014 BKN050 08/07 A3003",
      "metarTime": "2026-02-17T15:00:00.000Z",
      "taf": "",
      "tafTime": ""
    },
    "KCCB": {
      "name": "Cable Airport",
      "metar": "METAR KCCB 171535Z AUTO 06004KT 10SM BKN045 OVC055 08/08 A3003 RMK AO2",
      "metarTime": "2026-02-17T15:35:00.000Z",
      "taf": "",
      "tafTime": ""
    },
    "KRAL": {
      "name": "Riverside Municipal",
      "metar": "METAR KRAL 171453Z 10003KT 10SM BKN050 08/06 A3003 RMK AO2 SLP161 60000 T00780056 53023",
      "metarTime": "2026-02-17T15:00:00.000Z",
      "taf": "",
      "tafTime": ""
    }
  }
}
