{
  "updated": "2026-05-10T02:00:00.000Z",
  "airports": {
    "KPOC": {
      "name": "Brackett Field",
      "metar": "METAR KPOC 100147Z 27008KT 10SM CLR 24/14 A2988",
      "metarTime": "2026-05-10T02:00:00.000Z",
      "taf": "",
      "tafTime": ""
    },
    "KCCB": {
      "name": "Cable Airport",
      "metar": "METAR KCCB 100135Z AUTO 25012G17KT 10SM CLR 25/12 A2987 RMK AO2",
      "metarTime": "2026-05-10T01:35:00.000Z",
      "taf": "",
      "tafTime": ""
    },
    "KRAL": {
      "name": "Riverside Municipal",
      "metar": "METAR KRAL 100053Z 26011KT 10SM CLR 27/13 A2984 RMK AO2 SLP092 T02720128 $",
      "metarTime": "2026-05-10T01:00:00.000Z",
      "taf": "",
      "tafTime": ""
    }
  }
}
