{
  "updated": "2026-05-22T10:00:00.000Z",
  "airports": {
    "KPOC": {
      "name": "Brackett Field",
      "metar": "",
      "metarTime": "",
      "taf": "",
      "tafTime": ""
    },
    "KCCB": {
      "name": "Cable Airport",
      "metar": "METAR KCCB 220955Z AUTO 27006KT 5SM BR OVC004 14/14 A2985 RMK AO2",
      "metarTime": "2026-05-22T10:00:00.000Z",
      "taf": "",
      "tafTime": ""
    },
    "KRAL": {
      "name": "Riverside Municipal",
      "metar": "METAR KRAL 220953Z AUTO 00000KT 8SM CLR 14/13 A2985 RMK AO2 SLP095 T01390128",
      "metarTime": "2026-05-22T10:00:00.000Z",
      "taf": "",
      "tafTime": ""
    }
  }
}
