{
  "updated": "2026-07-17T01:15:00.000Z",
  "airports": {
    "KPOC": {
      "name": "Brackett Field",
      "metar": "METAR KPOC 170047Z 24013KT 10SM CLR 32/17 A2980",
      "metarTime": "2026-07-17T01:00:00.000Z",
      "taf": "",
      "tafTime": ""
    },
    "KCCB": {
      "name": "Cable Airport",
      "metar": "METAR KCCB 170115Z AUTO 26013G18KT 9SM CLR 32/15 A2980 RMK AO2",
      "metarTime": "2026-07-17T01:15:00.000Z",
      "taf": "",
      "tafTime": ""
    },
    "KRAL": {
      "name": "Riverside Municipal",
      "metar": "METAR KRAL 170053Z 28009G23KT 10SM CLR 34/14 A2976 RMK AO2 SLP059 T03390144",
      "metarTime": "2026-07-17T01:00:00.000Z",
      "taf": "",
      "tafTime": ""
    }
  }
}
