{
  "updated": "2026-02-08T09:15:00.000Z",
  "airports": {
    "KPOC": {
      "name": "Brackett Field",
      "metar": "",
      "metarTime": "",
      "taf": "",
      "tafTime": ""
    },
    "KCCB": {
      "name": "Cable Airport",
      "metar": "METAR KCCB 080915Z AUTO 00000KT 10SM CLR 16/M02 A3017 RMK AO2",
      "metarTime": "2026-02-08T09:15:00.000Z",
      "taf": "",
      "tafTime": ""
    },
    "KRAL": {
      "name": "Riverside Municipal",
      "metar": "METAR KRAL 080853Z AUTO 12003KT 10SM CLR 15/03 A3016 RMK AO2 SLP199 T01500033 58003 $",
      "metarTime": "2026-02-08T09:00:00.000Z",
      "taf": "",
      "tafTime": ""
    }
  }
}
