{
  "updated": "2026-04-29T20:00:00.000Z",
  "airports": {
    "KPOC": {
      "name": "Brackett Field",
      "metar": "METAR KPOC 291947Z 27005KT 10SM CLR 22/06 A2999",
      "metarTime": "2026-04-29T20:00:00.000Z",
      "taf": "",
      "tafTime": ""
    },
    "KCCB": {
      "name": "Cable Airport",
      "metar": "METAR KCCB 291955Z AUTO 25009KT 10SM CLR 23/04 A2998 RMK AO2",
      "metarTime": "2026-04-29T20:00:00.000Z",
      "taf": "",
      "tafTime": ""
    },
    "KRAL": {
      "name": "Riverside Municipal",
      "metar": "METAR KRAL 291953Z 00000KT 10SM CLR 24/05 A2996 RMK AO2 SLP134 T02390050",
      "metarTime": "2026-04-29T20:00:00.000Z",
      "taf": "",
      "tafTime": ""
    }
  }
}
