{
  "updated": "2026-03-07T15:35:00.000Z",
  "airports": {
    "KPOC": {
      "name": "Brackett Field",
      "metar": "METAR KPOC 071447Z 36010G16KT 10SM CLR 16/M08 A3004",
      "metarTime": "2026-03-07T15:00:00.000Z",
      "taf": "",
      "tafTime": ""
    },
    "KCCB": {
      "name": "Cable Airport",
      "metar": "METAR KCCB 071535Z AUTO 04016G30KT 10SM CLR 16/M12 A3004 RMK AO2",
      "metarTime": "2026-03-07T15:35:00.000Z",
      "taf": "",
      "tafTime": ""
    },
    "KRAL": {
      "name": "Riverside Municipal",
      "metar": "METAR KRAL 071453Z 03012G29KT 10SM CLR 16/M08 A3003 RMK AO2 PK WND 04033/1432 SLP156 T01561083 53004",
      "metarTime": "2026-03-07T15:00:00.000Z",
      "taf": "",
      "tafTime": ""
    }
  }
}
