{
  "updated": "2026-06-13T20:00:00.000Z",
  "airports": {
    "KPOC": {
      "name": "Brackett Field",
      "metar": "METAR KPOC 131947Z 26011KT 10SM CLR 30/15 A2992",
      "metarTime": "2026-06-13T20:00:00.000Z",
      "taf": "",
      "tafTime": ""
    },
    "KCCB": {
      "name": "Cable Airport",
      "metar": "METAR KCCB 131845Z AUTO 26011KT 10SM CLR 29/14 A2993 RMK AO2",
      "metarTime": "2026-06-13T19:00:00.000Z",
      "taf": "",
      "tafTime": ""
    },
    "KRAL": {
      "name": "Riverside Municipal",
      "metar": "METAR KRAL 131853Z 26007KT 10SM CLR 32/11 A2990 RMK AO2 SLP106 T03220106",
      "metarTime": "2026-06-13T19:00:00.000Z",
      "taf": "",
      "tafTime": ""
    }
  }
}
