{
  "updated": "2026-02-14T20:35:00.000Z",
  "airports": {
    "KPOC": {
      "name": "Brackett Field",
      "metar": "METAR KPOC 141947Z 00000KT 10SM CLR 18/07 A3013",
      "metarTime": "2026-02-14T20:00:00.000Z",
      "taf": "",
      "tafTime": ""
    },
    "KCCB": {
      "name": "Cable Airport",
      "metar": "METAR KCCB 142035Z AUTO VRB03KT 10SM CLR 19/02 A3011 RMK AO2",
      "metarTime": "2026-02-14T20:35:00.000Z",
      "taf": "",
      "tafTime": ""
    },
    "KRAL": {
      "name": "Riverside Municipal",
      "metar": "METAR KRAL 141953Z VRB04KT 10SM CLR 19/08 A3012 RMK AO2 SLP187 T01890078",
      "metarTime": "2026-02-14T20:00:00.000Z",
      "taf": "",
      "tafTime": ""
    }
  }
}
