{
  "updated": "2026-05-05T22:00:00.000Z",
  "airports": {
    "KPOC": {
      "name": "Brackett Field",
      "metar": "METAR KPOC 052147Z 23006KT 10SM OVC040 17/06 A2997",
      "metarTime": "2026-05-05T22:00:00.000Z",
      "taf": "",
      "tafTime": ""
    },
    "KCCB": {
      "name": "Cable Airport",
      "metar": "METAR KCCB 052135Z AUTO 28008KT 10SM OVC038 16/07 A2996 RMK AO2",
      "metarTime": "2026-05-05T21:35:00.000Z",
      "taf": "",
      "tafTime": ""
    },
    "KRAL": {
      "name": "Riverside Municipal",
      "metar": "METAR KRAL 052053Z VRB04KT 10SM SCT085 19/05 A2995 RMK AO2 SLP129 T01890050 58008",
      "metarTime": "2026-05-05T21:00:00.000Z",
      "taf": "",
      "tafTime": ""
    }
  }
}
