{
  "updated": "2026-02-27T01:00:00.000Z",
  "airports": {
    "KPOC": {
      "name": "Brackett Field",
      "metar": "METAR KPOC 270047Z 26003KT 10SM CLR 28/12 A2998",
      "metarTime": "2026-02-27T01:00:00.000Z",
      "taf": "",
      "tafTime": ""
    },
    "KCCB": {
      "name": "Cable Airport",
      "metar": "METAR KCCB 270055Z AUTO 27004KT 10SM CLR 28/09 A2998 RMK AO2",
      "metarTime": "2026-02-27T01:00:00.000Z",
      "taf": "",
      "tafTime": ""
    },
    "KRAL": {
      "name": "Riverside Municipal",
      "metar": "METAR KRAL 270053Z 27006KT 10SM CLR 28/13 A2995 RMK AO2 SLP129 T02780128",
      "metarTime": "2026-02-27T01:00:00.000Z",
      "taf": "",
      "tafTime": ""
    }
  }
}
