{
  "updated": "2026-04-10T23:15:00.000Z",
  "airports": {
    "KPOC": {
      "name": "Brackett Field",
      "metar": "METAR KPOC 102247Z 23006G14KT 10SM SCT060 23/10 A2993",
      "metarTime": "2026-04-10T23:00:00.000Z",
      "taf": "",
      "tafTime": ""
    },
    "KCCB": {
      "name": "Cable Airport",
      "metar": "METAR KCCB 102315Z AUTO 23010KT 10SM SCT090 23/09 A2993 RMK AO2",
      "metarTime": "2026-04-10T23:15:00.000Z",
      "taf": "",
      "tafTime": ""
    },
    "KRAL": {
      "name": "Riverside Municipal",
      "metar": "METAR KRAL 102253Z 27016G25KT 10SM FEW060 SCT070 26/11 A2989 RMK AO2 PK WND 25027/2226 SLP109 T02560111",
      "metarTime": "2026-04-10T23:00:00.000Z",
      "taf": "",
      "tafTime": ""
    }
  }
}
