{
  "updated": "2026-06-07T22:00:00.000Z",
  "airports": {
    "KPOC": {
      "name": "Brackett Field",
      "metar": "METAR KPOC 072147Z 26009KT 10SM CLR 26/11 A2981",
      "metarTime": "2026-06-07T22:00:00.000Z",
      "taf": "",
      "tafTime": ""
    },
    "KCCB": {
      "name": "Cable Airport",
      "metar": "METAR KCCB 072135Z AUTO 27011KT 10SM CLR 26/11 A2981 RMK AO2",
      "metarTime": "2026-06-07T21:35:00.000Z",
      "taf": "",
      "tafTime": ""
    },
    "KRAL": {
      "name": "Riverside Municipal",
      "metar": "METAR KRAL 072153Z 28010G17KT 10SM CLR 28/11 A2978 RMK AO2 SLP067 T02830111",
      "metarTime": "2026-06-07T22:00:00.000Z",
      "taf": "",
      "tafTime": ""
    }
  }
}
