{
  "updated": "2026-02-22T21:00:00.000Z",
  "airports": {
    "KPOC": {
      "name": "Brackett Field",
      "metar": "METAR KPOC 221947Z 00000KT 10SM CLR 22/M01 A3022",
      "metarTime": "2026-02-22T20:00:00.000Z",
      "taf": "",
      "tafTime": ""
    },
    "KCCB": {
      "name": "Cable Airport",
      "metar": "",
      "metarTime": "",
      "taf": "",
      "tafTime": ""
    },
    "KRAL": {
      "name": "Riverside Municipal",
      "metar": "METAR KRAL 222053Z VRB03KT 10SM CLR 23/M01 A3018 RMK AO2 SLP208 T02331006 58017 $",
      "metarTime": "2026-02-22T21:00:00.000Z",
      "taf": "",
      "tafTime": ""
    }
  }
}
