{
  "updated": "2026-02-05T07:15:00.000Z",
  "airports": {
    "KPOC": {
      "name": "Brackett Field",
      "metar": "",
      "metarTime": "",
      "taf": "",
      "tafTime": ""
    },
    "KCCB": {
      "name": "Cable Airport",
      "metar": "METAR KCCB 050715Z AUTO 01004KT 10SM CLR 20/M09 A3012 RMK AO2",
      "metarTime": "2026-02-05T07:15:00.000Z",
      "taf": "",
      "tafTime": ""
    },
    "KRAL": {
      "name": "Riverside Municipal",
      "metar": "METAR KRAL 050653Z AUTO 08004KT 10SM CLR 18/M04 A3012 RMK AO2 SLP184 T01781039",
      "metarTime": "2026-02-05T07:00:00.000Z",
      "taf": "",
      "tafTime": ""
    }
  }
}
