{
  "updated": "2026-03-08T16:00:00.000Z",
  "airports": {
    "KPOC": {
      "name": "Brackett Field",
      "metar": "METAR KPOC 081547Z VR003KT 10SM CLR 17/M02 A2995",
      "metarTime": "2026-03-08T16:00:00.000Z",
      "taf": "",
      "tafTime": ""
    },
    "KCCB": {
      "name": "Cable Airport",
      "metar": "METAR KCCB 081555Z AUTO 00000KT 10SM CLR 19/M08 A2995 RMK AO2",
      "metarTime": "2026-03-08T16:00:00.000Z",
      "taf": "",
      "tafTime": ""
    },
    "KRAL": {
      "name": "Riverside Municipal",
      "metar": "METAR KRAL 081553Z 03011G21KT 10SM CLR 22/M09 A2995 RMK AO2 SLP127 T02171089",
      "metarTime": "2026-03-08T16:00:00.000Z",
      "taf": "",
      "tafTime": ""
    }
  }
}
