{
  "updated": "2026-02-08T01:15:00.000Z",
  "airports": {
    "KPOC": {
      "name": "Brackett Field",
      "metar": "METAR KPOC 080047Z 25005KT 10SM CLR 23/09 A3013",
      "metarTime": "2026-02-08T01:00:00.000Z",
      "taf": "",
      "tafTime": ""
    },
    "KCCB": {
      "name": "Cable Airport",
      "metar": "METAR KCCB 080115Z AUTO 29005KT 10SM CLR 22/06 A3013 RMK AO2",
      "metarTime": "2026-02-08T01:15:00.000Z",
      "taf": "",
      "tafTime": ""
    },
    "KRAL": {
      "name": "Riverside Municipal",
      "metar": "METAR KRAL 080053Z AUTO 30004KT 10SM CLR 24/04 A3011 RMK AO2 SLP184 T02440044 $",
      "metarTime": "2026-02-08T01:00:00.000Z",
      "taf": "",
      "tafTime": ""
    }
  }
}
