{
  "updated": "2026-07-22T16:00:00.000Z",
  "airports": {
    "KPOC": {
      "name": "Brackett Field",
      "metar": "METAR KPOC 221547Z 26003KT 10SM CLR 23/18 A3004",
      "metarTime": "2026-07-22T16:00:00.000Z",
      "taf": "",
      "tafTime": ""
    },
    "KCCB": {
      "name": "Cable Airport",
      "metar": "METAR KCCB 221555Z AUTO 00000KT 10SM 24/15 A3004 RMK AO2 P0003",
      "metarTime": "2026-07-22T16:00:00.000Z",
      "taf": "",
      "tafTime": ""
    },
    "KRAL": {
      "name": "Riverside Municipal",
      "metar": "METAR KRAL 221553Z VRB03KT 10SM CLR 24/16 A3002 RMK AO2 RAB07E16 SLP149 P0000 T02440156",
      "metarTime": "2026-07-22T16:00:00.000Z",
      "taf": "",
      "tafTime": ""
    }
  }
}
