{
  "updated": "2026-05-12T20:35:00.000Z",
  "airports": {
    "KPOC": {
      "name": "Brackett Field",
      "metar": "METAR KPOC 121947Z 26009KT 07SM BKN040 18/13 A3005",
      "metarTime": "2026-05-12T20:00:00.000Z",
      "taf": "",
      "tafTime": ""
    },
    "KCCB": {
      "name": "Cable Airport",
      "metar": "METAR KCCB 122035Z AUTO 26009G17KT 10SM CLR 20/12 A3003 RMK AO2",
      "metarTime": "2026-05-12T20:35:00.000Z",
      "taf": "",
      "tafTime": ""
    },
    "KRAL": {
      "name": "Riverside Municipal",
      "metar": "METAR KRAL 121953Z 28010G18KT 10SM CLR 23/13 A3001 RMK AO2 SLP149 T02280133",
      "metarTime": "2026-05-12T20:00:00.000Z",
      "taf": "",
      "tafTime": ""
    }
  }
}
