{
  "updated": "2026-02-11T20:15:00.000Z",
  "airports": {
    "KPOC": {
      "name": "Brackett Field",
      "metar": "METAR KPOC 111947Z VRB04KT 7SM BKN010 14/12 A3014",
      "metarTime": "2026-02-11T20:00:00.000Z",
      "taf": "",
      "tafTime": ""
    },
    "KCCB": {
      "name": "Cable Airport",
      "metar": "METAR KCCB 112015Z AUTO 00000KT 10SM OVC018 14/12 A3012 RMK AO2",
      "metarTime": "2026-02-11T20:15:00.000Z",
      "taf": "",
      "tafTime": ""
    },
    "KRAL": {
      "name": "Riverside Municipal",
      "metar": "SPECI KRAL 112002Z 12005KT 10SM FEW009 OVC050 14/12 A3013 RMK AO2 T01390117 $",
      "metarTime": "2026-02-11T20:02:00.000Z",
      "taf": "",
      "tafTime": ""
    }
  }
}
