{
  "updated": "2026-02-26T00:00:00.000Z",
  "airports": {
    "KPOC": {
      "name": "Brackett Field",
      "metar": "METAR KPOC 252347Z 21006KT 8SM CLR 26/11 A2999",
      "metarTime": "2026-02-26T00:00:00.000Z",
      "taf": "",
      "tafTime": ""
    },
    "KCCB": {
      "name": "Cable Airport",
      "metar": "METAR KCCB 252335Z AUTO 25005KT 10SM CLR 26/07 A2999 RMK AO2",
      "metarTime": "2026-02-25T23:35:00.000Z",
      "taf": "",
      "tafTime": ""
    },
    "KRAL": {
      "name": "Riverside Municipal",
      "metar": "METAR KRAL 252253Z 29003KT 10SM CLR 26/09 A2998 RMK AO2 SLP140 T02610089",
      "metarTime": "2026-02-25T23:00:00.000Z",
      "taf": "",
      "tafTime": ""
    }
  }
}
