{
  "updated": "2026-02-04T09:15:00.000Z",
  "airports": {
    "KPOC": {
      "name": "Brackett Field",
      "metar": "",
      "metarTime": "",
      "taf": "",
      "tafTime": ""
    },
    "KCCB": {
      "name": "Cable Airport",
      "metar": "METAR KCCB 040915Z AUTO 36007KT 10SM CLR 17/M05 A3019 RMK AO2",
      "metarTime": "2026-02-04T09:15:00.000Z",
      "taf": "",
      "tafTime": ""
    },
    "KRAL": {
      "name": "Riverside Municipal",
      "metar": "METAR KRAL 040853Z AUTO 09003KT 10SM CLR 13/M03 A3019 RMK AO2 SLP210 T01281028 58000",
      "metarTime": "2026-02-04T09:00:00.000Z",
      "taf": "",
      "tafTime": ""
    }
  }
}
