{
  "updated": "2026-06-06T20:35:00.000Z",
  "airports": {
    "KPOC": {
      "name": "Brackett Field",
      "metar": "METAR KPOC 061947Z 26008KT 10SM CLR 22/14 A2987",
      "metarTime": "2026-06-06T20:00:00.000Z",
      "taf": "",
      "tafTime": ""
    },
    "KCCB": {
      "name": "Cable Airport",
      "metar": "METAR KCCB 062035Z AUTO 26008KT 9SM CLR 24/14 A2986 RMK AO2",
      "metarTime": "2026-06-06T20:35:00.000Z",
      "taf": "",
      "tafTime": ""
    },
    "KRAL": {
      "name": "Riverside Municipal",
      "metar": "METAR KRAL 061953Z VRB05KT 10SM CLR 24/14 A2985 RMK AO2 SLP093 T02440139",
      "metarTime": "2026-06-06T20:00:00.000Z",
      "taf": "",
      "tafTime": ""
    }
  }
}
