{
  "updated": "2026-03-23T16:35:00.000Z",
  "airports": {
    "KPOC": {
      "name": "Brackett Field",
      "metar": "METAR KPOC 231547Z 00000KT 1/2SM FG VV003 14/14 A2997",
      "metarTime": "2026-03-23T16:00:00.000Z",
      "taf": "",
      "tafTime": ""
    },
    "KCCB": {
      "name": "Cable Airport",
      "metar": "METAR KCCB 231635Z AUTO 00000KT 9SM CLR 21/12 A2997 RMK AO2",
      "metarTime": "2026-03-23T16:35:00.000Z",
      "taf": "",
      "tafTime": ""
    },
    "KRAL": {
      "name": "Riverside Municipal",
      "metar": "METAR KRAL 231553Z 00000KT 7SM CLR 17/13 A2996 RMK AO2 SLP130 T01720128",
      "metarTime": "2026-03-23T16:00:00.000Z",
      "taf": "",
      "tafTime": ""
    }
  }
}
