{
  "updated": "2026-02-09T07:35:00.000Z",
  "airports": {
    "KPOC": {
      "name": "Brackett Field",
      "metar": "",
      "metarTime": "",
      "taf": "",
      "tafTime": ""
    },
    "KCCB": {
      "name": "Cable Airport",
      "metar": "METAR KCCB 090735Z AUTO 06003KT 10SM CLR 18/M04 A3014 RMK AO2",
      "metarTime": "2026-02-09T07:35:00.000Z",
      "taf": "",
      "tafTime": ""
    },
    "KRAL": {
      "name": "Riverside Municipal",
      "metar": "METAR KRAL 090653Z AUTO 00000KT 10SM CLR 16/04 A3014 RMK AO2 SLP193 T01610039 $",
      "metarTime": "2026-02-09T07:00:00.000Z",
      "taf": "",
      "tafTime": ""
    }
  }
}
