{
  "updated": "2026-06-20T13:15:00.000Z",
  "airports": {
    "KPOC": {
      "name": "Brackett Field",
      "metar": "",
      "metarTime": "",
      "taf": "",
      "tafTime": ""
    },
    "KCCB": {
      "name": "Cable Airport",
      "metar": "METAR KCCB 201315Z AUTO 34004KT 8SM CLR 14/11 A2997 RMK AO2",
      "metarTime": "2026-06-20T13:15:00.000Z",
      "taf": "",
      "tafTime": ""
    },
    "KRAL": {
      "name": "Riverside Municipal",
      "metar": "METAR KRAL 201253Z AUTO 00000KT 10SM CLR 13/11 A2997 RMK AO2 SLP134 T01330111",
      "metarTime": "2026-06-20T13:00:00.000Z",
      "taf": "",
      "tafTime": ""
    }
  }
}
