{
  "updated": "2026-03-20T23:00:00.000Z",
  "airports": {
    "KPOC": {
      "name": "Brackett Field",
      "metar": "METAR KPOC 202247Z 25010KT 10SM CLR 35/09 A2994",
      "metarTime": "2026-03-20T23:00:00.000Z",
      "taf": "",
      "tafTime": ""
    },
    "KCCB": {
      "name": "Cable Airport",
      "metar": "METAR KCCB 202255Z AUTO 26012KT 10SM CLR 35/06 A2995 RMK AO2",
      "metarTime": "2026-03-20T23:00:00.000Z",
      "taf": "",
      "tafTime": ""
    },
    "KRAL": {
      "name": "Riverside Municipal",
      "metar": "METAR KRAL 202253Z 27014KT 10SM CLR 37/09 A2990 RMK AO2 SLP107 T03670089",
      "metarTime": "2026-03-20T23:00:00.000Z",
      "taf": "",
      "tafTime": ""
    }
  }
}
