{
  "updated": "2026-05-05T04:35:00.000Z",
  "airports": {
    "KPOC": {
      "name": "Brackett Field",
      "metar": "",
      "metarTime": "",
      "taf": "",
      "tafTime": ""
    },
    "KCCB": {
      "name": "Cable Airport",
      "metar": "METAR KCCB 050435Z AUTO 26009KT 10SM BKN025 OVC032 14/08 A2997 RMK AO2",
      "metarTime": "2026-05-05T04:35:00.000Z",
      "taf": "",
      "tafTime": ""
    },
    "KRAL": {
      "name": "Riverside Municipal",
      "metar": "METAR KRAL 050353Z AUTO 27012KT 10SM FEW060 OVC080 15/09 A2996 RMK AO2 SLP136 T01500089",
      "metarTime": "2026-05-05T04:00:00.000Z",
      "taf": "",
      "tafTime": ""
    }
  }
}
