{
  "updated": "2026-02-06T17:00:00.000Z",
  "airports": {
    "KPOC": {
      "name": "Brackett Field",
      "metar": "METAR KPOC 061647Z 00000KT 10SM CLR 16/11 A3016",
      "metarTime": "2026-02-06T17:00:00.000Z",
      "taf": "",
      "tafTime": ""
    },
    "KCCB": {
      "name": "Cable Airport",
      "metar": "METAR KCCB 061655Z AUTO 00000KT 10SM CLR 15/09 A3015 RMK AO2",
      "metarTime": "2026-02-06T17:00:00.000Z",
      "taf": "",
      "tafTime": ""
    },
    "KRAL": {
      "name": "Riverside Municipal",
      "metar": "METAR KRAL 061653Z 09003KT 10SM CLR 15/08 A3015 RMK AO2 SLP199 T01500083",
      "metarTime": "2026-02-06T17:00:00.000Z",
      "taf": "",
      "tafTime": ""
    }
  }
}
