{
  "updated": "2026-02-16T22:35:00.000Z",
  "airports": {
    "KPOC": {
      "name": "Brackett Field",
      "metar": "METAR KPOC 162147Z 28015G20KT 1 1/2SM OVC005 10/09 A2976 RA",
      "metarTime": "2026-02-16T22:00:00.000Z",
      "taf": "",
      "tafTime": ""
    },
    "KCCB": {
      "name": "Cable Airport",
      "metar": "METAR KCCB 162235Z AUTO 28008G14KT 2 1/2SM RA SCT025 BKN032 BKN037 09/08 A2977 RMK AO2",
      "metarTime": "2026-02-16T22:35:00.000Z",
      "taf": "",
      "tafTime": ""
    },
    "KRAL": {
      "name": "Riverside Municipal",
      "metar": "SPECI KRAL 162213Z 27018G29KT 2 1/2SM +RA BR BKN009 BKN015 OVC021 11/09 A2978 RMK AO2 PK WND 27029/2212 P0008 T01060089",
      "metarTime": "2026-02-16T22:13:00.000Z",
      "taf": "",
      "tafTime": ""
    }
  }
}
