{
  "updated": "2026-02-18T19:35:00.000Z",
  "airports": {
    "KPOC": {
      "name": "Brackett Field",
      "metar": "METAR KPOC 181847Z 24007KT 10SM SCT040 11/01 A3005",
      "metarTime": "2026-02-18T19:00:00.000Z",
      "taf": "",
      "tafTime": ""
    },
    "KCCB": {
      "name": "Cable Airport",
      "metar": "METAR KCCB 181935Z AUTO 24008G14KT 10SM CLR 11/M02 A3003 RMK AO2",
      "metarTime": "2026-02-18T19:35:00.000Z",
      "taf": "",
      "tafTime": ""
    },
    "KRAL": {
      "name": "Riverside Municipal",
      "metar": "METAR KRAL 181853Z 23012G17KT 10SM BKN041 12/04 A3004 RMK AO2 SLP165 T01220039 $",
      "metarTime": "2026-02-18T19:00:00.000Z",
      "taf": "",
      "tafTime": ""
    }
  }
}
