{
  "updated": "2026-06-14T18:00:00.000Z",
  "airports": {
    "KPOC": {
      "name": "Brackett Field",
      "metar": "METAR KPOC 141747Z 25008KT 10SM CLR 26/16 A3000",
      "metarTime": "2026-06-14T18:00:00.000Z",
      "taf": "",
      "tafTime": ""
    },
    "KCCB": {
      "name": "Cable Airport",
      "metar": "METAR KCCB 141750Z AUTO 26005G11KT 10SM CLR 27/14 A3000 RMK AO2",
      "metarTime": "2026-06-14T18:00:00.000Z",
      "taf": "",
      "tafTime": ""
    },
    "KRAL": {
      "name": "Riverside Municipal",
      "metar": "METAR KRAL 141753Z 29005KT 10SM CLR 29/13 A2997 RMK AO2 SLP132 T02890133 10289 20172 53002",
      "metarTime": "2026-06-14T18:00:00.000Z",
      "taf": "",
      "tafTime": ""
    }
  }
}
