{
  "updated": "2026-04-18T22:15:00.000Z",
  "airports": {
    "KPOC": {
      "name": "Brackett Field",
      "metar": "METAR KPOC 182147Z 25012KT 10SM CLR 27/M01 A2993",
      "metarTime": "2026-04-18T22:00:00.000Z",
      "taf": "",
      "tafTime": ""
    },
    "KCCB": {
      "name": "Cable Airport",
      "metar": "METAR KCCB 182215Z AUTO 29004G13KT 10SM CLR 27/M17 A2992 RMK AO2",
      "metarTime": "2026-04-18T22:15:00.000Z",
      "taf": "",
      "tafTime": ""
    },
    "KRAL": {
      "name": "Riverside Municipal",
      "metar": "METAR KRAL 182153Z 27008G16KT 10SM CLR 30/M11 A2990 RMK AO2 SLP110 T03001106",
      "metarTime": "2026-04-18T22:00:00.000Z",
      "taf": "",
      "tafTime": ""
    }
  }
}
