{
  "updated": "2026-03-08T06:00:00.000Z",
  "airports": {
    "KPOC": {
      "name": "Brackett Field",
      "metar": "METAR KPOC 080447Z 04008G16KT 10SM CLR 20/M10 A3001 RMK LAST",
      "metarTime": "2026-03-08T05:00:00.000Z",
      "taf": "",
      "tafTime": ""
    },
    "KCCB": {
      "name": "Cable Airport",
      "metar": "METAR KCCB 080535Z AUTO 04015KT 10SM CLR 20/M16 A2999 RMK AO2",
      "metarTime": "2026-03-08T05:35:00.000Z",
      "taf": "",
      "tafTime": ""
    },
    "KRAL": {
      "name": "Riverside Municipal",
      "metar": "METAR KRAL 080553Z AUTO 10SM CLR 19/M11 A3000 RMK AO2 SLP145 T01891106 10233 20189 53001",
      "metarTime": "2026-03-08T06:00:00.000Z",
      "taf": "",
      "tafTime": ""
    }
  }
}
