{
  "updated": "2026-04-23T23:15:00.000Z",
  "airports": {
    "KPOC": {
      "name": "Brackett Field",
      "metar": "METAR KPOC 232247Z 25008KT 10SM CLR 24/06 A2991",
      "metarTime": "2026-04-23T23:00:00.000Z",
      "taf": "",
      "tafTime": ""
    },
    "KCCB": {
      "name": "Cable Airport",
      "metar": "METAR KCCB 232315Z AUTO 24008G17KT 10SM CLR 24/04 A2989 RMK AO2",
      "metarTime": "2026-04-23T23:15:00.000Z",
      "taf": "",
      "tafTime": ""
    },
    "KRAL": {
      "name": "Riverside Municipal",
      "metar": "METAR KRAL 232253Z 27011G17KT 10SM CLR 26/07 A2988 RMK AO2 SLP105 T02560072",
      "metarTime": "2026-04-23T23:00:00.000Z",
      "taf": "",
      "tafTime": ""
    }
  }
}
