{
  "updated": "2026-03-27T19:35:00.000Z",
  "airports": {
    "KPOC": {
      "name": "Brackett Field",
      "metar": "METAR KPOC 271847Z 25009KT 7SM CLR 26/15 A2998",
      "metarTime": "2026-03-27T19:00:00.000Z",
      "taf": "",
      "tafTime": ""
    },
    "KCCB": {
      "name": "Cable Airport",
      "metar": "METAR KCCB 271935Z AUTO 22009KT 6SM HZ CLR 28/10 A2997 RMK AO2",
      "metarTime": "2026-03-27T19:35:00.000Z",
      "taf": "",
      "tafTime": ""
    },
    "KRAL": {
      "name": "Riverside Municipal",
      "metar": "METAR KRAL 271853Z 21003KT 10SM CLR 29/08 A2995 RMK AO2 SLP126 T02940083",
      "metarTime": "2026-03-27T19:00:00.000Z",
      "taf": "",
      "tafTime": ""
    }
  }
}
