{
  "updated": "2026-07-10T20:00:00.000Z",
  "airports": {
    "KPOC": {
      "name": "Brackett Field",
      "metar": "METAR KPOC 101947Z 26011KT 10SM CLR 28/17 A2992",
      "metarTime": "2026-07-10T20:00:00.000Z",
      "taf": "",
      "tafTime": ""
    },
    "KCCB": {
      "name": "Cable Airport",
      "metar": "METAR KCCB 101935Z AUTO 27012KT 9SM CLR 29/15 A2992 RMK AO2",
      "metarTime": "2026-07-10T19:35:00.000Z",
      "taf": "",
      "tafTime": ""
    },
    "KRAL": {
      "name": "Riverside Municipal",
      "metar": "METAR KRAL 101953Z 29007G18KT 10SM CLR 33/15 A2988 RMK AO2 SLP100 T03280150",
      "metarTime": "2026-07-10T20:00:00.000Z",
      "taf": "",
      "tafTime": ""
    }
  }
}
