{
  "updated": "2026-05-27T00:00:00.000Z",
  "airports": {
    "KPOC": {
      "name": "Brackett Field",
      "metar": "METAR KPOC 262347Z 24010G20KT 10SM SCT045 18/09 A2979",
      "metarTime": "2026-05-27T00:00:00.000Z",
      "taf": "",
      "tafTime": ""
    },
    "KCCB": {
      "name": "Cable Airport",
      "metar": "METAR KCCB 262335Z AUTO 24011G18KT 10SM SCT036 SCT042 19/09 A2978 RMK AO2",
      "metarTime": "2026-05-26T23:35:00.000Z",
      "taf": "",
      "tafTime": ""
    },
    "KRAL": {
      "name": "Riverside Municipal",
      "metar": "METAR KRAL 262253Z 30007KT 10SM CLR 22/09 A2977 RMK AO2 SLP067 T02220089",
      "metarTime": "2026-05-26T23:00:00.000Z",
      "taf": "",
      "tafTime": ""
    }
  }
}
