{
  "updated": "2026-02-14T03:35:00.000Z",
  "airports": {
    "KPOC": {
      "name": "Brackett Field",
      "metar": "",
      "metarTime": "",
      "taf": "",
      "tafTime": ""
    },
    "KCCB": {
      "name": "Cable Airport",
      "metar": "METAR KCCB 140335Z AUTO 24005KT 10SM CLR 15/06 A3003 RMK AO2",
      "metarTime": "2026-02-14T03:35:00.000Z",
      "taf": "",
      "tafTime": ""
    },
    "KRAL": {
      "name": "Riverside Municipal",
      "metar": "METAR KRAL 140253Z 28004KT 10SM CLR 16/07 A3002 RMK AO2 SLP156 T01560072 53014",
      "metarTime": "2026-02-14T03:00:00.000Z",
      "taf": "",
      "tafTime": ""
    }
  }
}
