{
  "updated": "2026-04-20T02:15:00.000Z",
  "airports": {
    "KPOC": {
      "name": "Brackett Field",
      "metar": "METAR KPOC 200147Z 21010KT 10SM CLR 23/06 A2989",
      "metarTime": "2026-04-20T02:00:00.000Z",
      "taf": "",
      "tafTime": ""
    },
    "KCCB": {
      "name": "Cable Airport",
      "metar": "METAR KCCB 200215Z AUTO 24008KT 10SM CLR 22/04 A2988 RMK AO2",
      "metarTime": "2026-04-20T02:15:00.000Z",
      "taf": "",
      "tafTime": ""
    },
    "KRAL": {
      "name": "Riverside Municipal",
      "metar": "METAR KRAL 200153Z 28009G16KT 10SM CLR 22/09 A2987 RMK AO2 SLP101 T02220089",
      "metarTime": "2026-04-20T02:00:00.000Z",
      "taf": "",
      "tafTime": ""
    }
  }
}
