{
  "updated": "2026-04-14T16:00:00.000Z",
  "airports": {
    "KPOC": {
      "name": "Brackett Field",
      "metar": "METAR KPOC 141547Z 15004KT 10SM CLR 13/08 A3012",
      "metarTime": "2026-04-14T16:00:00.000Z",
      "taf": "",
      "tafTime": ""
    },
    "KCCB": {
      "name": "Cable Airport",
      "metar": "METAR KCCB 141555Z AUTO 21004KT 10SM CLR 13/08 A3011 RMK AO2",
      "metarTime": "2026-04-14T16:00:00.000Z",
      "taf": "",
      "tafTime": ""
    },
    "KRAL": {
      "name": "Riverside Municipal",
      "metar": "METAR KRAL 141553Z 04003KT 10SM CLR 14/08 A3012 RMK AO2 SLP189 T01390078",
      "metarTime": "2026-04-14T16:00:00.000Z",
      "taf": "",
      "tafTime": ""
    }
  }
}
