{
  "updated": "2026-06-20T00:00:00.000Z",
  "airports": {
    "KPOC": {
      "name": "Brackett Field",
      "metar": "METAR KPOC 192347Z 28010KT 10SM CLR 24/13 A2997",
      "metarTime": "2026-06-20T00:00:00.000Z",
      "taf": "",
      "tafTime": ""
    },
    "KCCB": {
      "name": "Cable Airport",
      "metar": "METAR KCCB 192335Z AUTO 28010G17KT 9SM CLR 24/11 A2997 RMK AO2",
      "metarTime": "2026-06-19T23:35:00.000Z",
      "taf": "",
      "tafTime": ""
    },
    "KRAL": {
      "name": "Riverside Municipal",
      "metar": "METAR KRAL 192353Z 27013G21KT 10SM CLR 27/12 A2994 RMK AO2 SLP123 T02720122 10283 20200 56014",
      "metarTime": "2026-06-20T00:00:00.000Z",
      "taf": "",
      "tafTime": ""
    }
  }
}
