{
  "updated": "2026-02-24T06:15:00.000Z",
  "airports": {
    "KPOC": {
      "name": "Brackett Field",
      "metar": "",
      "metarTime": "",
      "taf": "",
      "tafTime": ""
    },
    "KCCB": {
      "name": "Cable Airport",
      "metar": "METAR KCCB 240615Z AUTO 05006KT 10SM CLR 19/M00 A3013 RMK AO2",
      "metarTime": "2026-02-24T06:15:00.000Z",
      "taf": "",
      "tafTime": ""
    },
    "KRAL": {
      "name": "Riverside Municipal",
      "metar": "METAR KRAL 240553Z AUTO 08003KT 10SM CLR 16/07 A3013 RMK AO2 SLP190 T01610072 10267 20161 51011",
      "metarTime": "2026-02-24T06:00:00.000Z",
      "taf": "",
      "tafTime": ""
    }
  }
}
