{
  "updated": "2026-04-20T21:15:00.000Z",
  "airports": {
    "KPOC": {
      "name": "Brackett Field",
      "metar": "METAR KPOC 202047Z 25019KT 10SM CLR 24/06 A2999",
      "metarTime": "2026-04-20T21:00:00.000Z",
      "taf": "",
      "tafTime": ""
    },
    "KCCB": {
      "name": "Cable Airport",
      "metar": "METAR KCCB 202115Z AUTO 27010KT 10SM CLR 24/04 A2998 RMK AO2",
      "metarTime": "2026-04-20T21:15:00.000Z",
      "taf": "",
      "tafTime": ""
    },
    "KRAL": {
      "name": "Riverside Municipal",
      "metar": "METAR KRAL 202053Z 29007KT 280V340 10SM CLR 27/08 A2996 RMK AO2 SLP131 T02670083 58014",
      "metarTime": "2026-04-20T21:00:00.000Z",
      "taf": "",
      "tafTime": ""
    }
  }
}
