{
  "updated": "2026-03-03T21:15:00.000Z",
  "airports": {
    "KPOC": {
      "name": "Brackett Field",
      "metar": "METAR KPOC 032047Z 23007KT 10SM CLR 21/09 A3003",
      "metarTime": "2026-03-03T21:00:00.000Z",
      "taf": "",
      "tafTime": ""
    },
    "KCCB": {
      "name": "Cable Airport",
      "metar": "METAR KCCB 032115Z AUTO 27006KT 10SM CLR 21/07 A3001 RMK AO2",
      "metarTime": "2026-03-03T21:15:00.000Z",
      "taf": "",
      "tafTime": ""
    },
    "KRAL": {
      "name": "Riverside Municipal",
      "metar": "METAR KRAL 032053Z 28004KT 10SM CLR 22/09 A3001 RMK AO2 SLP150 T02220094 58014",
      "metarTime": "2026-03-03T21:00:00.000Z",
      "taf": "",
      "tafTime": ""
    }
  }
}
