{
  "updated": "2026-02-03T11:35:00.000Z",
  "airports": {
    "KPOC": {
      "name": "Brackett Field",
      "metar": "",
      "metarTime": "",
      "taf": "",
      "tafTime": ""
    },
    "KCCB": {
      "name": "Cable Airport",
      "metar": "METAR KCCB 031135Z AUTO 36005KT 10SM CLR 14/01 A3018 RMK AO2",
      "metarTime": "2026-02-03T11:35:00.000Z",
      "taf": "",
      "tafTime": ""
    },
    "KRAL": {
      "name": "Riverside Municipal",
      "metar": "METAR KRAL 031053Z AUTO 00000KT 10SM CLR 10/07 A3018 RMK AO2 SLP209 T01000067",
      "metarTime": "2026-02-03T11:00:00.000Z",
      "taf": "",
      "tafTime": ""
    }
  }
}
