{
  "updated": "2026-07-15T06:15:00.000Z",
  "airports": {
    "KPOC": {
      "name": "Brackett Field",
      "metar": "",
      "metarTime": "",
      "taf": "",
      "tafTime": ""
    },
    "KCCB": {
      "name": "Cable Airport",
      "metar": "METAR KCCB 150615Z AUTO 00000KT 10SM 24/14 A2996 RMK AO2",
      "metarTime": "2026-07-15T06:15:00.000Z",
      "taf": "",
      "tafTime": ""
    },
    "KRAL": {
      "name": "Riverside Municipal",
      "metar": "METAR KRAL 150553Z AUTO 28004KT 10SM CLR 25/14 A2994 RMK AO2 SLP120 T02500139 10361 20250 51019",
      "metarTime": "2026-07-15T06:00:00.000Z",
      "taf": "",
      "tafTime": ""
    }
  }
}
