{
  "updated": "2026-06-28T21:15:00.000Z",
  "airports": {
    "KPOC": {
      "name": "Brackett Field",
      "metar": "METAR KPOC 282047Z 24008KT 10SM BKN030 21/12 A2992",
      "metarTime": "2026-06-28T21:00:00.000Z",
      "taf": "",
      "tafTime": ""
    },
    "KCCB": {
      "name": "Cable Airport",
      "metar": "METAR KCCB 282115Z AUTO 26008G14KT 230V290 10SM SCT028 20/12 A2991 RMK AO2",
      "metarTime": "2026-06-28T21:15:00.000Z",
      "taf": "",
      "tafTime": ""
    },
    "KRAL": {
      "name": "Riverside Municipal",
      "metar": "METAR KRAL 282053Z 29008KT 260V320 10SM SCT045 24/11 A2988 RMK AO2 SLP103 T02440111 58015",
      "metarTime": "2026-06-28T21:00:00.000Z",
      "taf": "",
      "tafTime": ""
    }
  }
}
