{
  "updated": "2026-02-10T00:00:00.000Z",
  "airports": {
    "KPOC": {
      "name": "Brackett Field",
      "metar": "METAR KPOC 092347Z 25005KT 10SM CLR 24/04 A2994",
      "metarTime": "2026-02-10T00:00:00.000Z",
      "taf": "",
      "tafTime": ""
    },
    "KCCB": {
      "name": "Cable Airport",
      "metar": "METAR KCCB 092335Z AUTO 27003KT 10SM CLR 23/01 A2994 RMK AO2",
      "metarTime": "2026-02-09T23:35:00.000Z",
      "taf": "",
      "tafTime": ""
    },
    "KRAL": {
      "name": "Riverside Municipal",
      "metar": "METAR KRAL 092353Z 27008KT 10SM CLR 24/02 A2993 RMK AO2 SLP121 T02390022 10267 20200 56013 $",
      "metarTime": "2026-02-10T00:00:00.000Z",
      "taf": "",
      "tafTime": ""
    }
  }
}
