{
  "updated": "2026-06-27T20:15:00.000Z",
  "airports": {
    "KPOC": {
      "name": "Brackett Field",
      "metar": "METAR KPOC 271947Z 33003KT 10SM CLR 22/13 A2997",
      "metarTime": "2026-06-27T20:00:00.000Z",
      "taf": "",
      "tafTime": ""
    },
    "KCCB": {
      "name": "Cable Airport",
      "metar": "METAR KCCB 272015Z AUTO VRB06KT 10SM CLR 22/11 A2997 RMK AO2",
      "metarTime": "2026-06-27T20:15:00.000Z",
      "taf": "",
      "tafTime": ""
    },
    "KRAL": {
      "name": "Riverside Municipal",
      "metar": "METAR KRAL 271953Z VRB03KT 10SM CLR 25/12 A2994 RMK AO2 SLP125 T02500117",
      "metarTime": "2026-06-27T20:00:00.000Z",
      "taf": "",
      "tafTime": ""
    }
  }
}
