{
  "updated": "2026-03-29T06:35:00.000Z",
  "airports": {
    "KPOC": {
      "name": "Brackett Field",
      "metar": "",
      "metarTime": "",
      "taf": "",
      "tafTime": ""
    },
    "KCCB": {
      "name": "Cable Airport",
      "metar": "METAR KCCB 290635Z AUTO 06005KT 10SM 21/04 A2998 RMK AO2",
      "metarTime": "2026-03-29T06:35:00.000Z",
      "taf": "",
      "tafTime": ""
    },
    "KRAL": {
      "name": "Riverside Municipal",
      "metar": "METAR KRAL 290553Z AUTO 00000KT 10SM CLR 20/11 A2997 RMK AO2 SLP133 T02000111 10317 20194 50011",
      "metarTime": "2026-03-29T06:00:00.000Z",
      "taf": "",
      "tafTime": ""
    }
  }
}
