{
  "updated": "2026-02-03T21:00:00.000Z",
  "airports": {
    "KPOC": {
      "name": "Brackett Field",
      "metar": "METAR KPOC 032047Z 24006KT 10SM CLR 27/02 A3018",
      "metarTime": "2026-02-03T21:00:00.000Z",
      "taf": "",
      "tafTime": ""
    },
    "KCCB": {
      "name": "Cable Airport",
      "metar": "METAR KCCB 032055Z AUTO VRB05G10KT 10SM CLR 26/M04 A3018 RMK AO2",
      "metarTime": "2026-02-03T21:00:00.000Z",
      "taf": "",
      "tafTime": ""
    },
    "KRAL": {
      "name": "Riverside Municipal",
      "metar": "METAR KRAL 032053Z 01009G21KT 10SM CLR 29/M05 A3015 RMK AO2 SLP197 T02891050 58025",
      "metarTime": "2026-02-03T21:00:00.000Z",
      "taf": "",
      "tafTime": ""
    }
  }
}
