{
  "updated": "2026-02-22T15:00:00.000Z",
  "airports": {
    "KPOC": {
      "name": "Brackett Field",
      "metar": "METAR KPOC 221447Z 00000KT 10SM CLR 08/01 A3021",
      "metarTime": "2026-02-22T15:00:00.000Z",
      "taf": "",
      "tafTime": ""
    },
    "KCCB": {
      "name": "Cable Airport",
      "metar": "METAR KCCB 221435Z AUTO 00000KT 10SM CLR 09/M01 A3019 RMK AO2",
      "metarTime": "2026-02-22T14:35:00.000Z",
      "taf": "",
      "tafTime": ""
    },
    "KRAL": {
      "name": "Riverside Municipal",
      "metar": "METAR KRAL 221453Z 06004KT 10SM CLR 08/00 A3021 RMK AO2 SLP220 T00830000 53006 $",
      "metarTime": "2026-02-22T15:00:00.000Z",
      "taf": "",
      "tafTime": ""
    }
  }
}
