{
  "updated": "2026-05-17T20:00:00.000Z",
  "airports": {
    "KPOC": {
      "name": "Brackett Field",
      "metar": "METAR KPOC 171947Z 22005KT 7SM SCT019 OVC040 17/11 A2981",
      "metarTime": "2026-05-17T20:00:00.000Z",
      "taf": "",
      "tafTime": ""
    },
    "KCCB": {
      "name": "Cable Airport",
      "metar": "METAR KCCB 171935Z AUTO 27007KT 9SM OVC035 16/12 A2981 RMK AO2",
      "metarTime": "2026-05-17T19:35:00.000Z",
      "taf": "",
      "tafTime": ""
    },
    "KRAL": {
      "name": "Riverside Municipal",
      "metar": "METAR KRAL 171953Z 28008KT 10SM OVC050 21/10 A2979 RMK AO2 SLP074 T02110100",
      "metarTime": "2026-05-17T20:00:00.000Z",
      "taf": "",
      "tafTime": ""
    }
  }
}
