{
  "updated": "2026-02-21T11:00:00.000Z",
  "airports": {
    "KPOC": {
      "name": "Brackett Field",
      "metar": "",
      "metarTime": "",
      "taf": "",
      "tafTime": ""
    },
    "KCCB": {
      "name": "Cable Airport",
      "metar": "METAR KCCB 211055Z AUTO 06004KT 10SM CLR 07/00 A3009 RMK AO2",
      "metarTime": "2026-02-21T11:00:00.000Z",
      "taf": "",
      "tafTime": ""
    },
    "KRAL": {
      "name": "Riverside Municipal",
      "metar": "METAR KRAL 211053Z AUTO 06004KT 10SM CLR 04/02 A3011 RMK AO2 SLP190 T00440017 $",
      "metarTime": "2026-02-21T11:00:00.000Z",
      "taf": "",
      "tafTime": ""
    }
  }
}
