{
  "updated": "2026-03-16T01:00:00.000Z",
  "airports": {
    "KPOC": {
      "name": "Brackett Field",
      "metar": "METAR KPOC 160047Z 25007KT 10SM CLR 28/10 A2995",
      "metarTime": "2026-03-16T01:00:00.000Z",
      "taf": "",
      "tafTime": ""
    },
    "KCCB": {
      "name": "Cable Airport",
      "metar": "METAR KCCB 160055Z AUTO 27008KT 10SM CLR 28/07 A2996 RMK AO2",
      "metarTime": "2026-03-16T01:00:00.000Z",
      "taf": "",
      "tafTime": ""
    },
    "KRAL": {
      "name": "Riverside Municipal",
      "metar": "METAR KRAL 160053Z AUTO 27010KT 10SM CLR 28/10 A2992 RMK AO2 SLP119 T02830100",
      "metarTime": "2026-03-16T01:00:00.000Z",
      "taf": "",
      "tafTime": ""
    }
  }
}
