{
  "updated": "2026-02-25T14:00:00.000Z",
  "airports": {
    "KPOC": {
      "name": "Brackett Field",
      "metar": "",
      "metarTime": "",
      "taf": "",
      "tafTime": ""
    },
    "KCCB": {
      "name": "Cable Airport",
      "metar": "METAR KCCB 251355Z AUTO 00000KT 10SM CLR 15/04 A3003 RMK AO2",
      "metarTime": "2026-02-25T14:00:00.000Z",
      "taf": "",
      "tafTime": ""
    },
    "KRAL": {
      "name": "Riverside Municipal",
      "metar": "METAR KRAL 251353Z AUTO 04004KT 10SM CLR 12/07 A3003 RMK AO2 SLP158 T01170072",
      "metarTime": "2026-02-25T14:00:00.000Z",
      "taf": "",
      "tafTime": ""
    }
  }
}
