{
  "updated": "2026-05-20T10:00:00.000Z",
  "airports": {
    "KPOC": {
      "name": "Brackett Field",
      "metar": "",
      "metarTime": "",
      "taf": "",
      "tafTime": ""
    },
    "KCCB": {
      "name": "Cable Airport",
      "metar": "METAR KCCB 200935Z AUTO 05006KT 10SM CLR 20/M04 A2995 RMK AO2",
      "metarTime": "2026-05-20T09:35:00.000Z",
      "taf": "",
      "tafTime": ""
    },
    "KRAL": {
      "name": "Riverside Municipal",
      "metar": "METAR KRAL 200953Z AUTO 06005KT 10SM FU CLR 17/M01 A2994 RMK AO2 SLP124 T01721011",
      "metarTime": "2026-05-20T10:00:00.000Z",
      "taf": "",
      "tafTime": ""
    }
  }
}
