{
  "updated": "2026-03-04T18:00:00.000Z",
  "airports": {
    "KPOC": {
      "name": "Brackett Field",
      "metar": "METAR KPOC 041747Z 19005KT 10SM SCT005 16/12 A3006",
      "metarTime": "2026-03-04T18:00:00.000Z",
      "taf": "",
      "tafTime": ""
    },
    "KCCB": {
      "name": "Cable Airport",
      "metar": "METAR KCCB 041735Z AUTO VRB04KT 10SM CLR 16/10 A3004 RMK AO2",
      "metarTime": "2026-03-04T17:35:00.000Z",
      "taf": "",
      "tafTime": ""
    },
    "KRAL": {
      "name": "Riverside Municipal",
      "metar": "METAR KRAL 041753Z 26003KT 8SM CLR 17/10 A3004 RMK AO2 SLP162 T01670100 10167 20094 51006",
      "metarTime": "2026-03-04T18:00:00.000Z",
      "taf": "",
      "tafTime": ""
    }
  }
}
