{
  "updated": "2026-05-08T22:35:00.000Z",
  "airports": {
    "KPOC": {
      "name": "Brackett Field",
      "metar": "METAR KPOC 082147Z 25007KT 10SM CLR 25/14 A2996",
      "metarTime": "2026-05-08T22:00:00.000Z",
      "taf": "",
      "tafTime": ""
    },
    "KCCB": {
      "name": "Cable Airport",
      "metar": "METAR KCCB 082235Z AUTO 24008G14KT 210V270 10SM CLR 26/13 A2995 RMK AO2",
      "metarTime": "2026-05-08T22:35:00.000Z",
      "taf": "",
      "tafTime": ""
    },
    "KRAL": {
      "name": "Riverside Municipal",
      "metar": "METAR KRAL 082153Z 29007G18KT 260V330 10SM CLR 29/13 A2992 RMK AO2 SLP117 T02940133",
      "metarTime": "2026-05-08T22:00:00.000Z",
      "taf": "",
      "tafTime": ""
    }
  }
}
