{
  "updated": "2026-06-09T19:15:00.000Z",
  "airports": {
    "KPOC": {
      "name": "Brackett Field",
      "metar": "METAR KPOC 091847Z 23006KT 7SM CLR 24/14 A2992",
      "metarTime": "2026-06-09T19:00:00.000Z",
      "taf": "",
      "tafTime": ""
    },
    "KCCB": {
      "name": "Cable Airport",
      "metar": "METAR KCCB 091915Z AUTO VRB06KT 10SM CLR 24/11 A2991 RMK AO2",
      "metarTime": "2026-06-09T19:15:00.000Z",
      "taf": "",
      "tafTime": ""
    },
    "KRAL": {
      "name": "Riverside Municipal",
      "metar": "METAR KRAL 091853Z 27007KT 10SM CLR 25/12 A2990 RMK AO2 SLP108 T02500122",
      "metarTime": "2026-06-09T19:00:00.000Z",
      "taf": "",
      "tafTime": ""
    }
  }
}
