{
  "updated": "2026-05-17T05:35:00.000Z",
  "airports": {
    "KPOC": {
      "name": "Brackett Field",
      "metar": "",
      "metarTime": "",
      "taf": "",
      "tafTime": ""
    },
    "KCCB": {
      "name": "Cable Airport",
      "metar": "METAR KCCB 170535Z AUTO 26007KT 10SM OVC014 16/14 A2986 RMK AO2",
      "metarTime": "2026-05-17T05:35:00.000Z",
      "taf": "",
      "tafTime": ""
    },
    "KRAL": {
      "name": "Riverside Municipal",
      "metar": "SPECI KRAL 170527Z AUTO VRB03KT 10SM OVC029 17/12 A2986 RMK AO2 T01720117",
      "metarTime": "2026-05-17T05:27:00.000Z",
      "taf": "",
      "tafTime": ""
    }
  }
}
