{
  "updated": "2026-03-20T07:35:00.000Z",
  "airports": {
    "KPOC": {
      "name": "Brackett Field",
      "metar": "",
      "metarTime": "",
      "taf": "",
      "tafTime": ""
    },
    "KCCB": {
      "name": "Cable Airport",
      "metar": "METAR KCCB 200735Z AUTO 01003KT 10SM CLR 24/04 A3003 RMK AO2",
      "metarTime": "2026-03-20T07:35:00.000Z",
      "taf": "",
      "tafTime": ""
    },
    "KRAL": {
      "name": "Riverside Municipal",
      "metar": "METAR KRAL 200653Z AUTO 00000KT 10SM CLR 23/13 A3001 RMK AO2 SLP145 T02330133",
      "metarTime": "2026-03-20T07:00:00.000Z",
      "taf": "",
      "tafTime": ""
    }
  }
}
