{
  "updated": "2026-03-12T12:15:00.000Z",
  "airports": {
    "KPOC": {
      "name": "Brackett Field",
      "metar": "",
      "metarTime": "",
      "taf": "",
      "tafTime": ""
    },
    "KCCB": {
      "name": "Cable Airport",
      "metar": "METAR KCCB 121215Z AUTO 00000KT 10SM 17/07 A3021 RMK AO2",
      "metarTime": "2026-03-12T12:15:00.000Z",
      "taf": "",
      "tafTime": ""
    },
    "KRAL": {
      "name": "Riverside Municipal",
      "metar": "METAR KRAL 121153Z AUTO 07005KT 10SM CLR 13/08 A3020 RMK AO2 SLP212 T01280078 10183 20128 56008",
      "metarTime": "2026-03-12T12:00:00.000Z",
      "taf": "",
      "tafTime": ""
    }
  }
}
