{
  "updated": "2026-03-14T16:00:00.000Z",
  "airports": {
    "KPOC": {
      "name": "Brackett Field",
      "metar": "METAR KPOC 141547Z 00000KT 10SM CLR 17/05 A2996",
      "metarTime": "2026-03-14T16:00:00.000Z",
      "taf": "",
      "tafTime": ""
    },
    "KCCB": {
      "name": "Cable Airport",
      "metar": "METAR KCCB 141555Z AUTO 00000KT 10SM CLR 21/01 A2996 RMK AO2",
      "metarTime": "2026-03-14T16:00:00.000Z",
      "taf": "",
      "tafTime": ""
    },
    "KRAL": {
      "name": "Riverside Municipal",
      "metar": "METAR KRAL 141553Z 03003KT 10SM CLR 17/05 A2996 RMK AO2 SLP132 T01670050",
      "metarTime": "2026-03-14T16:00:00.000Z",
      "taf": "",
      "tafTime": ""
    }
  }
}
