{
  "updated": "2026-05-30T20:00:00.000Z",
  "airports": {
    "KPOC": {
      "name": "Brackett Field",
      "metar": "METAR KPOC 301947Z 26006KT 10SM CLR 24/10 A3000",
      "metarTime": "2026-05-30T20:00:00.000Z",
      "taf": "",
      "tafTime": ""
    },
    "KCCB": {
      "name": "Cable Airport",
      "metar": "METAR KCCB 301955Z AUTO 23009KT 10SM CLR 24/09 A2999 RMK AO2",
      "metarTime": "2026-05-30T20:00:00.000Z",
      "taf": "",
      "tafTime": ""
    },
    "KRAL": {
      "name": "Riverside Municipal",
      "metar": "METAR KRAL 301953Z VRB04KT 10SM CLR 26/09 A2997 RMK AO2 SLP135 T02560094",
      "metarTime": "2026-05-30T20:00:00.000Z",
      "taf": "",
      "tafTime": ""
    }
  }
}
