{
  "updated": "2026-02-10T16:35:00.000Z",
  "airports": {
    "KPOC": {
      "name": "Brackett Field",
      "metar": "METAR KPOC 101547Z 27003KT 10SM CLR 13/11 A2997",
      "metarTime": "2026-02-10T16:00:00.000Z",
      "taf": "",
      "tafTime": ""
    },
    "KCCB": {
      "name": "Cable Airport",
      "metar": "METAR KCCB 101635Z AUTO 28005KT 10SM CLR 13/12 A2997 RMK AO2",
      "metarTime": "2026-02-10T16:35:00.000Z",
      "taf": "",
      "tafTime": ""
    },
    "KRAL": {
      "name": "Riverside Municipal",
      "metar": "METAR KRAL 101553Z 00000KT 10SM CLR 12/07 A2997 RMK AO2 SLP137 T01220067",
      "metarTime": "2026-02-10T16:00:00.000Z",
      "taf": "",
      "tafTime": ""
    }
  }
}
