{
  "updated": "2026-02-15T19:00:00.000Z",
  "airports": {
    "KPOC": {
      "name": "Brackett Field",
      "metar": "METAR KPOC 151847Z 00000KT 7SM BKN020 14/09 A3004",
      "metarTime": "2026-02-15T19:00:00.000Z",
      "taf": "",
      "tafTime": ""
    },
    "KCCB": {
      "name": "Cable Airport",
      "metar": "METAR KCCB 151835Z AUTO VRB04KT 9SM FEW019 14/10 A3003 RMK AO2",
      "metarTime": "2026-02-15T18:35:00.000Z",
      "taf": "",
      "tafTime": ""
    },
    "KRAL": {
      "name": "Riverside Municipal",
      "metar": "METAR KRAL 151853Z 00000KT 10SM CLR 16/08 A3002 RMK AO2 SLP157 T01560078",
      "metarTime": "2026-02-15T19:00:00.000Z",
      "taf": "",
      "tafTime": ""
    }
  }
}
