{
  "updated": "2026-06-25T15:15:00.000Z",
  "airports": {
    "KPOC": {
      "name": "Brackett Field",
      "metar": "METAR KPOC 251447Z 00000KT 3SM BR OVC010 17/14 A2996",
      "metarTime": "2026-06-25T15:00:00.000Z",
      "taf": "",
      "tafTime": ""
    },
    "KCCB": {
      "name": "Cable Airport",
      "metar": "METAR KCCB 251515Z AUTO 07005KT 2 1/2SM BR SCT007 16/16 A2996 RMK AO2",
      "metarTime": "2026-06-25T15:15:00.000Z",
      "taf": "",
      "tafTime": ""
    },
    "KRAL": {
      "name": "Riverside Municipal",
      "metar": "METAR KRAL 251453Z 00000KT 5SM HZ OVC009 17/14 A2996 RMK AO2 SLP131 T01670139 53009",
      "metarTime": "2026-06-25T15:00:00.000Z",
      "taf": "",
      "tafTime": ""
    }
  }
}
