{
  "updated": "2026-02-21T10:00:00.000Z",
  "airports": {
    "KPOC": {
      "name": "Brackett Field",
      "metar": "",
      "metarTime": "",
      "taf": "",
      "tafTime": ""
    },
    "KCCB": {
      "name": "Cable Airport",
      "metar": "METAR KCCB 210955Z AUTO 07005KT 10SM CLR 06/00 A3010 RMK AO2",
      "metarTime": "2026-02-21T10:00:00.000Z",
      "taf": "",
      "tafTime": ""
    },
    "KRAL": {
      "name": "Riverside Municipal",
      "metar": "METAR KRAL 210953Z AUTO 00000KT 10SM CLR 05/02 A3013 RMK AO2 SLP194 T00500017 $",
      "metarTime": "2026-02-21T10:00:00.000Z",
      "taf": "",
      "tafTime": ""
    }
  }
}
