{
  "updated": "2026-03-04T21:00:00.000Z",
  "airports": {
    "KPOC": {
      "name": "Brackett Field",
      "metar": "",
      "metarTime": "",
      "taf": "",
      "tafTime": ""
    },
    "KCCB": {
      "name": "Cable Airport",
      "metar": "METAR KCCB 042055Z AUTO 26011G16KT 10SM CLR 19/10 A3000 RMK AO2",
      "metarTime": "2026-03-04T21:00:00.000Z",
      "taf": "",
      "tafTime": ""
    },
    "KRAL": {
      "name": "Riverside Municipal",
      "metar": "METAR KRAL 042053Z 27012G15KT 10SM CLR 21/11 A2998 RMK AO2 SLP140 T02110111 58021",
      "metarTime": "2026-03-04T21:00:00.000Z",
      "taf": "",
      "tafTime": ""
    }
  }
}
