{
  "updated": "2026-02-16T11:15:00.000Z",
  "airports": {
    "KPOC": {
      "name": "Brackett Field",
      "metar": "",
      "metarTime": "",
      "taf": "",
      "tafTime": ""
    },
    "KCCB": {
      "name": "Cable Airport",
      "metar": "METAR KCCB 161115Z AUTO 00000KT 10SM OVC039 11/08 A2989 RMK AO2",
      "metarTime": "2026-02-16T11:15:00.000Z",
      "taf": "",
      "tafTime": ""
    },
    "KRAL": {
      "name": "Riverside Municipal",
      "metar": "METAR KRAL 161053Z AUTO 00000KT 10SM SCT047 09/08 A2990 RMK AO2 SLP116 T00940078",
      "metarTime": "2026-02-16T11:00:00.000Z",
      "taf": "",
      "tafTime": ""
    }
  }
}
