{
  "updated": "2026-02-12T14:00:00.000Z",
  "airports": {
    "KPOC": {
      "name": "Brackett Field",
      "metar": "",
      "metarTime": "",
      "taf": "",
      "tafTime": ""
    },
    "KCCB": {
      "name": "Cable Airport",
      "metar": "METAR KCCB 121355Z AUTO 03003KT 10SM CLR 10/06 A3015 RMK AO2",
      "metarTime": "2026-02-12T14:00:00.000Z",
      "taf": "",
      "tafTime": ""
    },
    "KRAL": {
      "name": "Riverside Municipal",
      "metar": "METAR KRAL 121353Z AUTO 00000KT 10SM CLR 08/08 A3016 RMK AO2 SLP205 T00830078 $",
      "metarTime": "2026-02-12T14:00:00.000Z",
      "taf": "",
      "tafTime": ""
    }
  }
}
