{
  "updated": "2026-03-20T01:00:00.000Z",
  "airports": {
    "KPOC": {
      "name": "Brackett Field",
      "metar": "METAR KPOC 200047Z 25008KT 10SM CLR 35/09 A2997",
      "metarTime": "2026-03-20T01:00:00.000Z",
      "taf": "",
      "tafTime": ""
    },
    "KCCB": {
      "name": "Cable Airport",
      "metar": "METAR KCCB 200055Z AUTO 27009KT 10SM CLR 35/06 A2998 RMK AO2",
      "metarTime": "2026-03-20T01:00:00.000Z",
      "taf": "",
      "tafTime": ""
    },
    "KRAL": {
      "name": "Riverside Municipal",
      "metar": "METAR KRAL 200053Z AUTO 26010KT 10SM CLR 35/12 A2994 RMK AO2 SLP121 T03500122",
      "metarTime": "2026-03-20T01:00:00.000Z",
      "taf": "",
      "tafTime": ""
    }
  }
}
