{
  "updated": "2026-03-13T15:15:00.000Z",
  "airports": {
    "KPOC": {
      "name": "Brackett Field",
      "metar": "METAR KPOC 131447Z 10005KT 10SM CLR 16/02 A3002",
      "metarTime": "2026-03-13T15:00:00.000Z",
      "taf": "",
      "tafTime": ""
    },
    "KCCB": {
      "name": "Cable Airport",
      "metar": "METAR KCCB 131515Z AUTO 07005KT 10SM CLR 23/M05 A3003 RMK AO2",
      "metarTime": "2026-03-13T15:15:00.000Z",
      "taf": "",
      "tafTime": ""
    },
    "KRAL": {
      "name": "Riverside Municipal",
      "metar": "METAR KRAL 131453Z 06003KT 10SM CLR 15/01 A3002 RMK AO2 SLP151 T01500011 51006",
      "metarTime": "2026-03-13T15:00:00.000Z",
      "taf": "",
      "tafTime": ""
    }
  }
}
