{
  "updated": "2026-03-13T08:00:00.000Z",
  "airports": {
    "KPOC": {
      "name": "Brackett Field",
      "metar": "",
      "metarTime": "",
      "taf": "",
      "tafTime": ""
    },
    "KCCB": {
      "name": "Cable Airport",
      "metar": "METAR KCCB 130755Z AUTO 02006KT 10SM FEW017 FEW022 FEW029 24/M07 A3005 RMK AO2",
      "metarTime": "2026-03-13T08:00:00.000Z",
      "taf": "",
      "tafTime": ""
    },
    "KRAL": {
      "name": "Riverside Municipal",
      "metar": "METAR KRAL 130753Z AUTO 05004KT 10SM CLR 17/02 A3004 RMK AO2 SLP155 T01720022 403390111",
      "metarTime": "2026-03-13T08:00:00.000Z",
      "taf": "",
      "tafTime": ""
    }
  }
}
