{
  "updated": "2026-05-17T11:17:00.000Z",
  "airports": {
    "KPOC": {
      "name": "Brackett Field",
      "metar": "",
      "metarTime": "",
      "taf": "",
      "tafTime": ""
    },
    "KCCB": {
      "name": "Cable Airport",
      "metar": "METAR KCCB 171115Z AUTO 26008KT 8SM OVC009 14/14 A2981 RMK AO2",
      "metarTime": "2026-05-17T11:15:00.000Z",
      "taf": "",
      "tafTime": ""
    },
    "KRAL": {
      "name": "Riverside Municipal",
      "metar": "SPECI KRAL 171117Z AUTO VRB03KT 10SM BKN023 14/12 A2980 RMK AO2 T01440122",
      "metarTime": "2026-05-17T11:17:00.000Z",
      "taf": "",
      "tafTime": ""
    }
  }
}
