{
  "updated": "2026-07-07T06:15:00.000Z",
  "airports": {
    "KPOC": {
      "name": "Brackett Field",
      "metar": "",
      "metarTime": "",
      "taf": "",
      "tafTime": ""
    },
    "KCCB": {
      "name": "Cable Airport",
      "metar": "METAR KCCB 070615Z AUTO 00000KT 10SM 21/12 A2994 RMK AO2",
      "metarTime": "2026-07-07T06:15:00.000Z",
      "taf": "",
      "tafTime": ""
    },
    "KRAL": {
      "name": "Riverside Municipal",
      "metar": "METAR KRAL 070553Z AUTO 26004KT 10SM CLR 22/13 A2992 RMK AO2 SLP116 T02220128 10328 20222 51010",
      "metarTime": "2026-07-07T06:00:00.000Z",
      "taf": "",
      "tafTime": ""
    }
  }
}
