{
  "updated": "2026-02-09T05:35:00.000Z",
  "airports": {
    "KPOC": {
      "name": "Brackett Field",
      "metar": "",
      "metarTime": "",
      "taf": "",
      "tafTime": ""
    },
    "KCCB": {
      "name": "Cable Airport",
      "metar": "METAR KCCB 090535Z AUTO 05003KT 10SM CLR 19/M05 A3015 RMK AO2",
      "metarTime": "2026-02-09T05:35:00.000Z",
      "taf": "",
      "tafTime": ""
    },
    "KRAL": {
      "name": "Riverside Municipal",
      "metar": "METAR KRAL 090453Z AUTO 12003KT 10SM CLR 17/04 A3015 RMK AO2 SLP195 T01720044 $",
      "metarTime": "2026-02-09T05:00:00.000Z",
      "taf": "",
      "tafTime": ""
    }
  }
}
