{
  "updated": "2026-07-11T22:15:00.000Z",
  "airports": {
    "KPOC": {
      "name": "Brackett Field",
      "metar": "METAR KPOC 112147Z 24011KT 10SM CLR 30/14 A2992",
      "metarTime": "2026-07-11T22:00:00.000Z",
      "taf": "",
      "tafTime": ""
    },
    "KCCB": {
      "name": "Cable Airport",
      "metar": "METAR KCCB 112215Z AUTO 28011KT 10SM CLR 31/12 A2992 RMK AO2",
      "metarTime": "2026-07-11T22:15:00.000Z",
      "taf": "",
      "tafTime": ""
    },
    "KRAL": {
      "name": "Riverside Municipal",
      "metar": "METAR KRAL 112153Z COR 28007G18KT 10SM CLR 33/13 A2989 RMK AO2 SLP105 T03330128",
      "metarTime": "2026-07-11T22:00:00.000Z",
      "taf": "",
      "tafTime": ""
    }
  }
}
