{
  "updated": "2026-02-24T18:00:00.000Z",
  "airports": {
    "KPOC": {
      "name": "Brackett Field",
      "metar": "METAR KPOC 241747Z VRB05KT 10SM CLR 20/06 A3010",
      "metarTime": "2026-02-24T18:00:00.000Z",
      "taf": "",
      "tafTime": ""
    },
    "KCCB": {
      "name": "Cable Airport",
      "metar": "METAR KCCB 241735Z AUTO 00000KT 10SM CLR 21/01 A3009 RMK AO2",
      "metarTime": "2026-02-24T17:35:00.000Z",
      "taf": "",
      "tafTime": ""
    },
    "KRAL": {
      "name": "Riverside Municipal",
      "metar": "METAR KRAL 241653Z 06005KT 10SM CLR 17/06 A3009 RMK AO2 SLP177 T01720061",
      "metarTime": "2026-02-24T17:00:00.000Z",
      "taf": "",
      "tafTime": ""
    }
  }
}
