{
  "updated": "2026-04-01T09:00:00.000Z",
  "airports": {
    "KPOC": {
      "name": "Brackett Field",
      "metar": "",
      "metarTime": "",
      "taf": "",
      "tafTime": ""
    },
    "KCCB": {
      "name": "Cable Airport",
      "metar": "METAR KCCB 010855Z AUTO 29004G10KT 2 1/2SM +RA FEW003 BKN029 OVC055 14/14 A2994 RMK AO2 P0010",
      "metarTime": "2026-04-01T09:00:00.000Z",
      "taf": "",
      "tafTime": ""
    },
    "KRAL": {
      "name": "Riverside Municipal",
      "metar": "METAR KRAL 010853Z AUTO 25007KT 10SM FEW009 BKN060 OVC080 16/14 A2994 RMK AO2 RAE24 SLP125 P0001 60005 T01610144 50001",
      "metarTime": "2026-04-01T09:00:00.000Z",
      "taf": "",
      "tafTime": ""
    }
  }
}
