{
  "updated": "2026-07-19T09:15:00.000Z",
  "airports": {
    "KPOC": {
      "name": "Brackett Field",
      "metar": "",
      "metarTime": "",
      "taf": "",
      "tafTime": ""
    },
    "KCCB": {
      "name": "Cable Airport",
      "metar": "METAR KCCB 190915Z AUTO 26005KT 10SM 21/19 A3001 RMK AO2",
      "metarTime": "2026-07-19T09:15:00.000Z",
      "taf": "",
      "tafTime": ""
    },
    "KRAL": {
      "name": "Riverside Municipal",
      "metar": "METAR KRAL 190853Z AUTO 10SM CLR 22/17 A3000 RMK AO2 SLP140 T02170172 53004",
      "metarTime": "2026-07-19T09:00:00.000Z",
      "taf": "",
      "tafTime": ""
    }
  }
}
