{
  "updated": "2026-03-14T12:15:00.000Z",
  "airports": {
    "KPOC": {
      "name": "Brackett Field",
      "metar": "",
      "metarTime": "",
      "taf": "",
      "tafTime": ""
    },
    "KCCB": {
      "name": "Cable Airport",
      "metar": "METAR KCCB 141215Z AUTO 36005KT 10SM CLR 18/M00 A2991 RMK AO2",
      "metarTime": "2026-03-14T12:15:00.000Z",
      "taf": "",
      "tafTime": ""
    },
    "KRAL": {
      "name": "Riverside Municipal",
      "metar": "METAR KRAL 141153Z AUTO 05003KT 10SM CLR 14/06 A2990 RMK AO2 SLP110 T01440056 10200 20139 56013",
      "metarTime": "2026-03-14T12:00:00.000Z",
      "taf": "",
      "tafTime": ""
    }
  }
}
