{
  "updated": "2026-02-13T04:00:00.000Z",
  "airports": {
    "KPOC": {
      "name": "Brackett Field",
      "metar": "METAR KPOC 130347Z 25004KT 10SM CLR 13/07 A3005",
      "metarTime": "2026-02-13T04:00:00.000Z",
      "taf": "",
      "tafTime": ""
    },
    "KCCB": {
      "name": "Cable Airport",
      "metar": "",
      "metarTime": "",
      "taf": "",
      "tafTime": ""
    },
    "KRAL": {
      "name": "Riverside Municipal",
      "metar": "METAR KRAL 130353Z 28005KT 10SM CLR 14/08 A3005 RMK AO2 SLP166 T01440083",
      "metarTime": "2026-02-13T04:00:00.000Z",
      "taf": "",
      "tafTime": ""
    }
  }
}
