{
  "updated": "2026-07-02T01:15:00.000Z",
  "airports": {
    "KPOC": {
      "name": "Brackett Field",
      "metar": "METAR KPOC 020047Z 26010KT 10SM CLR 23/13 A2991",
      "metarTime": "2026-07-02T01:00:00.000Z",
      "taf": "",
      "tafTime": ""
    },
    "KCCB": {
      "name": "Cable Airport",
      "metar": "METAR KCCB 020115Z AUTO 25011KT 10SM CLR 23/12 A2990 RMK AO2",
      "metarTime": "2026-07-02T01:15:00.000Z",
      "taf": "",
      "tafTime": ""
    },
    "KRAL": {
      "name": "Riverside Municipal",
      "metar": "METAR KRAL 020053Z 27011KT 10SM CLR 26/13 A2988 RMK AO2 SLP103 T02560128",
      "metarTime": "2026-07-02T01:00:00.000Z",
      "taf": "",
      "tafTime": ""
    }
  }
}
