{
  "updated": "2026-07-02T21:30:00.000Z",
  "airports": {
    "KPOC": {
      "name": "Brackett Field",
      "metar": "METAR KPOC 022047Z 26008KT 10SM CLR 25/13 A2998",
      "metarTime": "2026-07-02T21:00:00.000Z",
      "taf": "",
      "tafTime": ""
    },
    "KCCB": {
      "name": "Cable Airport",
      "metar": "METAR KCCB 022130Z AUTO 00000G13KT 10SM CLR 26/11 A2996 RMK AO2",
      "metarTime": "2026-07-02T21:30:00.000Z",
      "taf": "",
      "tafTime": ""
    },
    "KRAL": {
      "name": "Riverside Municipal",
      "metar": "METAR KRAL 022053Z 00000KT 10SM CLR 26/12 A2995 RMK AO2 SLP128 T02610117 58013",
      "metarTime": "2026-07-02T21:00:00.000Z",
      "taf": "",
      "tafTime": ""
    }
  }
}
