{
  "updated": "2026-02-10T22:15:00.000Z",
  "airports": {
    "KPOC": {
      "name": "Brackett Field",
      "metar": "METAR KPOC 102147Z 2207KT 10SM CLR 17/09 A2997",
      "metarTime": "2026-02-10T22:00:00.000Z",
      "taf": "",
      "tafTime": ""
    },
    "KCCB": {
      "name": "Cable Airport",
      "metar": "METAR KCCB 102215Z AUTO 23009KT 9SM CLR 16/08 A2996 RMK AO2",
      "metarTime": "2026-02-10T22:15:00.000Z",
      "taf": "",
      "tafTime": ""
    },
    "KRAL": {
      "name": "Riverside Municipal",
      "metar": "METAR KRAL 102153Z VRB03KT 10SM CLR 18/08 A2995 RMK AO2 SLP132 T01780078 $",
      "metarTime": "2026-02-10T22:00:00.000Z",
      "taf": "",
      "tafTime": ""
    }
  }
}
