{
  "updated": "2026-03-16T22:15:00.000Z",
  "airports": {
    "KPOC": {
      "name": "Brackett Field",
      "metar": "METAR KPOC 162147Z 25006KT 10SM CLR 33/04 A2995",
      "metarTime": "2026-03-16T22:00:00.000Z",
      "taf": "",
      "tafTime": ""
    },
    "KCCB": {
      "name": "Cable Airport",
      "metar": "METAR KCCB 162215Z AUTO 28008G14KT 10SM CLR 32/M01 A2995 RMK AO2",
      "metarTime": "2026-03-16T22:15:00.000Z",
      "taf": "",
      "tafTime": ""
    },
    "KRAL": {
      "name": "Riverside Municipal",
      "metar": "METAR KRAL 162153Z 36010G22KT 10SM CLR 35/00 A2991 RMK AO2 PK WND 36026/2122 SLP111 T03500000",
      "metarTime": "2026-03-16T22:00:00.000Z",
      "taf": "",
      "tafTime": ""
    }
  }
}
