{
  "updated": "2026-04-22T01:35:00.000Z",
  "airports": {
    "KPOC": {
      "name": "Brackett Field",
      "metar": "METAR KPOC 220047Z 30005KT 10SM OVC028 OVC042 17/11 A3005",
      "metarTime": "2026-04-22T01:00:00.000Z",
      "taf": "",
      "tafTime": ""
    },
    "KCCB": {
      "name": "Cable Airport",
      "metar": "METAR KCCB 220135Z AUTO 28006KT 10SM SCT027 BKN034 OVC041 17/11 A3004 RMK AO2",
      "metarTime": "2026-04-22T01:35:00.000Z",
      "taf": "",
      "tafTime": ""
    },
    "KRAL": {
      "name": "Riverside Municipal",
      "metar": "METAR KRAL 220053Z 27011KT 10SM SCT046 BKN055 BKN070 19/11 A3003 RMK AO2 SLP160 T01940106",
      "metarTime": "2026-04-22T01:00:00.000Z",
      "taf": "",
      "tafTime": ""
    }
  }
}
