{
  "updated": "2026-02-22T18:00:00.000Z",
  "airports": {
    "KPOC": {
      "name": "Brackett Field",
      "metar": "METAR KPOC 221747Z VRB05KT 10SM CLR 17/M01 A3025",
      "metarTime": "2026-02-22T18:00:00.000Z",
      "taf": "",
      "tafTime": ""
    },
    "KCCB": {
      "name": "Cable Airport",
      "metar": "METAR KCCB 221735Z AUTO 00000KT 10SM CLR 16/M03 A3023 RMK AO2",
      "metarTime": "2026-02-22T17:35:00.000Z",
      "taf": "",
      "tafTime": ""
    },
    "KRAL": {
      "name": "Riverside Municipal",
      "metar": "METAR KRAL 221753Z 07004KT 10SM CLR 19/M02 A3023 RMK AO2 SLP226 T01891017 10189 20067 50009 $",
      "metarTime": "2026-02-22T18:00:00.000Z",
      "taf": "",
      "tafTime": ""
    }
  }
}
