{
  "updated": "2026-02-21T20:35:00.000Z",
  "airports": {
    "KPOC": {
      "name": "Brackett Field",
      "metar": "METAR KPOC 211947Z 12008KT 10SM CLR 17/M02 A3018",
      "metarTime": "2026-02-21T20:00:00.000Z",
      "taf": "",
      "tafTime": ""
    },
    "KCCB": {
      "name": "Cable Airport",
      "metar": "METAR KCCB 212035Z AUTO VRB05G11KT 10SM CLR 18/M08 A3015 RMK AO2",
      "metarTime": "2026-02-21T20:35:00.000Z",
      "taf": "",
      "tafTime": ""
    },
    "KRAL": {
      "name": "Riverside Municipal",
      "metar": "METAR KRAL 211953Z AUTO VRB06KT 10SM CLR 18/M03 A3016 RMK AO2 SLP206 T01831033 $",
      "metarTime": "2026-02-21T20:00:00.000Z",
      "taf": "",
      "tafTime": ""
    }
  }
}
