{
  "updated": "2026-05-05T09:15:00.000Z",
  "airports": {
    "KPOC": {
      "name": "Brackett Field",
      "metar": "",
      "metarTime": "",
      "taf": "",
      "tafTime": ""
    },
    "KCCB": {
      "name": "Cable Airport",
      "metar": "METAR KCCB 050915Z AUTO 26005KT 10SM FEW011 BKN025 OVC029 11/11 A2994 RMK AO2",
      "metarTime": "2026-05-05T09:15:00.000Z",
      "taf": "",
      "tafTime": ""
    },
    "KRAL": {
      "name": "Riverside Municipal",
      "metar": "METAR KRAL 050853Z AUTO 00000KT 10SM BKN024 OVC044 13/09 A2995 RMK AO2 SLP128 T01330094 58007",
      "metarTime": "2026-05-05T09:00:00.000Z",
      "taf": "",
      "tafTime": ""
    }
  }
}
