{
  "updated": "2026-04-22T21:30:00.000Z",
  "airports": {
    "KPOC": {
      "name": "Brackett Field",
      "metar": "METAR KPOC 222047Z 25008KT 10SM CLR 20/04 A3010",
      "metarTime": "2026-04-22T21:00:00.000Z",
      "taf": "",
      "tafTime": ""
    },
    "KCCB": {
      "name": "Cable Airport",
      "metar": "METAR KCCB 222130Z AUTO 28011KT 10SM CLR 20/03 A3008 RMK AO2",
      "metarTime": "2026-04-22T21:30:00.000Z",
      "taf": "",
      "tafTime": ""
    },
    "KRAL": {
      "name": "Riverside Municipal",
      "metar": "METAR KRAL 222053Z 30008KT 10SM CLR 21/03 A3008 RMK AO2 SLP175 T02110033 58023",
      "metarTime": "2026-04-22T21:00:00.000Z",
      "taf": "",
      "tafTime": ""
    }
  }
}
