{
  "updated": "2026-06-09T11:30:00.000Z",
  "airports": {
    "KPOC": {
      "name": "Brackett Field",
      "metar": "",
      "metarTime": "",
      "taf": "",
      "tafTime": ""
    },
    "KCCB": {
      "name": "Cable Airport",
      "metar": "METAR KCCB 091130Z AUTO 00000KT 10SM CLR 15/13 A2988 RMK AO2",
      "metarTime": "2026-06-09T11:30:00.000Z",
      "taf": "",
      "tafTime": ""
    },
    "KRAL": {
      "name": "Riverside Municipal",
      "metar": "METAR KRAL 091053Z AUTO 26003KT 10SM CLR 16/13 A2989 RMK AO2 SLP106 T01560128",
      "metarTime": "2026-06-09T11:00:00.000Z",
      "taf": "",
      "tafTime": ""
    }
  }
}
