{
  "updated": "2026-03-09T18:10:00.000Z",
  "airports": {
    "KPOC": {
      "name": "Brackett Field",
      "metar": "METAR KPOC 091747Z 21006KT 10SM CLR 18/07 A2996",
      "metarTime": "2026-03-09T18:00:00.000Z",
      "taf": "",
      "tafTime": ""
    },
    "KCCB": {
      "name": "Cable Airport",
      "metar": "METAR KCCB 091810Z AUTO 23003KT 10SM CLR 17/05 A2994 RMK AO2",
      "metarTime": "2026-03-09T18:10:00.000Z",
      "taf": "",
      "tafTime": ""
    },
    "KRAL": {
      "name": "Riverside Municipal",
      "metar": "METAR KRAL 091753Z 26003KT 10SM CLR 18/06 A2995 RMK AO2 SLP128 T01830056 10183 20100 50014",
      "metarTime": "2026-03-09T18:00:00.000Z",
      "taf": "",
      "tafTime": ""
    }
  }
}
