{
  "updated": "2026-04-22T20:00:00.000Z",
  "airports": {
    "KPOC": {
      "name": "Brackett Field",
      "metar": "METAR KPOC 221947Z 23004KT 10SM FEW040 18/04 A3013",
      "metarTime": "2026-04-22T20:00:00.000Z",
      "taf": "",
      "tafTime": ""
    },
    "KCCB": {
      "name": "Cable Airport",
      "metar": "METAR KCCB 221955Z AUTO 24010KT 10SM FEW047 18/03 A3012 RMK AO2",
      "metarTime": "2026-04-22T20:00:00.000Z",
      "taf": "",
      "tafTime": ""
    },
    "KRAL": {
      "name": "Riverside Municipal",
      "metar": "METAR KRAL 221953Z 26004KT 10SM CLR 20/04 A3011 RMK AO2 SLP185 T02000039",
      "metarTime": "2026-04-22T20:00:00.000Z",
      "taf": "",
      "tafTime": ""
    }
  }
}
