{
  "updated": "2026-03-02T17:15:00.000Z",
  "airports": {
    "KPOC": {
      "name": "Brackett Field",
      "metar": "",
      "metarTime": "",
      "taf": "",
      "tafTime": ""
    },
    "KCCB": {
      "name": "Cable Airport",
      "metar": "METAR KCCB 021715Z AUTO 25004KT 10SM CLR 17/12 A3001 RMK AO2",
      "metarTime": "2026-03-02T17:15:00.000Z",
      "taf": "",
      "tafTime": ""
    },
    "KRAL": {
      "name": "Riverside Municipal",
      "metar": "METAR KRAL 021653Z VRB04KT 10SM CLR 17/12 A3000 RMK AO2 SLP147 T01670117",
      "metarTime": "2026-03-02T17:00:00.000Z",
      "taf": "",
      "tafTime": ""
    }
  }
}
