{
  "updated": "2026-06-14T20:00:00.000Z",
  "airports": {
    "KPOC": {
      "name": "Brackett Field",
      "metar": "METAR KPOC 141947Z 25012KT 10SM CLR 28/14 A2999",
      "metarTime": "2026-06-14T20:00:00.000Z",
      "taf": "",
      "tafTime": ""
    },
    "KCCB": {
      "name": "Cable Airport",
      "metar": "METAR KCCB 141955Z AUTO 25009G16KT 10SM CLR 29/12 A2999 RMK AO2",
      "metarTime": "2026-06-14T20:00:00.000Z",
      "taf": "",
      "tafTime": ""
    },
    "KRAL": {
      "name": "Riverside Municipal",
      "metar": "METAR KRAL 141953Z VRB05KT 10SM CLR 32/09 A2996 RMK AO2 SLP130 T03170094",
      "metarTime": "2026-06-14T20:00:00.000Z",
      "taf": "",
      "tafTime": ""
    }
  }
}
