{
  "updated": "2026-04-25T15:15:00.000Z",
  "airports": {
    "KPOC": {
      "name": "Brackett Field",
      "metar": "METAR KPOC 251447Z 00000KT 7SM SCT019 BKN046 14/10 A2992",
      "metarTime": "2026-04-25T15:00:00.000Z",
      "taf": "",
      "tafTime": ""
    },
    "KCCB": {
      "name": "Cable Airport",
      "metar": "METAR KCCB 251515Z AUTO 21006KT 10SM BKN015 BKN030 OVC040 14/11 A2991 RMK AO2",
      "metarTime": "2026-04-25T15:15:00.000Z",
      "taf": "",
      "tafTime": ""
    },
    "KRAL": {
      "name": "Riverside Municipal",
      "metar": "METAR KRAL 251453Z 00000KT 10SM BKN048 15/08 A2992 RMK AO2 SLP118 T01500083 53009",
      "metarTime": "2026-04-25T15:00:00.000Z",
      "taf": "",
      "tafTime": ""
    }
  }
}
