{
  "updated": "2026-02-18T09:15:00.000Z",
  "airports": {
    "KPOC": {
      "name": "Brackett Field",
      "metar": "",
      "metarTime": "",
      "taf": "",
      "tafTime": ""
    },
    "KCCB": {
      "name": "Cable Airport",
      "metar": "METAR KCCB 180915Z AUTO 24013G23KT 5SM BR BKN005 OVC008 10/10 A2985 RMK AO2",
      "metarTime": "2026-02-18T09:15:00.000Z",
      "taf": "",
      "tafTime": ""
    },
    "KRAL": {
      "name": "Riverside Municipal",
      "metar": "METAR KRAL 180853Z AUTO 23016G23KT 9SM -RA FEW024 BKN040 OVC050 11/08 A2989 RMK AO2 PK WND 22032/0822 SLP111 P0002 60002 T01060083 58025",
      "metarTime": "2026-02-18T09:00:00.000Z",
      "taf": "",
      "tafTime": ""
    }
  }
}
