{
  "updated": "2026-04-04T01:00:00.000Z",
  "airports": {
    "KPOC": {
      "name": "Brackett Field",
      "metar": "METAR KPOC 040047Z VRB05KT 10SM CLR 27/M06 A2998",
      "metarTime": "2026-04-04T01:00:00.000Z",
      "taf": "",
      "tafTime": ""
    },
    "KCCB": {
      "name": "Cable Airport",
      "metar": "METAR KCCB 040055Z AUTO 27005KT 10SM CLR 26/M01 A2998 RMK AO2",
      "metarTime": "2026-04-04T01:00:00.000Z",
      "taf": "",
      "tafTime": ""
    },
    "KRAL": {
      "name": "Riverside Municipal",
      "metar": "METAR KRAL 040053Z 02011G26KT 10SM CLR 24/M14 A2998 RMK AO2 PK WND 01030/0022 SLP140 T02441139",
      "metarTime": "2026-04-04T01:00:00.000Z",
      "taf": "",
      "tafTime": ""
    }
  }
}
