{
  "updated": "2026-06-25T18:00:00.000Z",
  "airports": {
    "KPOC": {
      "name": "Brackett Field",
      "metar": "METAR KPOC 251747Z VRB03KT 5SM CLR 21/14 A2997 HZ",
      "metarTime": "2026-06-25T18:00:00.000Z",
      "taf": "",
      "tafTime": ""
    },
    "KCCB": {
      "name": "Cable Airport",
      "metar": "METAR KCCB 251755Z AUTO VRB04KT 5SM HZ CLR 20/14 A2996 RMK AO2",
      "metarTime": "2026-06-25T18:00:00.000Z",
      "taf": "",
      "tafTime": ""
    },
    "KRAL": {
      "name": "Riverside Municipal",
      "metar": "METAR KRAL 251753Z 22003KT 5SM HZ CLR 22/14 A2996 RMK AO2 SLP131 T02170144 10217 20161 58000",
      "metarTime": "2026-06-25T18:00:00.000Z",
      "taf": "",
      "tafTime": ""
    }
  }
}
