{
  "updated": "2026-02-03T14:35:00.000Z",
  "airports": {
    "KPOC": {
      "name": "Brackett Field",
      "metar": "",
      "metarTime": "",
      "taf": "",
      "tafTime": ""
    },
    "KCCB": {
      "name": "Cable Airport",
      "metar": "METAR KCCB 031435Z AUTO 00000KT 10SM CLR 13/01 A3021 RMK AO2",
      "metarTime": "2026-02-03T14:35:00.000Z",
      "taf": "",
      "tafTime": ""
    },
    "KRAL": {
      "name": "Riverside Municipal",
      "metar": "METAR KRAL 031353Z AUTO 04006KT 10SM CLR 09/04 A3020 RMK AO2 SLP216 T00940044",
      "metarTime": "2026-02-03T14:00:00.000Z",
      "taf": "",
      "tafTime": ""
    }
  }
}
