{
  "updated": "2026-02-19T04:00:00.000Z",
  "airports": {
    "KPOC": {
      "name": "Brackett Field",
      "metar": "METAR KPOC 190347Z 25005KT 10SM SCT055 09/03 A3000",
      "metarTime": "2026-02-19T04:00:00.000Z",
      "taf": "",
      "tafTime": ""
    },
    "KCCB": {
      "name": "Cable Airport",
      "metar": "METAR KCCB 190335Z AUTO 25006KT 10SM OVC035 09/03 A2998 RMK AO2",
      "metarTime": "2026-02-19T03:35:00.000Z",
      "taf": "",
      "tafTime": ""
    },
    "KRAL": {
      "name": "Riverside Municipal",
      "metar": "METAR KRAL 190353Z 10SM CLR 08/03 A2999 RMK AO2 SLP149 T00830028 $",
      "metarTime": "2026-02-19T04:00:00.000Z",
      "taf": "",
      "tafTime": ""
    }
  }
}
