{
  "updated": "2026-04-18T12:15:00.000Z",
  "airports": {
    "KPOC": {
      "name": "Brackett Field",
      "metar": "",
      "metarTime": "",
      "taf": "",
      "tafTime": ""
    },
    "KCCB": {
      "name": "Cable Airport",
      "metar": "METAR KCCB 181215Z AUTO 00000KT 10SM 15/02 A2995 RMK AO2",
      "metarTime": "2026-04-18T12:15:00.000Z",
      "taf": "",
      "tafTime": ""
    },
    "KRAL": {
      "name": "Riverside Municipal",
      "metar": "METAR KRAL 181153Z AUTO 09003KT 10SM CLR 11/M04 A2995 RMK AO2 SLP129 T01061044 10178 20106 56007",
      "metarTime": "2026-04-18T12:00:00.000Z",
      "taf": "",
      "tafTime": ""
    }
  }
}
