{
  "updated": "2026-03-20T11:00:00.000Z",
  "airports": {
    "KPOC": {
      "name": "Brackett Field",
      "metar": "",
      "metarTime": "",
      "taf": "",
      "tafTime": ""
    },
    "KCCB": {
      "name": "Cable Airport",
      "metar": "METAR KCCB 201035Z AUTO 05004KT 10SM CLR 23/05 A3000 RMK AO2",
      "metarTime": "2026-03-20T10:35:00.000Z",
      "taf": "",
      "tafTime": ""
    },
    "KRAL": {
      "name": "Riverside Municipal",
      "metar": "METAR KRAL 201053Z AUTO 05004KT 10SM CLR 19/12 A2998 RMK AO2 SLP135 T01940122",
      "metarTime": "2026-03-20T11:00:00.000Z",
      "taf": "",
      "tafTime": ""
    }
  }
}
