{
  "updated": "2026-02-28T16:35:00.000Z",
  "airports": {
    "KPOC": {
      "name": "Brackett Field",
      "metar": "METAR KPOC 281547Z 00000KT 10SM CLR 19/09 A2996",
      "metarTime": "2026-02-28T16:00:00.000Z",
      "taf": "",
      "tafTime": ""
    },
    "KCCB": {
      "name": "Cable Airport",
      "metar": "METAR KCCB 281635Z AUTO 00000KT 10SM CLR 25/07 A2997 RMK AO2",
      "metarTime": "2026-02-28T16:35:00.000Z",
      "taf": "",
      "tafTime": ""
    },
    "KRAL": {
      "name": "Riverside Municipal",
      "metar": "METAR KRAL 281553Z 06004KT 10SM CLR 18/09 A2995 RMK AO2 SLP128 T01780089",
      "metarTime": "2026-02-28T16:00:00.000Z",
      "taf": "",
      "tafTime": ""
    }
  }
}
