{
  "updated": "2026-06-23T01:15:00.000Z",
  "airports": {
    "KPOC": {
      "name": "Brackett Field",
      "metar": "METAR KPOC 230047Z 26010KT 10SM CLR 28/13 A2992",
      "metarTime": "2026-06-23T01:00:00.000Z",
      "taf": "",
      "tafTime": ""
    },
    "KCCB": {
      "name": "Cable Airport",
      "metar": "METAR KCCB 230115Z AUTO 25010G18KT 230V290 10SM CLR 28/12 A2992 RMK AO2",
      "metarTime": "2026-06-23T01:15:00.000Z",
      "taf": "",
      "tafTime": ""
    },
    "KRAL": {
      "name": "Riverside Municipal",
      "metar": "METAR KRAL 230053Z 27011KT 10SM FU CLR 29/13 A2989 RMK AO2 SLP107 T02890133",
      "metarTime": "2026-06-23T01:00:00.000Z",
      "taf": "",
      "tafTime": ""
    }
  }
}
