{
  "updated": "2026-04-14T05:35:00.000Z",
  "airports": {
    "KPOC": {
      "name": "Brackett Field",
      "metar": "",
      "metarTime": "",
      "taf": "",
      "tafTime": ""
    },
    "KCCB": {
      "name": "Cable Airport",
      "metar": "METAR KCCB 140535Z AUTO 00000KT 10SM CLR 11/07 A3006 RMK AO2",
      "metarTime": "2026-04-14T05:35:00.000Z",
      "taf": "",
      "tafTime": ""
    },
    "KRAL": {
      "name": "Riverside Municipal",
      "metar": "METAR KRAL 140453Z AUTO 26005KT 10SM CLR 13/06 A3007 RMK AO2 SLP172 T01280061",
      "metarTime": "2026-04-14T05:00:00.000Z",
      "taf": "",
      "tafTime": ""
    }
  }
}
