{
  "updated": "2026-07-18T17:15:00.000Z",
  "airports": {
    "KPOC": {
      "name": "Brackett Field",
      "metar": "METAR KPOC 181647Z 30004KT 10SM CLR 26/17 A3003",
      "metarTime": "2026-07-18T17:00:00.000Z",
      "taf": "",
      "tafTime": ""
    },
    "KCCB": {
      "name": "Cable Airport",
      "metar": "METAR KCCB 181715Z AUTO 24004KT 10SM CLR 26/15 A3003 RMK AO2",
      "metarTime": "2026-07-18T17:15:00.000Z",
      "taf": "",
      "tafTime": ""
    },
    "KRAL": {
      "name": "Riverside Municipal",
      "metar": "METAR KRAL 181653Z 00000KT 10SM CLR 27/16 A3001 RMK AO2 SLP145 T02720156",
      "metarTime": "2026-07-18T17:00:00.000Z",
      "taf": "",
      "tafTime": ""
    }
  }
}
