{
  "updated": "2026-03-27T23:00:00.000Z",
  "airports": {
    "KPOC": {
      "name": "Brackett Field",
      "metar": "METAR KPOC 272247Z 25008KT 10SM CLR 29/12 A2993",
      "metarTime": "2026-03-27T23:00:00.000Z",
      "taf": "",
      "tafTime": ""
    },
    "KCCB": {
      "name": "Cable Airport",
      "metar": "METAR KCCB 272235Z AUTO 27008G14KT 10SM CLR 29/09 A2993 RMK AO2",
      "metarTime": "2026-03-27T22:35:00.000Z",
      "taf": "",
      "tafTime": ""
    },
    "KRAL": {
      "name": "Riverside Municipal",
      "metar": "METAR KRAL 272253Z 26012KT 10SM CLR 31/09 A2989 RMK AO2 SLP105 T03110094",
      "metarTime": "2026-03-27T23:00:00.000Z",
      "taf": "",
      "tafTime": ""
    }
  }
}
