{
  "updated": "2026-06-18T02:15:00.000Z",
  "airports": {
    "KPOC": {
      "name": "Brackett Field",
      "metar": "METAR KPOC 180147Z 22011KT 10SM CLR 23/13 A2991",
      "metarTime": "2026-06-18T02:00:00.000Z",
      "taf": "",
      "tafTime": ""
    },
    "KCCB": {
      "name": "Cable Airport",
      "metar": "METAR KCCB 180215Z AUTO 25012KT 10SM CLR 22/13 A2990 RMK AO2",
      "metarTime": "2026-06-18T02:15:00.000Z",
      "taf": "",
      "tafTime": ""
    },
    "KRAL": {
      "name": "Riverside Municipal",
      "metar": "METAR KRAL 180153Z 27011G19KT 10SM CLR 23/14 A2988 RMK AO2 SLP105 T02330139",
      "metarTime": "2026-06-18T02:00:00.000Z",
      "taf": "",
      "tafTime": ""
    }
  }
}
