{
  "updated": "2026-06-07T19:00:00.000Z",
  "airports": {
    "KPOC": {
      "name": "Brackett Field",
      "metar": "METAR KPOC 071847Z 25006KT 10SM CLR 22/12 A2985",
      "metarTime": "2026-06-07T19:00:00.000Z",
      "taf": "",
      "tafTime": ""
    },
    "KCCB": {
      "name": "Cable Airport",
      "metar": "METAR KCCB 071855Z AUTO 25007KT 220V290 10SM CLR 22/12 A2985 RMK AO2",
      "metarTime": "2026-06-07T19:00:00.000Z",
      "taf": "",
      "tafTime": ""
    },
    "KRAL": {
      "name": "Riverside Municipal",
      "metar": "METAR KRAL 071853Z 26006KT 10SM CLR 23/12 A2983 RMK AO2 SLP086 T02330122",
      "metarTime": "2026-06-07T19:00:00.000Z",
      "taf": "",
      "tafTime": ""
    }
  }
}
