{
  "updated": "2026-04-05T13:00:00.000Z",
  "airports": {
    "KPOC": {
      "name": "Brackett Field",
      "metar": "",
      "metarTime": "",
      "taf": "",
      "tafTime": ""
    },
    "KCCB": {
      "name": "Cable Airport",
      "metar": "METAR KCCB 051250Z AUTO 06003KT 10SM CLR 17/M07 A3000 RMK AO2",
      "metarTime": "2026-04-05T13:00:00.000Z",
      "taf": "",
      "tafTime": ""
    },
    "KRAL": {
      "name": "Riverside Municipal",
      "metar": "METAR KRAL 051253Z AUTO 05005KT 10SM CLR 13/M01 A3000 RMK AO2 SLP142 T01281011",
      "metarTime": "2026-04-05T13:00:00.000Z",
      "taf": "",
      "tafTime": ""
    }
  }
}
