{
  "updated": "2026-03-04T13:35:00.000Z",
  "airports": {
    "KPOC": {
      "name": "Brackett Field",
      "metar": "",
      "metarTime": "",
      "taf": "",
      "tafTime": ""
    },
    "KCCB": {
      "name": "Cable Airport",
      "metar": "METAR KCCB 041335Z AUTO 00000KT 10SM 12/09 A3000 RMK AO2",
      "metarTime": "2026-03-04T13:35:00.000Z",
      "taf": "",
      "tafTime": ""
    },
    "KRAL": {
      "name": "Riverside Municipal",
      "metar": "METAR KRAL 041253Z AUTO 03005KT 10SM CLR 11/08 A2999 RMK AO2 SLP145 T01060083",
      "metarTime": "2026-03-04T13:00:00.000Z",
      "taf": "",
      "tafTime": ""
    }
  }
}
