{
  "updated": "2026-07-08T17:00:00.000Z",
  "airports": {
    "KPOC": {
      "name": "Brackett Field",
      "metar": "METAR KPOC 081647Z 00000KT 10SM CLR 25/14 A2999",
      "metarTime": "2026-07-08T17:00:00.000Z",
      "taf": "",
      "tafTime": ""
    },
    "KCCB": {
      "name": "Cable Airport",
      "metar": "METAR KCCB 081655Z AUTO VRB03KT 10SM CLR 26/13 A2999 RMK AO2",
      "metarTime": "2026-07-08T17:00:00.000Z",
      "taf": "",
      "tafTime": ""
    },
    "KRAL": {
      "name": "Riverside Municipal",
      "metar": "METAR KRAL 081653Z 25004KT 10SM CLR 27/13 A2996 RMK AO2 SLP130 T02720133",
      "metarTime": "2026-07-08T17:00:00.000Z",
      "taf": "",
      "tafTime": ""
    }
  }
}
