{
  "updated": "2026-02-05T21:15:00.000Z",
  "airports": {
    "KPOC": {
      "name": "Brackett Field",
      "metar": "METAR KPOC 052047Z VRB06KT 10SM CLR 27/M03 A3006",
      "metarTime": "2026-02-05T21:00:00.000Z",
      "taf": "",
      "tafTime": ""
    },
    "KCCB": {
      "name": "Cable Airport",
      "metar": "METAR KCCB 052115Z AUTO 14005KT 10SM FEW120 25/M08 A3004 RMK AO2",
      "metarTime": "2026-02-05T21:15:00.000Z",
      "taf": "",
      "tafTime": ""
    },
    "KRAL": {
      "name": "Riverside Municipal",
      "metar": "METAR KRAL 052053Z 19006KT 10SM CLR 27/M04 A3003 RMK AO2 SLP155 T02721044 58022",
      "metarTime": "2026-02-05T21:00:00.000Z",
      "taf": "",
      "tafTime": ""
    }
  }
}
