{
  "updated": "2026-03-18T19:15:00.000Z",
  "airports": {
    "KPOC": {
      "name": "Brackett Field",
      "metar": "METAR KPOC 181847Z 00000KT 10SM CLR 32/06 A3007",
      "metarTime": "2026-03-18T19:00:00.000Z",
      "taf": "",
      "tafTime": ""
    },
    "KCCB": {
      "name": "Cable Airport",
      "metar": "METAR KCCB 181915Z AUTO 00000KT 10SM CLR 31/02 A3007 RMK AO2",
      "metarTime": "2026-03-18T19:15:00.000Z",
      "taf": "",
      "tafTime": ""
    },
    "KRAL": {
      "name": "Riverside Municipal",
      "metar": "METAR KRAL 181853Z VRB03KT 10SM CLR 33/06 A3004 RMK AO2 SLP153 T03330056",
      "metarTime": "2026-03-18T19:00:00.000Z",
      "taf": "",
      "tafTime": ""
    }
  }
}
