{
  "updated": "2026-03-30T10:35:00.000Z",
  "airports": {
    "KPOC": {
      "name": "Brackett Field",
      "metar": "",
      "metarTime": "",
      "taf": "",
      "tafTime": ""
    },
    "KCCB": {
      "name": "Cable Airport",
      "metar": "METAR KCCB 301035Z AUTO 02004KT 10SM CLR 19/M03 A2995 RMK AO2",
      "metarTime": "2026-03-30T10:35:00.000Z",
      "taf": "",
      "tafTime": ""
    },
    "KRAL": {
      "name": "Riverside Municipal",
      "metar": "METAR KRAL 300953Z AUTO 00000KT 10SM CLR 16/06 A2995 RMK AO2 SLP124 T01560056",
      "metarTime": "2026-03-30T10:00:00.000Z",
      "taf": "",
      "tafTime": ""
    }
  }
}
