{
  "updated": "2026-02-24T07:35:00.000Z",
  "airports": {
    "KPOC": {
      "name": "Brackett Field",
      "metar": "",
      "metarTime": "",
      "taf": "",
      "tafTime": ""
    },
    "KCCB": {
      "name": "Cable Airport",
      "metar": "METAR KCCB 240735Z AUTO 06005KT 10SM CLR 17/02 A3011 RMK AO2",
      "metarTime": "2026-02-24T07:35:00.000Z",
      "taf": "",
      "tafTime": ""
    },
    "KRAL": {
      "name": "Riverside Municipal",
      "metar": "METAR KRAL 240653Z AUTO 06004KT 10SM CLR 15/07 A3012 RMK AO2 SLP186 T01500072",
      "metarTime": "2026-02-24T07:00:00.000Z",
      "taf": "",
      "tafTime": ""
    }
  }
}
