{
  "updated": "2026-04-05T12:15:00.000Z",
  "airports": {
    "KPOC": {
      "name": "Brackett Field",
      "metar": "",
      "metarTime": "",
      "taf": "",
      "tafTime": ""
    },
    "KCCB": {
      "name": "Cable Airport",
      "metar": "METAR KCCB 051215Z AUTO 00000KT 10SM CLR 17/M07 A3000 RMK AO2",
      "metarTime": "2026-04-05T12:15:00.000Z",
      "taf": "",
      "tafTime": ""
    },
    "KRAL": {
      "name": "Riverside Municipal",
      "metar": "METAR KRAL 051153Z AUTO 00000KT 10SM CLR 12/01 A3000 RMK AO2 SLP144 T01220011 10189 20117 58009",
      "metarTime": "2026-04-05T12:00:00.000Z",
      "taf": "",
      "tafTime": ""
    }
  }
}
