{
  "updated": "2026-02-28T20:00:00.000Z",
  "airports": {
    "KPOC": {
      "name": "Brackett Field",
      "metar": "METAR KPOC 281947Z 00000KT 10SM CLR 29/03 A2996",
      "metarTime": "2026-02-28T20:00:00.000Z",
      "taf": "",
      "tafTime": ""
    },
    "KCCB": {
      "name": "Cable Airport",
      "metar": "METAR KCCB 281955Z AUTO 25005KT 10SM CLR 29/05 A2996 RMK AO2",
      "metarTime": "2026-02-28T20:00:00.000Z",
      "taf": "",
      "tafTime": ""
    },
    "KRAL": {
      "name": "Riverside Municipal",
      "metar": "METAR KRAL 281953Z 27004KT 10SM CLR 29/11 A2993 RMK AO2 SLP120 T02940106",
      "metarTime": "2026-02-28T20:00:00.000Z",
      "taf": "",
      "tafTime": ""
    }
  }
}
