{
  "updated": "2026-04-19T01:35:00.000Z",
  "airports": {
    "KPOC": {
      "name": "Brackett Field",
      "metar": "",
      "metarTime": "",
      "taf": "",
      "tafTime": ""
    },
    "KCCB": {
      "name": "Cable Airport",
      "metar": "METAR KCCB 190135Z AUTO 25011KT 10SM CLR 25/M03 A2991 RMK AO2",
      "metarTime": "2026-04-19T01:35:00.000Z",
      "taf": "",
      "tafTime": ""
    },
    "KRAL": {
      "name": "Riverside Municipal",
      "metar": "METAR KRAL 190053Z 26013KT 10SM CLR 27/01 A2988 RMK AO2 SLP104 T02670006",
      "metarTime": "2026-04-19T01:00:00.000Z",
      "taf": "",
      "tafTime": ""
    }
  }
}
