{
  "updated": "2026-06-18T07:15:00.000Z",
  "airports": {
    "KPOC": {
      "name": "Brackett Field",
      "metar": "",
      "metarTime": "",
      "taf": "",
      "tafTime": ""
    },
    "KCCB": {
      "name": "Cable Airport",
      "metar": "METAR KCCB 180715Z AUTO VRB04KT 10SM 16/16 A2994 RMK AO2",
      "metarTime": "2026-06-18T07:15:00.000Z",
      "taf": "",
      "tafTime": ""
    },
    "KRAL": {
      "name": "Riverside Municipal",
      "metar": "SPECI KRAL 180711Z AUTO 26003KT 10SM BKN016 16/14 A2994 RMK AO2 T01610139",
      "metarTime": "2026-06-18T07:11:00.000Z",
      "taf": "",
      "tafTime": ""
    }
  }
}
