{
  "updated": "2026-05-18T19:00:00.000Z",
  "airports": {
    "KPOC": {
      "name": "Brackett Field",
      "metar": "METAR KPOC 181847Z 26008KT 10SM CLR 22/09 A2989",
      "metarTime": "2026-05-18T19:00:00.000Z",
      "taf": "",
      "tafTime": ""
    },
    "KCCB": {
      "name": "Cable Airport",
      "metar": "METAR KCCB 181855Z AUTO 25006KT 10SM CLR 21/07 A2989 RMK AO2",
      "metarTime": "2026-05-18T19:00:00.000Z",
      "taf": "",
      "tafTime": ""
    },
    "KRAL": {
      "name": "Riverside Municipal",
      "metar": "METAR KRAL 181853Z 01010G21KT 10SM CLR 26/M07 A2986 RMK AO2 SLP097 T02611072",
      "metarTime": "2026-05-18T19:00:00.000Z",
      "taf": "",
      "tafTime": ""
    }
  }
}
