{
  "updated": "2026-03-29T12:15:00.000Z",
  "airports": {
    "KPOC": {
      "name": "Brackett Field",
      "metar": "",
      "metarTime": "",
      "taf": "",
      "tafTime": ""
    },
    "KCCB": {
      "name": "Cable Airport",
      "metar": "METAR KCCB 291215Z AUTO 05005KT 10SM 19/M11 A2990 RMK AO2",
      "metarTime": "2026-03-29T12:15:00.000Z",
      "taf": "",
      "tafTime": ""
    },
    "KRAL": {
      "name": "Riverside Municipal",
      "metar": "METAR KRAL 291153Z AUTO 07003KT 10SM CLR 16/08 A2991 RMK AO2 SLP111 T01560078 10206 20156 56014",
      "metarTime": "2026-03-29T12:00:00.000Z",
      "taf": "",
      "tafTime": ""
    }
  }
}
