{
  "updated": "2026-03-29T19:15:00.000Z",
  "airports": {
    "KPOC": {
      "name": "Brackett Field",
      "metar": "METAR KPOC 291847Z 10003KT 10SM CLR 29/M02 A2998",
      "metarTime": "2026-03-29T19:00:00.000Z",
      "taf": "",
      "tafTime": ""
    },
    "KCCB": {
      "name": "Cable Airport",
      "metar": "METAR KCCB 291915Z AUTO 26007KT 10SM CLR 29/M11 A2998 RMK AO2",
      "metarTime": "2026-03-29T19:15:00.000Z",
      "taf": "",
      "tafTime": ""
    },
    "KRAL": {
      "name": "Riverside Municipal",
      "metar": "METAR KRAL 291853Z 32003KT 10SM CLR 31/M06 A2995 RMK AO2 SLP126 T03111056",
      "metarTime": "2026-03-29T19:00:00.000Z",
      "taf": "",
      "tafTime": ""
    }
  }
}
