{
  "updated": "2026-04-06T16:00:00.000Z",
  "airports": {
    "KPOC": {
      "name": "Brackett Field",
      "metar": "METAR KPOC 061547Z 00000KT 10SM BKN060 18/08 A3006",
      "metarTime": "2026-04-06T16:00:00.000Z",
      "taf": "",
      "tafTime": ""
    },
    "KCCB": {
      "name": "Cable Airport",
      "metar": "METAR KCCB 061555Z AUTO 00000KT 10SM CLR 17/06 A3005 RMK AO2",
      "metarTime": "2026-04-06T16:00:00.000Z",
      "taf": "",
      "tafTime": ""
    },
    "KRAL": {
      "name": "Riverside Municipal",
      "metar": "METAR KRAL 061553Z 00000KT 10SM OVC110 18/06 A3004 RMK AO2 RAB32E44 SLP160 P0000 T01780056",
      "metarTime": "2026-04-06T16:00:00.000Z",
      "taf": "",
      "tafTime": ""
    }
  }
}
