{
  "updated": "2026-06-25T23:00:00.000Z",
  "airports": {
    "KPOC": {
      "name": "Brackett Field",
      "metar": "METAR KPOC 252247Z 24008KT 10SM CLR 28/12 A2989",
      "metarTime": "2026-06-25T23:00:00.000Z",
      "taf": "",
      "tafTime": ""
    },
    "KCCB": {
      "name": "Cable Airport",
      "metar": "METAR KCCB 252255Z AUTO 24009G14KT 10SM CLR 28/10 A2989 RMK AO2",
      "metarTime": "2026-06-25T23:00:00.000Z",
      "taf": "",
      "tafTime": ""
    },
    "KRAL": {
      "name": "Riverside Municipal",
      "metar": "METAR KRAL 252253Z 29007G16KT 10SM CLR 31/13 A2985 RMK AO2 SLP092 T03060128",
      "metarTime": "2026-06-25T23:00:00.000Z",
      "taf": "",
      "tafTime": ""
    }
  }
}
