{
  "updated": "2026-03-25T07:35:00.000Z",
  "airports": {
    "KPOC": {
      "name": "Brackett Field",
      "metar": "",
      "metarTime": "",
      "taf": "",
      "tafTime": ""
    },
    "KCCB": {
      "name": "Cable Airport",
      "metar": "METAR KCCB 250735Z AUTO 27005KT 7SM 16/16 A3001 RMK AO2",
      "metarTime": "2026-03-25T07:35:00.000Z",
      "taf": "",
      "tafTime": ""
    },
    "KRAL": {
      "name": "Riverside Municipal",
      "metar": "METAR KRAL 250653Z AUTO 29003KT 10SM CLR 18/14 A3001 RMK AO2 SLP148 T01780139",
      "metarTime": "2026-03-25T07:00:00.000Z",
      "taf": "",
      "tafTime": ""
    }
  }
}
