{
  "updated": "2026-04-14T17:15:00.000Z",
  "airports": {
    "KPOC": {
      "name": "Brackett Field",
      "metar": "METAR KPOC 141647Z VRB03KT 10SM SCT028 15/08 A3013",
      "metarTime": "2026-04-14T17:00:00.000Z",
      "taf": "",
      "tafTime": ""
    },
    "KCCB": {
      "name": "Cable Airport",
      "metar": "METAR KCCB 141715Z AUTO 00000KT 10SM CLR 14/07 A3012 RMK AO2",
      "metarTime": "2026-04-14T17:15:00.000Z",
      "taf": "",
      "tafTime": ""
    },
    "KRAL": {
      "name": "Riverside Municipal",
      "metar": "",
      "metarTime": "",
      "taf": "",
      "tafTime": ""
    }
  }
}
