{
  "updated": "2026-07-21T13:00:00.000Z",
  "airports": {
    "KPOC": {
      "name": "Brackett Field",
      "metar": "",
      "metarTime": "",
      "taf": "",
      "tafTime": ""
    },
    "KCCB": {
      "name": "Cable Airport",
      "metar": "METAR KCCB 211255Z AUTO 00000KT 10SM 21/14 A2999 RMK AO2",
      "metarTime": "2026-07-21T13:00:00.000Z",
      "taf": "",
      "tafTime": ""
    },
    "KRAL": {
      "name": "Riverside Municipal",
      "metar": "METAR KRAL 211253Z AUTO 00000KT 10SM CLR 21/16 A2998 RMK AO2 SLP135 T02110161",
      "metarTime": "2026-07-21T13:00:00.000Z",
      "taf": "",
      "tafTime": ""
    }
  }
}
