{
  "updated": "2026-04-15T14:15:00.000Z",
  "airports": {
    "KPOC": {
      "name": "Brackett Field",
      "metar": "METAR KPOC 151347Z 00000KT 9SM CLR 12/08 A3004",
      "metarTime": "2026-04-15T14:00:00.000Z",
      "taf": "",
      "tafTime": ""
    },
    "KCCB": {
      "name": "Cable Airport",
      "metar": "METAR KCCB 151415Z AUTO 00000KT 10SM CLR 13/08 A3002 RMK AO2",
      "metarTime": "2026-04-15T14:15:00.000Z",
      "taf": "",
      "tafTime": ""
    },
    "KRAL": {
      "name": "Riverside Municipal",
      "metar": "METAR KRAL 151353Z VRB03KT 10SM CLR 11/08 A3003 RMK AO2 SLP158 T01060083",
      "metarTime": "2026-04-15T14:00:00.000Z",
      "taf": "",
      "tafTime": ""
    }
  }
}
