{
  "updated": "2026-04-19T17:15:00.000Z",
  "airports": {
    "KPOC": {
      "name": "Brackett Field",
      "metar": "METAR KPOC 191647Z 25007KT 10SM CLR 19/08 A2994",
      "metarTime": "2026-04-19T17:00:00.000Z",
      "taf": "",
      "tafTime": ""
    },
    "KCCB": {
      "name": "Cable Airport",
      "metar": "METAR KCCB 191715Z AUTO 27007KT 10SM CLR 20/06 A2994 RMK AO2",
      "metarTime": "2026-04-19T17:15:00.000Z",
      "taf": "",
      "tafTime": ""
    },
    "KRAL": {
      "name": "Riverside Municipal",
      "metar": "METAR KRAL 191653Z VRB04KT 10SM CLR 21/08 A2993 RMK AO2 SLP120 T02060078",
      "metarTime": "2026-04-19T17:00:00.000Z",
      "taf": "",
      "tafTime": ""
    }
  }
}
