{
  "updated": "2026-03-12T22:00:00.000Z",
  "airports": {
    "KPOC": {
      "name": "Brackett Field",
      "metar": "METAR KPOC 122147Z 25003KT 10SM CLR 31/01 A3011",
      "metarTime": "2026-03-12T22:00:00.000Z",
      "taf": "",
      "tafTime": ""
    },
    "KCCB": {
      "name": "Cable Airport",
      "metar": "METAR KCCB 122155Z AUTO 29005KT 10SM CLR 31/M02 A3011 RMK AO2",
      "metarTime": "2026-03-12T22:00:00.000Z",
      "taf": "",
      "tafTime": ""
    },
    "KRAL": {
      "name": "Riverside Municipal",
      "metar": "METAR KRAL 122153Z 35009G19KT 10SM CLR 34/M02 A3007 RMK AO2 SLP168 T03391017",
      "metarTime": "2026-03-12T22:00:00.000Z",
      "taf": "",
      "tafTime": ""
    }
  }
}
