{
  "updated": "2026-07-16T14:00:00.000Z",
  "airports": {
    "KPOC": {
      "name": "Brackett Field",
      "metar": "METAR KPOC 161347Z 00000KT 10SM CLR 22/16 A2985",
      "metarTime": "2026-07-16T14:00:00.000Z",
      "taf": "",
      "tafTime": ""
    },
    "KCCB": {
      "name": "Cable Airport",
      "metar": "METAR KCCB 161325Z AUTO 00000KT 10SM 23/15 A2985 RMK AO2",
      "metarTime": "2026-07-16T13:25:00.000Z",
      "taf": "",
      "tafTime": ""
    },
    "KRAL": {
      "name": "Riverside Municipal",
      "metar": "",
      "metarTime": "",
      "taf": "",
      "tafTime": ""
    }
  }
}
