{
  "updated": "2026-03-04T20:35:00.000Z",
  "airports": {
    "KPOC": {
      "name": "Brackett Field",
      "metar": "",
      "metarTime": "",
      "taf": "",
      "tafTime": ""
    },
    "KCCB": {
      "name": "Cable Airport",
      "metar": "METAR KCCB 042035Z AUTO 24008KT 9SM CLR 19/10 A3000 RMK AO2",
      "metarTime": "2026-03-04T20:35:00.000Z",
      "taf": "",
      "tafTime": ""
    },
    "KRAL": {
      "name": "Riverside Municipal",
      "metar": "METAR KRAL 041953Z 00000KT 10SM CLR 21/10 A3000 RMK AO2 SLP148 T02060100",
      "metarTime": "2026-03-04T20:00:00.000Z",
      "taf": "",
      "tafTime": ""
    }
  }
}
