{
  "updated": "2026-07-01T07:00:00.000Z",
  "airports": {
    "KPOC": {
      "name": "Brackett Field",
      "metar": "",
      "metarTime": "",
      "taf": "",
      "tafTime": ""
    },
    "KCCB": {
      "name": "Cable Airport",
      "metar": "METAR KCCB 010635Z AUTO 26005KT 10SM 16/14 A2993 RMK AO2",
      "metarTime": "2026-07-01T06:35:00.000Z",
      "taf": "",
      "tafTime": ""
    },
    "KRAL": {
      "name": "Riverside Municipal",
      "metar": "METAR KRAL 010653Z AUTO 27004KT 10SM FEW040 17/13 A2993 RMK AO2 SLP120 T01720128",
      "metarTime": "2026-07-01T07:00:00.000Z",
      "taf": "",
      "tafTime": ""
    }
  }
}
