{
  "updated": "2026-04-30T22:35:00.000Z",
  "airports": {
    "KPOC": {
      "name": "Brackett Field",
      "metar": "METAR KPOC 302147Z 26014KT 10SM CLR 24/10 A2985",
      "metarTime": "2026-04-30T22:00:00.000Z",
      "taf": "",
      "tafTime": ""
    },
    "KCCB": {
      "name": "Cable Airport",
      "metar": "METAR KCCB 302235Z AUTO 25014G23KT 10SM CLR 23/11 A2984 RMK AO2",
      "metarTime": "2026-04-30T22:35:00.000Z",
      "taf": "",
      "tafTime": ""
    },
    "KRAL": {
      "name": "Riverside Municipal",
      "metar": "METAR KRAL 302153Z 29009G18KT 260V340 10SM CLR 26/11 A2982 RMK AO2 SLP086 T02560106",
      "metarTime": "2026-04-30T22:00:00.000Z",
      "taf": "",
      "tafTime": ""
    }
  }
}
