{
  "updated": "2026-06-14T21:35:00.000Z",
  "airports": {
    "KPOC": {
      "name": "Brackett Field",
      "metar": "METAR KPOC 142047Z 25010KT 10SM CLR 30/12 A2998",
      "metarTime": "2026-06-14T21:00:00.000Z",
      "taf": "",
      "tafTime": ""
    },
    "KCCB": {
      "name": "Cable Airport",
      "metar": "METAR KCCB 142135Z AUTO 26012G17KT 220V280 10SM CLR 31/10 A2998 RMK AO2",
      "metarTime": "2026-06-14T21:35:00.000Z",
      "taf": "",
      "tafTime": ""
    },
    "KRAL": {
      "name": "Riverside Municipal",
      "metar": "METAR KRAL 142053Z 29007KT 270V330 10SM CLR 33/11 A2995 RMK AO2 SLP125 T03280106 58006",
      "metarTime": "2026-06-14T21:00:00.000Z",
      "taf": "",
      "tafTime": ""
    }
  }
}
