{
  "updated": "2026-03-17T14:00:00.000Z",
  "airports": {
    "KPOC": {
      "name": "Brackett Field",
      "metar": "",
      "metarTime": "",
      "taf": "",
      "tafTime": ""
    },
    "KCCB": {
      "name": "Cable Airport",
      "metar": "METAR KCCB 171355Z AUTO 35004KT 10SM 21/02 A2997 RMK AO2",
      "metarTime": "2026-03-17T14:00:00.000Z",
      "taf": "",
      "tafTime": ""
    },
    "KRAL": {
      "name": "Riverside Municipal",
      "metar": "METAR KRAL 171353Z AUTO 04006KT 10SM CLR 18/04 A2995 RMK AO2 SLP126 T01830039",
      "metarTime": "2026-03-17T14:00:00.000Z",
      "taf": "",
      "tafTime": ""
    }
  }
}
