{
  "updated": "2026-04-11T19:00:00.000Z",
  "airports": {
    "KPOC": {
      "name": "Brackett Field",
      "metar": "METAR KPOC 111847Z 26006KT 10SM SCT042 18/07 A3003",
      "metarTime": "2026-04-11T19:00:00.000Z",
      "taf": "",
      "tafTime": ""
    },
    "KCCB": {
      "name": "Cable Airport",
      "metar": "METAR KCCB 111855Z AUTO 25006G13KT 10SM FEW043 19/06 A3002 RMK AO2",
      "metarTime": "2026-04-11T19:00:00.000Z",
      "taf": "",
      "tafTime": ""
    },
    "KRAL": {
      "name": "Riverside Municipal",
      "metar": "METAR KRAL 111853Z 27007KT 10SM FEW047 SCT055 21/08 A3001 RMK AO2 RAB44E45 SLP149 P0000 T02110078",
      "metarTime": "2026-04-11T19:00:00.000Z",
      "taf": "",
      "tafTime": ""
    }
  }
}
