{
  "updated": "2026-06-01T14:15:00.000Z",
  "airports": {
    "KPOC": {
      "name": "Brackett Field",
      "metar": "METAR KPOC 011347Z 24005KT 4SM HZ BKN008 15/13 A2996",
      "metarTime": "2026-06-01T14:00:00.000Z",
      "taf": "",
      "tafTime": ""
    },
    "KCCB": {
      "name": "Cable Airport",
      "metar": "METAR KCCB 011415Z AUTO 26005KT 6SM BR CLR 15/14 A2995 RMK AO2",
      "metarTime": "2026-06-01T14:15:00.000Z",
      "taf": "",
      "tafTime": ""
    },
    "KRAL": {
      "name": "Riverside Municipal",
      "metar": "METAR KRAL 011353Z AUTO VRB04KT 9SM CLR 15/13 A2995 RMK AO2 SLP129 T01500133",
      "metarTime": "2026-06-01T14:00:00.000Z",
      "taf": "",
      "tafTime": ""
    }
  }
}
