{
  "updated": "2026-05-04T23:35:00.000Z",
  "airports": {
    "KPOC": {
      "name": "Brackett Field",
      "metar": "METAR KPOC 042247Z 23012KT 10SM SCT050 BKN070 18/08 A2996",
      "metarTime": "2026-05-04T23:00:00.000Z",
      "taf": "",
      "tafTime": ""
    },
    "KCCB": {
      "name": "Cable Airport",
      "metar": "METAR KCCB 042335Z AUTO 24013G18KT 10SM OVC036 16/08 A2994 RMK AO2",
      "metarTime": "2026-05-04T23:35:00.000Z",
      "taf": "",
      "tafTime": ""
    },
    "KRAL": {
      "name": "Riverside Municipal",
      "metar": "METAR KRAL 042253Z 26013G21KT 10SM FEW055 OVC075 20/06 A2994 RMK AO2 SLP127 T02000061",
      "metarTime": "2026-05-04T23:00:00.000Z",
      "taf": "",
      "tafTime": ""
    }
  }
}
