{
  "updated": "2026-03-23T10:35:00.000Z",
  "airports": {
    "KPOC": {
      "name": "Brackett Field",
      "metar": "",
      "metarTime": "",
      "taf": "",
      "tafTime": ""
    },
    "KCCB": {
      "name": "Cable Airport",
      "metar": "METAR KCCB 231035Z AUTO 04003KT 10SM 19/09 A2990 RMK AO2",
      "metarTime": "2026-03-23T10:35:00.000Z",
      "taf": "",
      "tafTime": ""
    },
    "KRAL": {
      "name": "Riverside Municipal",
      "metar": "METAR KRAL 230953Z AUTO 00000KT 10SM CLR 17/12 A2990 RMK AO2 SLP109 T01670117",
      "metarTime": "2026-03-23T10:00:00.000Z",
      "taf": "",
      "tafTime": ""
    }
  }
}
