{
  "updated": "2026-02-16T16:15:00.000Z",
  "airports": {
    "KPOC": {
      "name": "Brackett Field",
      "metar": "METAR KPOC 161547Z 08009KT 10SM CLR 12/08 A2984",
      "metarTime": "2026-02-16T16:00:00.000Z",
      "taf": "",
      "tafTime": ""
    },
    "KCCB": {
      "name": "Cable Airport",
      "metar": "METAR KCCB 161615Z AUTO 07006KT 9SM BKN034 OVC045 11/09 A2983 RMK AO2",
      "metarTime": "2026-02-16T16:15:00.000Z",
      "taf": "",
      "tafTime": ""
    },
    "KRAL": {
      "name": "Riverside Municipal",
      "metar": "METAR KRAL 161553Z 00000KT 10SM FEW039 OVC085 12/08 A2984 RMK AO2 SLP096 T01170083",
      "metarTime": "2026-02-16T16:00:00.000Z",
      "taf": "",
      "tafTime": ""
    }
  }
}
