{
  "updated": "2026-04-11T13:35:00.000Z",
  "airports": {
    "KPOC": {
      "name": "Brackett Field",
      "metar": "",
      "metarTime": "",
      "taf": "",
      "tafTime": ""
    },
    "KCCB": {
      "name": "Cable Airport",
      "metar": "METAR KCCB 111335Z AUTO 24003KT 7SM 13/13 A2998 RMK AO2",
      "metarTime": "2026-04-11T13:35:00.000Z",
      "taf": "",
      "tafTime": ""
    },
    "KRAL": {
      "name": "Riverside Municipal",
      "metar": "METAR KRAL 111253Z AUTO 23004KT 10SM -RA FEW034 OVC046 15/12 A2998 RMK AO2 RAB43 SLP140 P0000 T01500117",
      "metarTime": "2026-04-11T13:00:00.000Z",
      "taf": "",
      "tafTime": ""
    }
  }
}
