{
  "updated": "2026-02-13T10:00:00.000Z",
  "airports": {
    "KPOC": {
      "name": "Brackett Field",
      "metar": "",
      "metarTime": "",
      "taf": "",
      "tafTime": ""
    },
    "KCCB": {
      "name": "Cable Airport",
      "metar": "",
      "metarTime": "",
      "taf": "",
      "tafTime": ""
    },
    "KRAL": {
      "name": "Riverside Municipal",
      "metar": "METAR KRAL 130953Z AUTO 10003KT 10SM CLR 11/08 A2999 RMK AO2 SLP143 T01110083",
      "metarTime": "2026-02-13T10:00:00.000Z",
      "taf": "",
      "tafTime": ""
    }
  }
}
