{
  "updated": "2026-03-19T06:00:00.000Z",
  "airports": {
    "KPOC": {
      "name": "Brackett Field",
      "metar": "",
      "metarTime": "",
      "taf": "",
      "tafTime": ""
    },
    "KCCB": {
      "name": "Cable Airport",
      "metar": "METAR KCCB 190550Z AUTO 09004KT 10SM 24/08 A3009 RMK AO2",
      "metarTime": "2026-03-19T06:00:00.000Z",
      "taf": "",
      "tafTime": ""
    },
    "KRAL": {
      "name": "Riverside Municipal",
      "metar": "METAR KRAL 190553Z AUTO 17003KT 10SM CLR 23/11 A3006 RMK AO2 SLP163 T02330106 10350 20228 51018",
      "metarTime": "2026-03-19T06:00:00.000Z",
      "taf": "",
      "tafTime": ""
    }
  }
}
