{
  "updated": "2026-02-19T01:00:00.000Z",
  "airports": {
    "KPOC": {
      "name": "Brackett Field",
      "metar": "METAR KPOC 190047Z 21006KT 10SM BKN050 12/02 A2997",
      "metarTime": "2026-02-19T01:00:00.000Z",
      "taf": "",
      "tafTime": ""
    },
    "KCCB": {
      "name": "Cable Airport",
      "metar": "METAR KCCB 190055Z AUTO 26009G14KT 10SM BKN060 OVC070 11/M00 A2995 RMK AO2",
      "metarTime": "2026-02-19T01:00:00.000Z",
      "taf": "",
      "tafTime": ""
    },
    "KRAL": {
      "name": "Riverside Municipal",
      "metar": "METAR KRAL 190053Z 24014G19KT 10SM SCT070 12/02 A2997 RMK AO2 SLP140 T01220017 $",
      "metarTime": "2026-02-19T01:00:00.000Z",
      "taf": "",
      "tafTime": ""
    }
  }
}
