{
  "updated": "2026-03-28T22:00:00.000Z",
  "airports": {
    "KPOC": {
      "name": "Brackett Field",
      "metar": "METAR KPOC 282147Z 26009G14KT 10SM CLR 28/10 A2996",
      "metarTime": "2026-03-28T22:00:00.000Z",
      "taf": "",
      "tafTime": ""
    },
    "KCCB": {
      "name": "Cable Airport",
      "metar": "METAR KCCB 282155Z AUTO 25008KT 10SM CLR 29/06 A2996 RMK AO2",
      "metarTime": "2026-03-28T22:00:00.000Z",
      "taf": "",
      "tafTime": ""
    },
    "KRAL": {
      "name": "Riverside Municipal",
      "metar": "METAR KRAL 282153Z VRB05KT 10SM CLR 32/M09 A2993 RMK AO2 SLP119 T03221089",
      "metarTime": "2026-03-28T22:00:00.000Z",
      "taf": "",
      "tafTime": ""
    }
  }
}
