{
  "updated": "2026-03-14T11:35:00.000Z",
  "airports": {
    "KPOC": {
      "name": "Brackett Field",
      "metar": "",
      "metarTime": "",
      "taf": "",
      "tafTime": ""
    },
    "KCCB": {
      "name": "Cable Airport",
      "metar": "METAR KCCB 141135Z AUTO 01005KT 10SM CLR 18/01 A2991 RMK AO2",
      "metarTime": "2026-03-14T11:35:00.000Z",
      "taf": "",
      "tafTime": ""
    },
    "KRAL": {
      "name": "Riverside Municipal",
      "metar": "METAR KRAL 141053Z AUTO 00000KT 10SM CLR 16/04 A2990 RMK AO2 SLP110 T01610044",
      "metarTime": "2026-03-14T11:00:00.000Z",
      "taf": "",
      "tafTime": ""
    }
  }
}
