{
  "updated": "2026-02-15T11:35:00.000Z",
  "airports": {
    "KPOC": {
      "name": "Brackett Field",
      "metar": "",
      "metarTime": "",
      "taf": "",
      "tafTime": ""
    },
    "KCCB": {
      "name": "Cable Airport",
      "metar": "METAR KCCB 151135Z AUTO 28005KT 9SM 11/11 A3002 RMK AO2",
      "metarTime": "2026-02-15T11:35:00.000Z",
      "taf": "",
      "tafTime": ""
    },
    "KRAL": {
      "name": "Riverside Municipal",
      "metar": "SPECI KRAL 151130Z AUTO 00000KT 10SM OVC016 11/09 A3003 RMK AO2 T01060089",
      "metarTime": "2026-02-15T11:30:00.000Z",
      "taf": "",
      "tafTime": ""
    }
  }
}
