{
  "updated": "2026-02-22T17:15:00.000Z",
  "airports": {
    "KPOC": {
      "name": "Brackett Field",
      "metar": "METAR KPOC 221647Z VRB05KT 10SM CLR 14/00 A3024",
      "metarTime": "2026-02-22T17:00:00.000Z",
      "taf": "",
      "tafTime": ""
    },
    "KCCB": {
      "name": "Cable Airport",
      "metar": "METAR KCCB 221715Z AUTO 00000KT 10SM CLR 15/M02 A3024 RMK AO2",
      "metarTime": "2026-02-22T17:15:00.000Z",
      "taf": "",
      "tafTime": ""
    },
    "KRAL": {
      "name": "Riverside Municipal",
      "metar": "METAR KRAL 221653Z 08003KT 10SM CLR 16/01 A3024 RMK AO2 SLP229 T01560006 $",
      "metarTime": "2026-02-22T17:00:00.000Z",
      "taf": "",
      "tafTime": ""
    }
  }
}
