{
  "updated": "2026-02-19T08:15:00.000Z",
  "airports": {
    "KPOC": {
      "name": "Brackett Field",
      "metar": "",
      "metarTime": "",
      "taf": "",
      "tafTime": ""
    },
    "KCCB": {
      "name": "Cable Airport",
      "metar": "METAR KCCB 190815Z AUTO 30003KT 10SM CLR 07/05 A3000 RMK AO2",
      "metarTime": "2026-02-19T08:15:00.000Z",
      "taf": "",
      "tafTime": ""
    },
    "KRAL": {
      "name": "Riverside Municipal",
      "metar": "METAR KRAL 190753Z AUTO 10003KT 10SM BKN045 07/03 A3002 RMK AO2 SLP158 T00720028 401610067 $",
      "metarTime": "2026-02-19T08:00:00.000Z",
      "taf": "",
      "tafTime": ""
    }
  }
}
