{
  "updated": "2026-03-08T08:35:00.000Z",
  "airports": {
    "KPOC": {
      "name": "Brackett Field",
      "metar": "",
      "metarTime": "",
      "taf": "",
      "tafTime": ""
    },
    "KCCB": {
      "name": "Cable Airport",
      "metar": "METAR KCCB 080835Z AUTO 04017G35KT 10SM CLR 21/M14 A2995 RMK AO2",
      "metarTime": "2026-03-08T08:35:00.000Z",
      "taf": "",
      "tafTime": ""
    },
    "KRAL": {
      "name": "Riverside Municipal",
      "metar": "METAR KRAL 080753Z AUTO VRB06KT 10SM CLR 18/M10 A2997 RMK AO2 SLP135 T01781100 402330144",
      "metarTime": "2026-03-08T08:00:00.000Z",
      "taf": "",
      "tafTime": ""
    }
  }
}
