{
  "updated": "2026-05-28T09:35:00.000Z",
  "airports": {
    "KPOC": {
      "name": "Brackett Field",
      "metar": "",
      "metarTime": "",
      "taf": "",
      "tafTime": ""
    },
    "KCCB": {
      "name": "Cable Airport",
      "metar": "METAR KCCB 280935Z AUTO 30005KT 10SM CLR 11/09 A2990 RMK AO2",
      "metarTime": "2026-05-28T09:35:00.000Z",
      "taf": "",
      "tafTime": ""
    },
    "KRAL": {
      "name": "Riverside Municipal",
      "metar": "METAR KRAL 280853Z AUTO 27003KT 10SM CLR 12/09 A2992 RMK AO2 SLP119 T01220094 58006",
      "metarTime": "2026-05-28T09:00:00.000Z",
      "taf": "",
      "tafTime": ""
    }
  }
}
