{
  "updated": "2026-03-10T23:00:00.000Z",
  "airports": {
    "KPOC": {
      "name": "Brackett Field",
      "metar": "METAR KPOC 102247Z 20006KT 10SM CLR 19/10 A3009",
      "metarTime": "2026-03-10T23:00:00.000Z",
      "taf": "",
      "tafTime": ""
    },
    "KCCB": {
      "name": "Cable Airport",
      "metar": "METAR KCCB 102255Z AUTO 27009G15KT 230V290 10SM SCT040 19/08 A3008 RMK AO2",
      "metarTime": "2026-03-10T23:00:00.000Z",
      "taf": "",
      "tafTime": ""
    },
    "KRAL": {
      "name": "Riverside Municipal",
      "metar": "METAR KRAL 102253Z 29006KT 10SM CLR 22/09 A3007 RMK AO2 SLP172 T02170089",
      "metarTime": "2026-03-10T23:00:00.000Z",
      "taf": "",
      "tafTime": ""
    }
  }
}
