{
  "updated": "2026-07-19T16:15:00.000Z",
  "airports": {
    "KPOC": {
      "name": "Brackett Field",
      "metar": "METAR KPOC 191547Z 00000KT 7SM CLR 23/18 A2999",
      "metarTime": "2026-07-19T16:00:00.000Z",
      "taf": "",
      "tafTime": ""
    },
    "KCCB": {
      "name": "Cable Airport",
      "metar": "METAR KCCB 191615Z AUTO 00000KT 8SM CLR 25/18 A2999 RMK AO2",
      "metarTime": "2026-07-19T16:15:00.000Z",
      "taf": "",
      "tafTime": ""
    },
    "KRAL": {
      "name": "Riverside Municipal",
      "metar": "METAR KRAL 191553Z 00000KT 10SM CLR 25/17 A2997 RMK AO2 SLP132 T02500172",
      "metarTime": "2026-07-19T16:00:00.000Z",
      "taf": "",
      "tafTime": ""
    }
  }
}
