{
  "updated": "2026-02-20T11:35:00.000Z",
  "airports": {
    "KPOC": {
      "name": "Brackett Field",
      "metar": "",
      "metarTime": "",
      "taf": "",
      "tafTime": ""
    },
    "KCCB": {
      "name": "Cable Airport",
      "metar": "METAR KCCB 201135Z AUTO 04005KT 10SM FEW024 05/04 A2993 RMK AO2",
      "metarTime": "2026-02-20T11:35:00.000Z",
      "taf": "",
      "tafTime": ""
    },
    "KRAL": {
      "name": "Riverside Municipal",
      "metar": "METAR KRAL 201053Z AUTO 12003KT 10SM CLR 06/03 A2994 RMK AO2 SLP132 T00560028",
      "metarTime": "2026-02-20T11:00:00.000Z",
      "taf": "",
      "tafTime": ""
    }
  }
}
