{
  "updated": "2026-07-19T19:15:00.000Z",
  "airports": {
    "KPOC": {
      "name": "Brackett Field",
      "metar": "METAR KPOC 191847Z 26007KT 10SM CLR 30/17 A2996",
      "metarTime": "2026-07-19T19:00:00.000Z",
      "taf": "",
      "tafTime": ""
    },
    "KCCB": {
      "name": "Cable Airport",
      "metar": "METAR KCCB 191915Z AUTO 27008KT 240V300 10SM CLR 30/16 A2996 RMK AO2",
      "metarTime": "2026-07-19T19:15:00.000Z",
      "taf": "",
      "tafTime": ""
    },
    "KRAL": {
      "name": "Riverside Municipal",
      "metar": "METAR KRAL 191853Z 26007KT 10SM CLR 32/13 A2993 RMK AO2 SLP117 T03220133",
      "metarTime": "2026-07-19T19:00:00.000Z",
      "taf": "",
      "tafTime": ""
    }
  }
}
