{
  "updated": "2026-06-24T09:35:00.000Z",
  "airports": {
    "KPOC": {
      "name": "Brackett Field",
      "metar": "",
      "metarTime": "",
      "taf": "",
      "tafTime": ""
    },
    "KCCB": {
      "name": "Cable Airport",
      "metar": "METAR KCCB 240935Z AUTO 27005KT 10SM 18/16 A3001 RMK AO2",
      "metarTime": "2026-06-24T09:35:00.000Z",
      "taf": "",
      "tafTime": ""
    },
    "KRAL": {
      "name": "Riverside Municipal",
      "metar": "METAR KRAL 240853Z AUTO 27004KT 10SM FU CLR 19/14 A3001 RMK AO2 SLP145 T01890139 58003",
      "metarTime": "2026-06-24T09:00:00.000Z",
      "taf": "",
      "tafTime": ""
    }
  }
}
