{
  "updated": "2026-03-06T13:15:00.000Z",
  "airports": {
    "KPOC": {
      "name": "Brackett Field",
      "metar": "",
      "metarTime": "",
      "taf": "",
      "tafTime": ""
    },
    "KCCB": {
      "name": "Cable Airport",
      "metar": "METAR KCCB 061315Z AUTO 31004KT 10SM 11/M04 A2998 RMK AO2",
      "metarTime": "2026-03-06T13:15:00.000Z",
      "taf": "",
      "tafTime": ""
    },
    "KRAL": {
      "name": "Riverside Municipal",
      "metar": "METAR KRAL 061253Z AUTO 04007G17KT 10SM CLR 14/M05 A3000 RMK AO2 SLP146 T01441050",
      "metarTime": "2026-03-06T13:00:00.000Z",
      "taf": "",
      "tafTime": ""
    }
  }
}
