{
  "updated": "2026-03-25T19:15:00.000Z",
  "airports": {
    "KPOC": {
      "name": "Brackett Field",
      "metar": "METAR KPOC 251847Z 13005KT 7SM CLR 26/14 A3001",
      "metarTime": "2026-03-25T19:00:00.000Z",
      "taf": "",
      "tafTime": ""
    },
    "KCCB": {
      "name": "Cable Airport",
      "metar": "METAR KCCB 251915Z AUTO 00000KT 8SM CLR 26/12 A3000 RMK AO2",
      "metarTime": "2026-03-25T19:15:00.000Z",
      "taf": "",
      "tafTime": ""
    },
    "KRAL": {
      "name": "Riverside Municipal",
      "metar": "METAR KRAL 251853Z 00000KT 10SM CLR 27/11 A2999 RMK AO2 SLP139 T02720111",
      "metarTime": "2026-03-25T19:00:00.000Z",
      "taf": "",
      "tafTime": ""
    }
  }
}
