{
  "updated": "2026-03-07T14:35:00.000Z",
  "airports": {
    "KPOC": {
      "name": "Brackett Field",
      "metar": "",
      "metarTime": "",
      "taf": "",
      "tafTime": ""
    },
    "KCCB": {
      "name": "Cable Airport",
      "metar": "METAR KCCB 071435Z AUTO 04022G30KT 10SM CLR 15/M12 A3002 RMK AO2",
      "metarTime": "2026-03-07T14:35:00.000Z",
      "taf": "",
      "tafTime": ""
    },
    "KRAL": {
      "name": "Riverside Municipal",
      "metar": "METAR KRAL 071353Z AUTO 04009G21KT 10SM CLR 14/M08 A3003 RMK AO2 SLP155 T01441078",
      "metarTime": "2026-03-07T14:00:00.000Z",
      "taf": "",
      "tafTime": ""
    }
  }
}
