{
  "updated": "2026-02-05T17:35:00.000Z",
  "airports": {
    "KPOC": {
      "name": "Brackett Field",
      "metar": "METAR KPOC 051647Z 00000KT 10SM CLR 17/M01 A3010",
      "metarTime": "2026-02-05T17:00:00.000Z",
      "taf": "",
      "tafTime": ""
    },
    "KCCB": {
      "name": "Cable Airport",
      "metar": "METAR KCCB 051735Z AUTO 00000KT 10SM CLR 22/M06 A3011 RMK AO2",
      "metarTime": "2026-02-05T17:35:00.000Z",
      "taf": "",
      "tafTime": ""
    },
    "KRAL": {
      "name": "Riverside Municipal",
      "metar": "METAR KRAL 051653Z 05004KT 10SM CLR 16/M02 A3009 RMK AO2 SLP179 T01561017",
      "metarTime": "2026-02-05T17:00:00.000Z",
      "taf": "",
      "tafTime": ""
    }
  }
}
