{
  "updated": "2026-02-17T08:15:00.000Z",
  "airports": {
    "KPOC": {
      "name": "Brackett Field",
      "metar": "",
      "metarTime": "",
      "taf": "",
      "tafTime": ""
    },
    "KCCB": {
      "name": "Cable Airport",
      "metar": "METAR KCCB 170815Z AUTO 00000KT 10SM OVC039 08/08 A2992 RMK AO2",
      "metarTime": "2026-02-17T08:15:00.000Z",
      "taf": "",
      "tafTime": ""
    },
    "KRAL": {
      "name": "Riverside Municipal",
      "metar": "SPECI KRAL 170801Z AUTO 25005KT 10SM FEW021 BKN028 OVC040 09/08 A2994 RMK AO2 T00940078",
      "metarTime": "2026-02-17T08:01:00.000Z",
      "taf": "",
      "tafTime": ""
    }
  }
}
