{
  "updated": "2026-07-12T20:00:00.000Z",
  "airports": {
    "KPOC": {
      "name": "Brackett Field",
      "metar": "METAR KPOC 121947Z 25009KT 10SM CLR 27/14 A2996",
      "metarTime": "2026-07-12T20:00:00.000Z",
      "taf": "",
      "tafTime": ""
    },
    "KCCB": {
      "name": "Cable Airport",
      "metar": "METAR KCCB 121955Z AUTO 23008KT 10SM CLR 27/14 A2996 RMK AO2",
      "metarTime": "2026-07-12T20:00:00.000Z",
      "taf": "",
      "tafTime": ""
    },
    "KRAL": {
      "name": "Riverside Municipal",
      "metar": "METAR KRAL 121953Z 26007KT 10SM CLR 29/13 A2993 RMK AO2 SLP120 T02890133",
      "metarTime": "2026-07-12T20:00:00.000Z",
      "taf": "",
      "tafTime": ""
    }
  }
}
