{
  "updated": "2026-07-11T20:15:00.000Z",
  "airports": {
    "KPOC": {
      "name": "Brackett Field",
      "metar": "METAR KPOC 111947Z 25012KT 10SM CLR 28/16 A2995",
      "metarTime": "2026-07-11T20:00:00.000Z",
      "taf": "",
      "tafTime": ""
    },
    "KCCB": {
      "name": "Cable Airport",
      "metar": "METAR KCCB 112015Z AUTO 25011KT 10SM CLR 29/13 A2995 RMK AO2",
      "metarTime": "2026-07-11T20:15:00.000Z",
      "taf": "",
      "tafTime": ""
    },
    "KRAL": {
      "name": "Riverside Municipal",
      "metar": "METAR KRAL 111953Z 28007G18KT 10SM CLR 31/13 A2992 RMK AO2 SLP115 T03110133",
      "metarTime": "2026-07-11T20:00:00.000Z",
      "taf": "",
      "tafTime": ""
    }
  }
}
