{
  "updated": "2026-02-28T03:00:00.000Z",
  "airports": {
    "KPOC": {
      "name": "Brackett Field",
      "metar": "METAR KPOC 280247Z 00000KT 10SM CLR 26/11 A2993",
      "metarTime": "2026-02-28T03:00:00.000Z",
      "taf": "",
      "tafTime": ""
    },
    "KCCB": {
      "name": "Cable Airport",
      "metar": "METAR KCCB 280255Z AUTO 34005KT 10SM CLR 26/08 A2994 RMK AO2",
      "metarTime": "2026-02-28T03:00:00.000Z",
      "taf": "",
      "tafTime": ""
    },
    "KRAL": {
      "name": "Riverside Municipal",
      "metar": "METAR KRAL 280253Z 28004KT 10SM CLR 28/09 A2991 RMK AO2 SLP114 T02780094 53005",
      "metarTime": "2026-02-28T03:00:00.000Z",
      "taf": "",
      "tafTime": ""
    }
  }
}
