{
  "updated": "2026-03-19T23:00:00.000Z",
  "airports": {
    "KPOC": {
      "name": "Brackett Field",
      "metar": "METAR KPOC 192247Z 24009KT 10SM CLR 36/10 A2999",
      "metarTime": "2026-03-19T23:00:00.000Z",
      "taf": "",
      "tafTime": ""
    },
    "KCCB": {
      "name": "Cable Airport",
      "metar": "METAR KCCB 192235Z AUTO 25008KT 230V290 10SM CLR 36/04 A3001 RMK AO2",
      "metarTime": "2026-03-19T22:35:00.000Z",
      "taf": "",
      "tafTime": ""
    },
    "KRAL": {
      "name": "Riverside Municipal",
      "metar": "METAR KRAL 192153Z 27007KT 10SM CLR 38/05 A2998 RMK AO2 SLP133 T03780050",
      "metarTime": "2026-03-19T22:00:00.000Z",
      "taf": "",
      "tafTime": ""
    }
  }
}
