{
  "updated": "2026-05-03T09:41:00.000Z",
  "airports": {
    "KPOC": {
      "name": "Brackett Field",
      "metar": "",
      "metarTime": "",
      "taf": "",
      "tafTime": ""
    },
    "KCCB": {
      "name": "Cable Airport",
      "metar": "METAR KCCB 030935Z AUTO 26009KT 5SM BR OVC006 14/14 A2991 RMK AO2",
      "metarTime": "2026-05-03T09:35:00.000Z",
      "taf": "",
      "tafTime": ""
    },
    "KRAL": {
      "name": "Riverside Municipal",
      "metar": "SPECI KRAL 030941Z AUTO 28004KT 8SM BKN006 BKN027 14/12 A2992 RMK AO2 T01390122",
      "metarTime": "2026-05-03T09:41:00.000Z",
      "taf": "",
      "tafTime": ""
    }
  }
}
