{
  "updated": "2026-02-14T22:00:00.000Z",
  "airports": {
    "KPOC": {
      "name": "Brackett Field",
      "metar": "METAR KPOC 142147Z 20004KT 10SM CLR 19/07 A3008",
      "metarTime": "2026-02-14T22:00:00.000Z",
      "taf": "",
      "tafTime": ""
    },
    "KCCB": {
      "name": "Cable Airport",
      "metar": "METAR KCCB 142155Z AUTO 22005KT 10SM CLR 19/03 A3007 RMK AO2",
      "metarTime": "2026-02-14T22:00:00.000Z",
      "taf": "",
      "tafTime": ""
    },
    "KRAL": {
      "name": "Riverside Municipal",
      "metar": "METAR KRAL 142153Z 29007KT 10SM CLR 21/07 A3006 RMK AO2 SLP169 T02060067",
      "metarTime": "2026-02-14T22:00:00.000Z",
      "taf": "",
      "tafTime": ""
    }
  }
}
