{
  "updated": "2026-05-12T07:15:00.000Z",
  "airports": {
    "KPOC": {
      "name": "Brackett Field",
      "metar": "",
      "metarTime": "",
      "taf": "",
      "tafTime": ""
    },
    "KCCB": {
      "name": "Cable Airport",
      "metar": "METAR KCCB 120715Z AUTO 23004KT 10SM CLR 20/08 A2995 RMK AO2",
      "metarTime": "2026-05-12T07:15:00.000Z",
      "taf": "",
      "tafTime": ""
    },
    "KRAL": {
      "name": "Riverside Municipal",
      "metar": "METAR KRAL 120653Z AUTO 27005KT 10SM CLR 20/12 A2994 RMK AO2 SLP122 T02000122",
      "metarTime": "2026-05-12T07:00:00.000Z",
      "taf": "",
      "tafTime": ""
    }
  }
}
