{
  "updated": "2026-03-23T09:35:00.000Z",
  "airports": {
    "KPOC": {
      "name": "Brackett Field",
      "metar": "",
      "metarTime": "",
      "taf": "",
      "tafTime": ""
    },
    "KCCB": {
      "name": "Cable Airport",
      "metar": "METAR KCCB 230935Z AUTO 00000KT 10SM 19/09 A2990 RMK AO2",
      "metarTime": "2026-03-23T09:35:00.000Z",
      "taf": "",
      "tafTime": ""
    },
    "KRAL": {
      "name": "Riverside Municipal",
      "metar": "METAR KRAL 230853Z AUTO 00000KT 10SM CLR 17/13 A2990 RMK AO2 SLP109 T01720128 58005",
      "metarTime": "2026-03-23T09:00:00.000Z",
      "taf": "",
      "tafTime": ""
    }
  }
}
