{
  "updated": "2026-06-13T09:30:00.000Z",
  "airports": {
    "KPOC": {
      "name": "Brackett Field",
      "metar": "",
      "metarTime": "",
      "taf": "",
      "tafTime": ""
    },
    "KCCB": {
      "name": "Cable Airport",
      "metar": "METAR KCCB 130930Z AUTO 00000KT 10SM CLR 21/13 A2988 RMK AO2",
      "metarTime": "2026-06-13T09:30:00.000Z",
      "taf": "",
      "tafTime": ""
    },
    "KRAL": {
      "name": "Riverside Municipal",
      "metar": "METAR KRAL 130853Z AUTO 28003KT 10SM CLR 20/16 A2988 RMK AO2 SLP099 T02000156 58012",
      "metarTime": "2026-06-13T09:00:00.000Z",
      "taf": "",
      "tafTime": ""
    }
  }
}
