{
  "updated": "2026-02-09T00:00:00.000Z",
  "airports": {
    "KPOC": {
      "name": "Brackett Field",
      "metar": "METAR KPOC 082347Z 25005KT 10SM CLR 27/M03 A3015",
      "metarTime": "2026-02-09T00:00:00.000Z",
      "taf": "",
      "tafTime": ""
    },
    "KCCB": {
      "name": "Cable Airport",
      "metar": "METAR KCCB 082335Z AUTO VRB04KT 10SM CLR 27/M05 A3015 RMK AO2",
      "metarTime": "2026-02-08T23:35:00.000Z",
      "taf": "",
      "tafTime": ""
    },
    "KRAL": {
      "name": "Riverside Municipal",
      "metar": "METAR KRAL 082253Z 00000KT 10SM CLR 28/M06 A3013 RMK AO2 SLP190 T02831061 $",
      "metarTime": "2026-02-08T23:00:00.000Z",
      "taf": "",
      "tafTime": ""
    }
  }
}
