{
  "updated": "2026-02-22T10:35:00.000Z",
  "airports": {
    "KPOC": {
      "name": "Brackett Field",
      "metar": "",
      "metarTime": "",
      "taf": "",
      "tafTime": ""
    },
    "KCCB": {
      "name": "Cable Airport",
      "metar": "METAR KCCB 221035Z AUTO 05004KT 10SM CLR 11/M02 A3019 RMK AO2",
      "metarTime": "2026-02-22T10:35:00.000Z",
      "taf": "",
      "tafTime": ""
    },
    "KRAL": {
      "name": "Riverside Municipal",
      "metar": "METAR KRAL 220953Z AUTO 04003KT 10SM CLR 10/01 A3021 RMK AO2 SLP219 T01000011 $",
      "metarTime": "2026-02-22T10:00:00.000Z",
      "taf": "",
      "tafTime": ""
    }
  }
}
