{
  "updated": "2026-03-08T09:35:00.000Z",
  "airports": {
    "KPOC": {
      "name": "Brackett Field",
      "metar": "",
      "metarTime": "",
      "taf": "",
      "tafTime": ""
    },
    "KCCB": {
      "name": "Cable Airport",
      "metar": "METAR KCCB 080935Z AUTO 07011G22KT 10SM CLR 22/M15 A2994 RMK AO2",
      "metarTime": "2026-03-08T09:35:00.000Z",
      "taf": "",
      "tafTime": ""
    },
    "KRAL": {
      "name": "Riverside Municipal",
      "metar": "METAR KRAL 080853Z AUTO 05005KT 10SM CLR 19/M10 A2996 RMK AO2 SLP131 T01891100 56013",
      "metarTime": "2026-03-08T09:00:00.000Z",
      "taf": "",
      "tafTime": ""
    }
  }
}
