{
  "updated": "2026-07-09T19:00:00.000Z",
  "airports": {
    "KPOC": {
      "name": "Brackett Field",
      "metar": "METAR KPOC 091847Z 25009KT 10SM CLR 28/16 A2992",
      "metarTime": "2026-07-09T19:00:00.000Z",
      "taf": "",
      "tafTime": ""
    },
    "KCCB": {
      "name": "Cable Airport",
      "metar": "METAR KCCB 091855Z AUTO 27009G16KT 10SM CLR 29/14 A2992 RMK AO2",
      "metarTime": "2026-07-09T19:00:00.000Z",
      "taf": "",
      "tafTime": ""
    },
    "KRAL": {
      "name": "Riverside Municipal",
      "metar": "METAR KRAL 091853Z 28008KT 10SM CLR 33/13 A2988 RMK AO2 SLP100 T03280128",
      "metarTime": "2026-07-09T19:00:00.000Z",
      "taf": "",
      "tafTime": ""
    }
  }
}
