{
  "updated": "2026-04-18T18:00:00.000Z",
  "airports": {
    "KPOC": {
      "name": "Brackett Field",
      "metar": "METAR KPOC 181647Z 11005KT 10SM CLR 20/03 A2999",
      "metarTime": "2026-04-18T17:00:00.000Z",
      "taf": "",
      "tafTime": ""
    },
    "KCCB": {
      "name": "Cable Airport",
      "metar": "METAR KCCB 181755Z AUTO VRB03KT 10SM CLR 22/M04 A2999 RMK AO2",
      "metarTime": "2026-04-18T18:00:00.000Z",
      "taf": "",
      "tafTime": ""
    },
    "KRAL": {
      "name": "Riverside Municipal",
      "metar": "METAR KRAL 181753Z 07005KT 10SM CLR 26/M13 A2997 RMK AO2 SLP135 T02611128 10261 20078 50000",
      "metarTime": "2026-04-18T18:00:00.000Z",
      "taf": "",
      "tafTime": ""
    }
  }
}
