{
  "updated": "2026-04-12T18:30:00.000Z",
  "airports": {
    "KPOC": {
      "name": "Brackett Field",
      "metar": "METAR KPOC 121747Z 25008KT 7SM BKN024 14/12 A3001",
      "metarTime": "2026-04-12T18:00:00.000Z",
      "taf": "",
      "tafTime": ""
    },
    "KCCB": {
      "name": "Cable Airport",
      "metar": "METAR KCCB 121815Z AUTO 26010KT 10SM FEW012 SCT039 OVC046 14/14 A2999 RMK AO2",
      "metarTime": "2026-04-12T18:15:00.000Z",
      "taf": "",
      "tafTime": ""
    },
    "KRAL": {
      "name": "Riverside Municipal",
      "metar": "SPECI KRAL 121830Z 11003KT 2SM -RA BR FEW007 BKN016 OVC023 13/12 A3001 RMK AO2 P0007 T01330122",
      "metarTime": "2026-04-12T18:30:00.000Z",
      "taf": "",
      "tafTime": ""
    }
  }
}
