{
  "updated": "2026-04-25T11:15:00.000Z",
  "airports": {
    "KPOC": {
      "name": "Brackett Field",
      "metar": "",
      "metarTime": "",
      "taf": "",
      "tafTime": ""
    },
    "KCCB": {
      "name": "Cable Airport",
      "metar": "METAR KCCB 251115Z AUTO 28003KT 10SM 14/10 A2988 RMK AO2",
      "metarTime": "2026-04-25T11:15:00.000Z",
      "taf": "",
      "tafTime": ""
    },
    "KRAL": {
      "name": "Riverside Municipal",
      "metar": "METAR KRAL 251053Z AUTO 00000KT 10SM SCT033 OVC041 14/08 A2988 RMK AO2 SLP103 T01440083",
      "metarTime": "2026-04-25T11:00:00.000Z",
      "taf": "",
      "tafTime": ""
    }
  }
}
