{
  "updated": "2026-05-25T16:15:00.000Z",
  "airports": {
    "KPOC": {
      "name": "Brackett Field",
      "metar": "METAR KPOC 251547Z 00000KT 10SM OVC023 15/11 A3001",
      "metarTime": "2026-05-25T16:00:00.000Z",
      "taf": "",
      "tafTime": ""
    },
    "KCCB": {
      "name": "Cable Airport",
      "metar": "METAR KCCB 251615Z AUTO 00000KT 10SM OVC020 15/11 A2999 RMK AO2",
      "metarTime": "2026-05-25T16:15:00.000Z",
      "taf": "",
      "tafTime": ""
    },
    "KRAL": {
      "name": "Riverside Municipal",
      "metar": "METAR KRAL 251553Z 00000KT 10SM OVC026 16/11 A3000 RMK AO2 SLP145 T01610106",
      "metarTime": "2026-05-25T16:00:00.000Z",
      "taf": "",
      "tafTime": ""
    }
  }
}
