{
  "updated": "2026-02-20T03:35:00.000Z",
  "airports": {
    "KPOC": {
      "name": "Brackett Field",
      "metar": "METAR KPOC 200247Z 24008KT 10SM BKN080 09/05 A2985",
      "metarTime": "2026-02-20T03:00:00.000Z",
      "taf": "",
      "tafTime": ""
    },
    "KCCB": {
      "name": "Cable Airport",
      "metar": "METAR KCCB 200335Z AUTO 25011G18KT 10SM SCT024 BKN040 08/05 A2984 RMK AO2",
      "metarTime": "2026-02-20T03:35:00.000Z",
      "taf": "",
      "tafTime": ""
    },
    "KRAL": {
      "name": "Riverside Municipal",
      "metar": "METAR KRAL 200253Z 25008KT 10SM CLR 09/06 A2986 RMK AO2 SLP103 60000 T00890056 53006",
      "metarTime": "2026-02-20T03:00:00.000Z",
      "taf": "",
      "tafTime": ""
    }
  }
}
