{
  "updated": "2026-02-15T08:35:00.000Z",
  "airports": {
    "KPOC": {
      "name": "Brackett Field",
      "metar": "",
      "metarTime": "",
      "taf": "",
      "tafTime": ""
    },
    "KCCB": {
      "name": "Cable Airport",
      "metar": "METAR KCCB 150835Z AUTO 34004KT 10SM 10/09 A3004 RMK AO2",
      "metarTime": "2026-02-15T08:35:00.000Z",
      "taf": "",
      "tafTime": ""
    },
    "KRAL": {
      "name": "Riverside Municipal",
      "metar": "METAR KRAL 150753Z AUTO 00000KT 9SM CLR 11/09 A3005 RMK AO2 SLP165 T01110089 402110078",
      "metarTime": "2026-02-15T08:00:00.000Z",
      "taf": "",
      "tafTime": ""
    }
  }
}
