{
  "updated": "2026-02-15T14:35:00.000Z",
  "airports": {
    "KPOC": {
      "name": "Brackett Field",
      "metar": "",
      "metarTime": "",
      "taf": "",
      "tafTime": ""
    },
    "KCCB": {
      "name": "Cable Airport",
      "metar": "METAR KCCB 151435Z AUTO 01005KT 10SM CLR 10/08 A3002 RMK AO2",
      "metarTime": "2026-02-15T14:35:00.000Z",
      "taf": "",
      "tafTime": ""
    },
    "KRAL": {
      "name": "Riverside Municipal",
      "metar": "SPECI KRAL 151410Z AUTO 00000KT 8SM BKN015 OVC021 11/09 A3002 RMK AO2 T01060094",
      "metarTime": "2026-02-15T14:10:00.000Z",
      "taf": "",
      "tafTime": ""
    }
  }
}
