{
  "updated": "2026-05-10T16:15:00.000Z",
  "airports": {
    "KPOC": {
      "name": "Brackett Field",
      "metar": "METAR KPOC 101547Z 00000KT 3SM BR SCT002 17/14 A2994",
      "metarTime": "2026-05-10T16:00:00.000Z",
      "taf": "",
      "tafTime": ""
    },
    "KCCB": {
      "name": "Cable Airport",
      "metar": "METAR KCCB 101615Z AUTO 25003KT 4SM HZ CLR 18/15 A2993 RMK AO2",
      "metarTime": "2026-05-10T16:15:00.000Z",
      "taf": "",
      "tafTime": ""
    },
    "KRAL": {
      "name": "Riverside Municipal",
      "metar": "METAR KRAL 101553Z 00000KT 2 1/2SM BR OVC004 16/14 A2993 RMK AO2 SLP122 T01610139 $",
      "metarTime": "2026-05-10T16:00:00.000Z",
      "taf": "",
      "tafTime": ""
    }
  }
}
