{
  "updated": "2026-06-25T10:00:00.000Z",
  "airports": {
    "KPOC": {
      "name": "Brackett Field",
      "metar": "",
      "metarTime": "",
      "taf": "",
      "tafTime": ""
    },
    "KCCB": {
      "name": "Cable Airport",
      "metar": "METAR KCCB 250955Z AUTO 25005KT 4SM BR OVC006 16/16 A2995 RMK AO2",
      "metarTime": "2026-06-25T10:00:00.000Z",
      "taf": "",
      "tafTime": ""
    },
    "KRAL": {
      "name": "Riverside Municipal",
      "metar": "METAR KRAL 250953Z AUTO 28006KT 10SM CLR 16/14 A2994 RMK AO2 SLP124 T01560139",
      "metarTime": "2026-06-25T10:00:00.000Z",
      "taf": "",
      "tafTime": ""
    }
  }
}
