{
  "updated": "2026-06-21T09:00:00.000Z",
  "airports": {
    "KPOC": {
      "name": "Brackett Field",
      "metar": "",
      "metarTime": "",
      "taf": "",
      "tafTime": ""
    },
    "KCCB": {
      "name": "Cable Airport",
      "metar": "METAR KCCB 210855Z AUTO 00000KT 3SM BR 14/12 A2991 RMK AO2",
      "metarTime": "2026-06-21T09:00:00.000Z",
      "taf": "",
      "tafTime": ""
    },
    "KRAL": {
      "name": "Riverside Municipal",
      "metar": "METAR KRAL 210853Z AUTO 26004KT 10SM CLR 15/12 A2992 RMK AO2 SLP115 T01500117 58007",
      "metarTime": "2026-06-21T09:00:00.000Z",
      "taf": "",
      "tafTime": ""
    }
  }
}
