{
  "updated": "2026-02-09T20:15:00.000Z",
  "airports": {
    "KPOC": {
      "name": "Brackett Field",
      "metar": "METAR KPOC 091947Z VRB03KT 10SM CLR 23/02 A3002",
      "metarTime": "2026-02-09T20:00:00.000Z",
      "taf": "",
      "tafTime": ""
    },
    "KCCB": {
      "name": "Cable Airport",
      "metar": "METAR KCCB 092015Z AUTO 00000KT 10SM CLR 23/M02 A3001 RMK AO2",
      "metarTime": "2026-02-09T20:15:00.000Z",
      "taf": "",
      "tafTime": ""
    },
    "KRAL": {
      "name": "Riverside Municipal",
      "metar": "METAR KRAL 091953Z VRB04KT 10SM CLR 23/03 A3001 RMK AO2 SLP149 T02280028 $",
      "metarTime": "2026-02-09T20:00:00.000Z",
      "taf": "",
      "tafTime": ""
    }
  }
}
