{
  "updated": "2026-06-25T06:15:00.000Z",
  "airports": {
    "KPOC": {
      "name": "Brackett Field",
      "metar": "",
      "metarTime": "",
      "taf": "",
      "tafTime": ""
    },
    "KCCB": {
      "name": "Cable Airport",
      "metar": "METAR KCCB 250615Z AUTO 26007KT 10SM CLR 18/15 A2997 RMK AO2",
      "metarTime": "2026-06-25T06:15:00.000Z",
      "taf": "",
      "tafTime": ""
    },
    "KRAL": {
      "name": "Riverside Municipal",
      "metar": "METAR KRAL 250553Z AUTO 26005KT 10SM CLR 19/14 A2996 RMK AO2 SLP129 T01890139 10294 20189 51012",
      "metarTime": "2026-06-25T06:00:00.000Z",
      "taf": "",
      "tafTime": ""
    }
  }
}
