{
  "updated": "2026-04-28T21:00:00.000Z",
  "airports": {
    "KPOC": {
      "name": "Brackett Field",
      "metar": "",
      "metarTime": "",
      "taf": "",
      "tafTime": ""
    },
    "KCCB": {
      "name": "Cable Airport",
      "metar": "METAR KCCB 282055Z AUTO 00000KT 10SM CLR 22/00 A3001 RMK AO2",
      "metarTime": "2026-04-28T21:00:00.000Z",
      "taf": "",
      "tafTime": ""
    },
    "KRAL": {
      "name": "Riverside Municipal",
      "metar": "METAR KRAL 282053Z VRB04G15KT 10SM CLR 24/03 A3000 RMK AO2 SLP145 T02390033 56021",
      "metarTime": "2026-04-28T21:00:00.000Z",
      "taf": "",
      "tafTime": ""
    }
  }
}
