{
  "updated": "2026-04-26T14:00:00.000Z",
  "airports": {
    "KPOC": {
      "name": "Brackett Field",
      "metar": "METAR KPOC 261347Z 28004KT 7SM SCT010 11/10 A2990",
      "metarTime": "2026-04-26T14:00:00.000Z",
      "taf": "",
      "tafTime": ""
    },
    "KCCB": {
      "name": "Cable Airport",
      "metar": "METAR KCCB 261335Z AUTO 27009G15KT 4SM BR BKN004 BKN008 OVC013 10/10 A2988 RMK AO2",
      "metarTime": "2026-04-26T13:35:00.000Z",
      "taf": "",
      "tafTime": ""
    },
    "KRAL": {
      "name": "Riverside Municipal",
      "metar": "METAR KRAL 261353Z AUTO 23007KT 10SM SCT090 11/09 A2990 RMK AO2 SLP115 T01110094",
      "metarTime": "2026-04-26T14:00:00.000Z",
      "taf": "",
      "tafTime": ""
    }
  }
}
