{
  "updated": "2026-02-04T22:00:00.000Z",
  "airports": {
    "KPOC": {
      "name": "Brackett Field",
      "metar": "METAR KPOC 042147Z 24008KT 10SM CLR 29/M03 A3008",
      "metarTime": "2026-02-04T22:00:00.000Z",
      "taf": "",
      "tafTime": ""
    },
    "KCCB": {
      "name": "Cable Airport",
      "metar": "METAR KCCB 042155Z AUTO 25008KT 10SM CLR 28/M07 A3008 RMK AO2",
      "metarTime": "2026-02-04T22:00:00.000Z",
      "taf": "",
      "tafTime": ""
    },
    "KRAL": {
      "name": "Riverside Municipal",
      "metar": "METAR KRAL 042153Z 01010G25KT 10SM CLR 29/M05 A3007 RMK AO2 SLP167 T02891050",
      "metarTime": "2026-02-04T22:00:00.000Z",
      "taf": "",
      "tafTime": ""
    }
  }
}
