{
  "updated": "2026-04-26T09:36:00.000Z",
  "airports": {
    "KPOC": {
      "name": "Brackett Field",
      "metar": "",
      "metarTime": "",
      "taf": "",
      "tafTime": ""
    },
    "KCCB": {
      "name": "Cable Airport",
      "metar": "METAR KCCB 260935Z AUTO 26009KT 3SM -RA BKN005 BKN020 OVC045 11/10 A2986 RMK AO2",
      "metarTime": "2026-04-26T09:35:00.000Z",
      "taf": "",
      "tafTime": ""
    },
    "KRAL": {
      "name": "Riverside Municipal",
      "metar": "SPECI KRAL 260936Z AUTO 23005KT 7SM -RA FEW008 BKN023 OVC032 12/10 A2987 RMK AO2 P0004 T01170100",
      "metarTime": "2026-04-26T09:36:00.000Z",
      "taf": "",
      "tafTime": ""
    }
  }
}
