{
  "updated": "2026-03-27T01:00:00.000Z",
  "airports": {
    "KPOC": {
      "name": "Brackett Field",
      "metar": "METAR KPOC 270047Z 26008KT 7SM CLR 27/13 A2988",
      "metarTime": "2026-03-27T01:00:00.000Z",
      "taf": "",
      "tafTime": ""
    },
    "KCCB": {
      "name": "Cable Airport",
      "metar": "METAR KCCB 270050Z AUTO 26009KT 10SM CLR 28/11 A2988 RMK AO2",
      "metarTime": "2026-03-27T01:00:00.000Z",
      "taf": "",
      "tafTime": ""
    },
    "KRAL": {
      "name": "Riverside Municipal",
      "metar": "METAR KRAL 270053Z 27010KT 10SM CLR 28/12 A2985 RMK AO2 SLP094 T02830122",
      "metarTime": "2026-03-27T01:00:00.000Z",
      "taf": "",
      "tafTime": ""
    }
  }
}
