{
  "updated": "2026-07-11T08:00:00.000Z",
  "airports": {
    "KPOC": {
      "name": "Brackett Field",
      "metar": "",
      "metarTime": "",
      "taf": "",
      "tafTime": ""
    },
    "KCCB": {
      "name": "Cable Airport",
      "metar": "METAR KCCB 110755Z AUTO 28005KT 10SM 19/17 A2991 RMK AO2",
      "metarTime": "2026-07-11T08:00:00.000Z",
      "taf": "",
      "tafTime": ""
    },
    "KRAL": {
      "name": "Riverside Municipal",
      "metar": "METAR KRAL 110753Z AUTO 28004KT 10SM CLR 19/15 A2990 RMK AO2 SLP108 T01940150 403330172",
      "metarTime": "2026-07-11T08:00:00.000Z",
      "taf": "",
      "tafTime": ""
    }
  }
}
