{
  "updated": "2026-05-02T18:00:00.000Z",
  "airports": {
    "KPOC": {
      "name": "Brackett Field",
      "metar": "",
      "metarTime": "",
      "taf": "",
      "tafTime": ""
    },
    "KCCB": {
      "name": "Cable Airport",
      "metar": "METAR KCCB 021755Z AUTO 21006KT 5SM HZ CLR 19/14 A2996 RMK AO2",
      "metarTime": "2026-05-02T18:00:00.000Z",
      "taf": "",
      "tafTime": ""
    },
    "KRAL": {
      "name": "Riverside Municipal",
      "metar": "METAR KRAL 021753Z 21005KT 4SM HZ CLR 19/13 A2996 RMK AO2 SLP131 T01940133 10194 20128 58007",
      "metarTime": "2026-05-02T18:00:00.000Z",
      "taf": "",
      "tafTime": ""
    }
  }
}
