{
  "updated": "2026-07-04T14:15:00.000Z",
  "airports": {
    "KPOC": {
      "name": "Brackett Field",
      "metar": "METAR KPOC 041347Z 09006KT 10SM CLR 18/13 A3003",
      "metarTime": "2026-07-04T14:00:00.000Z",
      "taf": "",
      "tafTime": ""
    },
    "KCCB": {
      "name": "Cable Airport",
      "metar": "METAR KCCB 041415Z AUTO 07007KT 10SM CLR 20/09 A3004 RMK AO2",
      "metarTime": "2026-07-04T14:15:00.000Z",
      "taf": "",
      "tafTime": ""
    },
    "KRAL": {
      "name": "Riverside Municipal",
      "metar": "METAR KRAL 041353Z 04003KT 10SM CLR 18/14 A3003 RMK AO2 SLP153 T01780139",
      "metarTime": "2026-07-04T14:00:00.000Z",
      "taf": "",
      "tafTime": ""
    }
  }
}
