{
  "updated": "2026-02-17T11:15:00.000Z",
  "airports": {
    "KPOC": {
      "name": "Brackett Field",
      "metar": "",
      "metarTime": "",
      "taf": "",
      "tafTime": ""
    },
    "KCCB": {
      "name": "Cable Airport",
      "metar": "METAR KCCB 171115Z AUTO 17004KT 10SM SCT036 OVC049 07/07 A2993 RMK AO2",
      "metarTime": "2026-02-17T11:15:00.000Z",
      "taf": "",
      "tafTime": ""
    },
    "KRAL": {
      "name": "Riverside Municipal",
      "metar": "METAR KRAL 171053Z AUTO 10004KT 6SM RA BR OVC040 08/08 A2996 RMK AO2 SLP138 P0005 T00830078",
      "metarTime": "2026-02-17T11:00:00.000Z",
      "taf": "",
      "tafTime": ""
    }
  }
}
