{
  "updated": "2026-02-20T18:00:00.000Z",
  "airports": {
    "KPOC": {
      "name": "Brackett Field",
      "metar": "METAR KPOC 201747Z VRB05KT 10SM FEW040 09/04 A3003",
      "metarTime": "2026-02-20T18:00:00.000Z",
      "taf": "",
      "tafTime": ""
    },
    "KCCB": {
      "name": "Cable Airport",
      "metar": "METAR KCCB 201735Z AUTO 13005KT 10SM CLR 09/03 A3001 RMK AO2",
      "metarTime": "2026-02-20T17:35:00.000Z",
      "taf": "",
      "tafTime": ""
    },
    "KRAL": {
      "name": "Riverside Municipal",
      "metar": "METAR KRAL 201753Z VRB03KT 10SM CLR 10/03 A3003 RMK AO2 SLP160 T01000033 10100 20033 50007",
      "metarTime": "2026-02-20T18:00:00.000Z",
      "taf": "",
      "tafTime": ""
    }
  }
}
