{
  "updated": "2026-02-26T09:15:00.000Z",
  "airports": {
    "KPOC": {
      "name": "Brackett Field",
      "metar": "",
      "metarTime": "",
      "taf": "",
      "tafTime": ""
    },
    "KCCB": {
      "name": "Cable Airport",
      "metar": "METAR KCCB 260915Z AUTO 05003KT 10SM CLR 16/12 A3008 RMK AO2",
      "metarTime": "2026-02-26T09:15:00.000Z",
      "taf": "",
      "tafTime": ""
    },
    "KRAL": {
      "name": "Riverside Municipal",
      "metar": "METAR KRAL 260853Z AUTO 00000KT 10SM CLR 14/12 A3008 RMK AO2 SLP172 T01440122 58002",
      "metarTime": "2026-02-26T09:00:00.000Z",
      "taf": "",
      "tafTime": ""
    }
  }
}
