{
  "updated": "2026-04-02T14:00:00.000Z",
  "airports": {
    "KPOC": {
      "name": "Brackett Field",
      "metar": "METAR KPOC 021347Z 24003KT 4SM BR BKN011 OVC020 13/12 A2997",
      "metarTime": "2026-04-02T14:00:00.000Z",
      "taf": "",
      "tafTime": ""
    },
    "KCCB": {
      "name": "Cable Airport",
      "metar": "",
      "metarTime": "",
      "taf": "",
      "tafTime": ""
    },
    "KRAL": {
      "name": "Riverside Municipal",
      "metar": "METAR KRAL 021353Z 00000KT 10SM FEW012 FEW032 SCT050 13/10 A2997 RMK AO2 SLP138 T01280100",
      "metarTime": "2026-04-02T14:00:00.000Z",
      "taf": "",
      "tafTime": ""
    }
  }
}
