{
  "updated": "2026-03-28T21:35:00.000Z",
  "airports": {
    "KPOC": {
      "name": "Brackett Field",
      "metar": "METAR KPOC 282047Z 25005KT 10SM CLR 28/10 A2998",
      "metarTime": "2026-03-28T21:00:00.000Z",
      "taf": "",
      "tafTime": ""
    },
    "KCCB": {
      "name": "Cable Airport",
      "metar": "METAR KCCB 282135Z AUTO 27008KT 10SM CLR 29/05 A2997 RMK AO2",
      "metarTime": "2026-03-28T21:35:00.000Z",
      "taf": "",
      "tafTime": ""
    },
    "KRAL": {
      "name": "Riverside Municipal",
      "metar": "METAR KRAL 282053Z 22007KT 10SM CLR 32/M04 A2995 RMK AO2 SLP126 T03221039 58022",
      "metarTime": "2026-03-28T21:00:00.000Z",
      "taf": "",
      "tafTime": ""
    }
  }
}
