{
  "updated": "2026-07-06T06:15:00.000Z",
  "airports": {
    "KPOC": {
      "name": "Brackett Field",
      "metar": "",
      "metarTime": "",
      "taf": "",
      "tafTime": ""
    },
    "KCCB": {
      "name": "Cable Airport",
      "metar": "METAR KCCB 060615Z AUTO 27005KT 10SM 21/13 A2996 RMK AO2",
      "metarTime": "2026-07-06T06:15:00.000Z",
      "taf": "",
      "tafTime": ""
    },
    "KRAL": {
      "name": "Riverside Municipal",
      "metar": "METAR KRAL 060553Z AUTO 28004KT 10SM CLR 22/13 A2995 RMK AO2 SLP126 T02220128 10311 20217 51015",
      "metarTime": "2026-07-06T06:00:00.000Z",
      "taf": "",
      "tafTime": ""
    }
  }
}
