{
  "updated": "2026-04-05T18:15:00.000Z",
  "airports": {
    "KPOC": {
      "name": "Brackett Field",
      "metar": "METAR KPOC 051747Z VRB04KT 10SM CLR 24/M05 A3003",
      "metarTime": "2026-04-05T18:00:00.000Z",
      "taf": "",
      "tafTime": ""
    },
    "KCCB": {
      "name": "Cable Airport",
      "metar": "METAR KCCB 051815Z AUTO VRB04KT 10SM CLR 25/M06 A3003 RMK AO2",
      "metarTime": "2026-04-05T18:15:00.000Z",
      "taf": "",
      "tafTime": ""
    },
    "KRAL": {
      "name": "Riverside Municipal",
      "metar": "METAR KRAL 051753Z 00000KT 10SM CLR 27/M02 A3001 RMK AO2 SLP146 T02721022 10272 20117 58002",
      "metarTime": "2026-04-05T18:00:00.000Z",
      "taf": "",
      "tafTime": ""
    }
  }
}
