{
  "updated": "2026-05-12T12:15:00.000Z",
  "airports": {
    "KPOC": {
      "name": "Brackett Field",
      "metar": "",
      "metarTime": "",
      "taf": "",
      "tafTime": ""
    },
    "KCCB": {
      "name": "Cable Airport",
      "metar": "METAR KCCB 121215Z AUTO 28003KT 2 1/2SM BR BKN003 14/14 A2994 RMK AO2",
      "metarTime": "2026-05-12T12:15:00.000Z",
      "taf": "",
      "tafTime": ""
    },
    "KRAL": {
      "name": "Riverside Municipal",
      "metar": "METAR KRAL 121153Z AUTO 21005KT 10SM CLR 15/13 A2993 RMK AO2 SLP119 T01500128 10222 20144 51005",
      "metarTime": "2026-05-12T12:00:00.000Z",
      "taf": "",
      "tafTime": ""
    }
  }
}
