{
  "updated": "2026-05-30T00:00:00.000Z",
  "airports": {
    "KPOC": {
      "name": "Brackett Field",
      "metar": "METAR KPOC 292347Z 28008KT 10SM BKN040 20/09 A2999",
      "metarTime": "2026-05-30T00:00:00.000Z",
      "taf": "",
      "tafTime": ""
    },
    "KCCB": {
      "name": "Cable Airport",
      "metar": "METAR KCCB 292355Z AUTO 27012KT 10SM OVC042 19/08 A2998 RMK AO2",
      "metarTime": "2026-05-30T00:00:00.000Z",
      "taf": "",
      "tafTime": ""
    },
    "KRAL": {
      "name": "Riverside Municipal",
      "metar": "METAR KRAL 292353Z 26013G17KT 10SM CLR 22/09 A2996 RMK AO2 SLP135 T02170089 10228 20178 58010",
      "metarTime": "2026-05-30T00:00:00.000Z",
      "taf": "",
      "tafTime": ""
    }
  }
}
