{
  "updated": "2026-06-19T05:15:00.000Z",
  "airports": {
    "KPOC": {
      "name": "Brackett Field",
      "metar": "",
      "metarTime": "",
      "taf": "",
      "tafTime": ""
    },
    "KCCB": {
      "name": "Cable Airport",
      "metar": "METAR KCCB 190515Z AUTO 26007KT 10SM 17/15 A2998 RMK AO2",
      "metarTime": "2026-06-19T05:15:00.000Z",
      "taf": "",
      "tafTime": ""
    },
    "KRAL": {
      "name": "Riverside Municipal",
      "metar": "METAR KRAL 190453Z AUTO 28007KT 10SM CLR 18/13 A2998 RMK AO2 SLP138 T01780133",
      "metarTime": "2026-06-19T05:00:00.000Z",
      "taf": "",
      "tafTime": ""
    }
  }
}
