{
  "updated": "2026-03-15T07:15:00.000Z",
  "airports": {
    "KPOC": {
      "name": "Brackett Field",
      "metar": "",
      "metarTime": "",
      "taf": "",
      "tafTime": ""
    },
    "KCCB": {
      "name": "Cable Airport",
      "metar": "METAR KCCB 150715Z AUTO 00000KT 10SM SCT031 BKN036 17/07 A2998 RMK AO2",
      "metarTime": "2026-03-15T07:15:00.000Z",
      "taf": "",
      "tafTime": ""
    },
    "KRAL": {
      "name": "Riverside Municipal",
      "metar": "METAR KRAL 150653Z AUTO 00000KT 10SM CLR 17/07 A2997 RMK AO2 SLP135 T01670072",
      "metarTime": "2026-03-15T07:00:00.000Z",
      "taf": "",
      "tafTime": ""
    }
  }
}
