{
  "updated": "2026-03-02T14:15:00.000Z",
  "airports": {
    "KPOC": {
      "name": "Brackett Field",
      "metar": "",
      "metarTime": "",
      "taf": "",
      "tafTime": ""
    },
    "KCCB": {
      "name": "Cable Airport",
      "metar": "METAR KCCB 021415Z AUTO 00000KT 10SM CLR 14/11 A2997 RMK AO2",
      "metarTime": "2026-03-02T14:15:00.000Z",
      "taf": "",
      "tafTime": ""
    },
    "KRAL": {
      "name": "Riverside Municipal",
      "metar": "METAR KRAL 021353Z AUTO 00000KT 10SM CLR 13/10 A2997 RMK AO2 SLP137 T01280100",
      "metarTime": "2026-03-02T14:00:00.000Z",
      "taf": "",
      "tafTime": ""
    }
  }
}
