{
  "updated": "2026-04-14T20:00:00.000Z",
  "airports": {
    "KPOC": {
      "name": "Brackett Field",
      "metar": "METAR KPOC 141947Z 29005KT 10SM CLR 19/08 A3010",
      "metarTime": "2026-04-14T20:00:00.000Z",
      "taf": "",
      "tafTime": ""
    },
    "KCCB": {
      "name": "Cable Airport",
      "metar": "METAR KCCB 141955Z AUTO VRB05G13KT 10SM CLR 18/05 A3009 RMK AO2",
      "metarTime": "2026-04-14T20:00:00.000Z",
      "taf": "",
      "tafTime": ""
    },
    "KRAL": {
      "name": "Riverside Municipal",
      "metar": "METAR KRAL 141953Z VRB03KT 10SM CLR 20/06 A3008 RMK AO2 SLP176 T02000056",
      "metarTime": "2026-04-14T20:00:00.000Z",
      "taf": "",
      "tafTime": ""
    }
  }
}
