{
  "updated": "2026-02-21T07:35:00.000Z",
  "airports": {
    "KPOC": {
      "name": "Brackett Field",
      "metar": "",
      "metarTime": "",
      "taf": "",
      "tafTime": ""
    },
    "KCCB": {
      "name": "Cable Airport",
      "metar": "METAR KCCB 210735Z AUTO 05005KT 10SM CLR 08/M00 A3009 RMK AO2",
      "metarTime": "2026-02-21T07:35:00.000Z",
      "taf": "",
      "tafTime": ""
    },
    "KRAL": {
      "name": "Riverside Municipal",
      "metar": "METAR KRAL 210653Z AUTO 13003KT 10SM CLR 06/01 A3011 RMK AO2 SLP188 T00610011 $",
      "metarTime": "2026-02-21T07:00:00.000Z",
      "taf": "",
      "tafTime": ""
    }
  }
}
