{
  "updated": "2026-04-15T00:00:00.000Z",
  "airports": {
    "KPOC": {
      "name": "Brackett Field",
      "metar": "METAR KPOC 142347Z 26010KT 10SM CLR 22/09 A3002",
      "metarTime": "2026-04-15T00:00:00.000Z",
      "taf": "",
      "tafTime": ""
    },
    "KCCB": {
      "name": "Cable Airport",
      "metar": "METAR KCCB 142355Z AUTO 27013KT 10SM CLR 21/08 A3001 RMK AO2",
      "metarTime": "2026-04-15T00:00:00.000Z",
      "taf": "",
      "tafTime": ""
    },
    "KRAL": {
      "name": "Riverside Municipal",
      "metar": "METAR KRAL 142353Z 26013KT 10SM CLR 23/09 A3000 RMK AO2 SLP147 T02330089 10239 20167 56019",
      "metarTime": "2026-04-15T00:00:00.000Z",
      "taf": "",
      "tafTime": ""
    }
  }
}
