{
  "updated": "2026-02-19T20:15:00.000Z",
  "airports": {
    "KPOC": {
      "name": "Brackett Field",
      "metar": "METAR KPOC 191947Z VRB04KT 2SM -RA OVC015 08/07 A2995",
      "metarTime": "2026-02-19T20:00:00.000Z",
      "taf": "",
      "tafTime": ""
    },
    "KCCB": {
      "name": "Cable Airport",
      "metar": "METAR KCCB 192015Z AUTO 04004KT 1SM RA OVC013 08/08 A2990 RMK AO2",
      "metarTime": "2026-02-19T20:15:00.000Z",
      "taf": "",
      "tafTime": ""
    },
    "KRAL": {
      "name": "Riverside Municipal",
      "metar": "METAR KRAL 191953Z 00000KT 2 1/2SM -RA BR BKN031 OVC036 09/07 A2994 RMK AO2 SLP133 P0002 T00890072",
      "metarTime": "2026-02-19T20:00:00.000Z",
      "taf": "",
      "tafTime": ""
    }
  }
}
