{
  "updated": "2026-06-13T15:00:00.000Z",
  "airports": {
    "KPOC": {
      "name": "Brackett Field",
      "metar": "METAR KPOC 131447Z 00000KT 10SM CLR 21/16 A2990",
      "metarTime": "2026-06-13T15:00:00.000Z",
      "taf": "",
      "tafTime": ""
    },
    "KCCB": {
      "name": "Cable Airport",
      "metar": "METAR KCCB 131455Z AUTO 00000KT 10SM CLR 22/15 A2990 RMK AO2",
      "metarTime": "2026-06-13T15:00:00.000Z",
      "taf": "",
      "tafTime": ""
    },
    "KRAL": {
      "name": "Riverside Municipal",
      "metar": "METAR KRAL 131453Z 00000KT 10SM CLR 21/16 A2990 RMK AO2 SLP108 T02110156 53008",
      "metarTime": "2026-06-13T15:00:00.000Z",
      "taf": "",
      "tafTime": ""
    }
  }
}
