{
  "updated": "2026-05-16T14:00:00.000Z",
  "airports": {
    "KPOC": {
      "name": "Brackett Field",
      "metar": "METAR KPOC 161347Z 26006KT 2SM OVC010 15/13 A2993 BR",
      "metarTime": "2026-05-16T14:00:00.000Z",
      "taf": "",
      "tafTime": ""
    },
    "KCCB": {
      "name": "Cable Airport",
      "metar": "METAR KCCB 161355Z AUTO 25005KT 3SM BR FEW013 SCT018 OVC025 14/14 A2991 RMK AO2",
      "metarTime": "2026-05-16T14:00:00.000Z",
      "taf": "",
      "tafTime": ""
    },
    "KRAL": {
      "name": "Riverside Municipal",
      "metar": "METAR KRAL 161353Z 27003KT 10SM FEW027 OVC040 16/13 A2992 RMK AO2 SLP118 T01560128",
      "metarTime": "2026-05-16T14:00:00.000Z",
      "taf": "",
      "tafTime": ""
    }
  }
}
