{
  "updated": "2026-02-27T08:00:00.000Z",
  "airports": {
    "KPOC": {
      "name": "Brackett Field",
      "metar": "",
      "metarTime": "",
      "taf": "",
      "tafTime": ""
    },
    "KCCB": {
      "name": "Cable Airport",
      "metar": "METAR KCCB 270755Z AUTO 11003KT 10SM CLR 21/07 A3003 RMK AO2",
      "metarTime": "2026-02-27T08:00:00.000Z",
      "taf": "",
      "tafTime": ""
    },
    "KRAL": {
      "name": "Riverside Municipal",
      "metar": "METAR KRAL 270753Z AUTO 00000KT 10SM CLR 19/11 A3002 RMK AO2 SLP150 T01890106 403000111",
      "metarTime": "2026-02-27T08:00:00.000Z",
      "taf": "",
      "tafTime": ""
    }
  }
}
