{
  "updated": "2026-03-05T12:16:00.000Z",
  "airports": {
    "KPOC": {
      "name": "Brackett Field",
      "metar": "",
      "metarTime": "",
      "taf": "",
      "tafTime": ""
    },
    "KCCB": {
      "name": "Cable Airport",
      "metar": "METAR KCCB 051215Z AUTO 03004KT 2 1/2SM BR OVC004 12/12 A2989 RMK AO2",
      "metarTime": "2026-03-05T12:15:00.000Z",
      "taf": "",
      "tafTime": ""
    },
    "KRAL": {
      "name": "Riverside Municipal",
      "metar": "SPECI KRAL 051216Z AUTO 21003KT 6SM BR FEW007 BKN014 12/11 A2989 RMK AO2 T01170106",
      "metarTime": "2026-03-05T12:16:00.000Z",
      "taf": "",
      "tafTime": ""
    }
  }
}
