{
  "updated": "2026-05-30T11:00:00.000Z",
  "airports": {
    "KPOC": {
      "name": "Brackett Field",
      "metar": "",
      "metarTime": "",
      "taf": "",
      "tafTime": ""
    },
    "KCCB": {
      "name": "Cable Airport",
      "metar": "METAR KCCB 301055Z AUTO 05004KT 10SM CLR 13/10 A3000 RMK AO2",
      "metarTime": "2026-05-30T11:00:00.000Z",
      "taf": "",
      "tafTime": ""
    },
    "KRAL": {
      "name": "Riverside Municipal",
      "metar": "METAR KRAL 301053Z AUTO 00000KT 10SM CLR 13/10 A3001 RMK AO2 SLP148 T01280100",
      "metarTime": "2026-05-30T11:00:00.000Z",
      "taf": "",
      "tafTime": ""
    }
  }
}
