{
  "updated": "2026-03-12T03:15:00.000Z",
  "airports": {
    "KPOC": {
      "name": "Brackett Field",
      "metar": "METAR KPOC 120247Z 27005KT 10SM CLR 21/12 A3020",
      "metarTime": "2026-03-12T03:00:00.000Z",
      "taf": "",
      "tafTime": ""
    },
    "KCCB": {
      "name": "Cable Airport",
      "metar": "METAR KCCB 120315Z AUTO 00000KT 10SM 21/11 A3020 RMK AO2",
      "metarTime": "2026-03-12T03:15:00.000Z",
      "taf": "",
      "tafTime": ""
    },
    "KRAL": {
      "name": "Riverside Municipal",
      "metar": "METAR KRAL 120253Z 29003KT 10SM CLR 22/11 A3019 RMK AO2 SLP211 T02220111 53006",
      "metarTime": "2026-03-12T03:00:00.000Z",
      "taf": "",
      "tafTime": ""
    }
  }
}
