{
  "updated": "2026-04-01T01:15:00.000Z",
  "airports": {
    "KPOC": {
      "name": "Brackett Field",
      "metar": "METAR KPOC 010047Z 24009KT 10SM SCT020 18/14 A2996",
      "metarTime": "2026-04-01T01:00:00.000Z",
      "taf": "",
      "tafTime": ""
    },
    "KCCB": {
      "name": "Cable Airport",
      "metar": "METAR KCCB 010115Z AUTO 26010KT 10SM FEW019 SCT023 SCT029 18/15 A2994 RMK AO2",
      "metarTime": "2026-04-01T01:15:00.000Z",
      "taf": "",
      "tafTime": ""
    },
    "KRAL": {
      "name": "Riverside Municipal",
      "metar": "METAR KRAL 010053Z 28007G19KT 10SM BKN038 BKN080 BKN100 19/14 A2993 RMK AO2 RAB33E44 SLP123 P0000 T01890139",
      "metarTime": "2026-04-01T01:00:00.000Z",
      "taf": "",
      "tafTime": ""
    }
  }
}
