{
  "updated": "2026-06-25T22:00:00.000Z",
  "airports": {
    "KPOC": {
      "name": "Brackett Field",
      "metar": "METAR KPOC 252147Z 25007KT 10SM CLR 27/13 A2991",
      "metarTime": "2026-06-25T22:00:00.000Z",
      "taf": "",
      "tafTime": ""
    },
    "KCCB": {
      "name": "Cable Airport",
      "metar": "METAR KCCB 252135Z AUTO 26006G11KT 10SM CLR 27/12 A2991 RMK AO2",
      "metarTime": "2026-06-25T21:35:00.000Z",
      "taf": "",
      "tafTime": ""
    },
    "KRAL": {
      "name": "Riverside Municipal",
      "metar": "METAR KRAL 252153Z 29007KT 10SM CLR 31/11 A2987 RMK AO2 SLP098 T03110111",
      "metarTime": "2026-06-25T22:00:00.000Z",
      "taf": "",
      "tafTime": ""
    }
  }
}
