{
  "updated": "2026-05-06T15:00:00.000Z",
  "airports": {
    "KPOC": {
      "name": "Brackett Field",
      "metar": "METAR KPOC 061447Z 00000KT 10SM CLR 13/08 A3009",
      "metarTime": "2026-05-06T15:00:00.000Z",
      "taf": "",
      "tafTime": ""
    },
    "KCCB": {
      "name": "Cable Airport",
      "metar": "METAR KCCB 061455Z AUTO 00000KT 10SM CLR 13/08 A3008 RMK AO2",
      "metarTime": "2026-05-06T15:00:00.000Z",
      "taf": "",
      "tafTime": ""
    },
    "KRAL": {
      "name": "Riverside Municipal",
      "metar": "METAR KRAL 061453Z 00000KT 10SM CLR 13/09 A3008 RMK AO2 SLP176 T01330089 51010",
      "metarTime": "2026-05-06T15:00:00.000Z",
      "taf": "",
      "tafTime": ""
    }
  }
}
