{
  "updated": "2026-03-03T01:00:00.000Z",
  "airports": {
    "KPOC": {
      "name": "Brackett Field",
      "metar": "",
      "metarTime": "",
      "taf": "",
      "tafTime": ""
    },
    "KCCB": {
      "name": "Cable Airport",
      "metar": "METAR KCCB 030055Z AUTO 24008KT 10SM CLR 19/06 A2994 RMK AO2",
      "metarTime": "2026-03-03T01:00:00.000Z",
      "taf": "",
      "tafTime": ""
    },
    "KRAL": {
      "name": "Riverside Municipal",
      "metar": "METAR KRAL 030053Z 28008G16KT 10SM CLR 20/08 A2993 RMK AO2 SLP122 T02000083",
      "metarTime": "2026-03-03T01:00:00.000Z",
      "taf": "",
      "tafTime": ""
    }
  }
}
