{
  "updated": "2026-03-23T11:15:00.000Z",
  "airports": {
    "KPOC": {
      "name": "Brackett Field",
      "metar": "",
      "metarTime": "",
      "taf": "",
      "tafTime": ""
    },
    "KCCB": {
      "name": "Cable Airport",
      "metar": "METAR KCCB 231115Z AUTO 28003KT 10SM CLR 17/08 A2990 RMK AO2",
      "metarTime": "2026-03-23T11:15:00.000Z",
      "taf": "",
      "tafTime": ""
    },
    "KRAL": {
      "name": "Riverside Municipal",
      "metar": "METAR KRAL 231053Z AUTO 00000KT 10SM CLR 16/10 A2989 RMK AO2 SLP106 T01560100",
      "metarTime": "2026-03-23T11:00:00.000Z",
      "taf": "",
      "tafTime": ""
    }
  }
}
