{
  "updated": "2026-03-14T21:35:00.000Z",
  "airports": {
    "KPOC": {
      "name": "Brackett Field",
      "metar": "METAR KPOC 142047Z 00000KT 10SM CLR 27/02 A2993",
      "metarTime": "2026-03-14T21:00:00.000Z",
      "taf": "",
      "tafTime": ""
    },
    "KCCB": {
      "name": "Cable Airport",
      "metar": "METAR KCCB 142135Z AUTO 21008G15KT 10SM CLR 27/M01 A2992 RMK AO2",
      "metarTime": "2026-03-14T21:35:00.000Z",
      "taf": "",
      "tafTime": ""
    },
    "KRAL": {
      "name": "Riverside Municipal",
      "metar": "METAR KRAL 142053Z 28010G15KT 10SM CLR 29/03 A2990 RMK AO2 SLP109 T02940028 58021",
      "metarTime": "2026-03-14T21:00:00.000Z",
      "taf": "",
      "tafTime": ""
    }
  }
}
