{
  "updated": "2026-03-21T18:15:00.000Z",
  "airports": {
    "KPOC": {
      "name": "Brackett Field",
      "metar": "METAR KPOC 211747Z 18003KT 10SM CLR 27/10 A3000",
      "metarTime": "2026-03-21T18:00:00.000Z",
      "taf": "",
      "tafTime": ""
    },
    "KCCB": {
      "name": "Cable Airport",
      "metar": "METAR KCCB 211815Z AUTO VRB05KT 10SM CLR 27/08 A2999 RMK AO2",
      "metarTime": "2026-03-21T18:15:00.000Z",
      "taf": "",
      "tafTime": ""
    },
    "KRAL": {
      "name": "Riverside Municipal",
      "metar": "METAR KRAL 211753Z 00000KT 10SM CLR 27/08 A2997 RMK AO2 SLP131 T02720078 10278 20161 51003",
      "metarTime": "2026-03-21T18:00:00.000Z",
      "taf": "",
      "tafTime": ""
    }
  }
}
