{
  "updated": "2026-05-11T14:15:00.000Z",
  "airports": {
    "KPOC": {
      "name": "Brackett Field",
      "metar": "",
      "metarTime": "",
      "taf": "",
      "tafTime": ""
    },
    "KCCB": {
      "name": "Cable Airport",
      "metar": "METAR KCCB 111415Z AUTO 09006KT 10SM CLR 21/12 A2996 RMK AO2",
      "metarTime": "2026-05-11T14:15:00.000Z",
      "taf": "",
      "tafTime": ""
    },
    "KRAL": {
      "name": "Riverside Municipal",
      "metar": "METAR KRAL 111353Z AUTO 07004KT 9SM CLR 16/13 A2996 RMK AO2 SLP131 T01610133",
      "metarTime": "2026-05-11T14:00:00.000Z",
      "taf": "",
      "tafTime": ""
    }
  }
}
