{
  "updated": "2026-06-21T22:15:00.000Z",
  "airports": {
    "KPOC": {
      "name": "Brackett Field",
      "metar": "METAR KPOC 212147Z 25008KT 10SM CLR 25/13 A2989",
      "metarTime": "2026-06-21T22:00:00.000Z",
      "taf": "",
      "tafTime": ""
    },
    "KCCB": {
      "name": "Cable Airport",
      "metar": "METAR KCCB 212215Z AUTO 24011KT 10SM CLR 25/12 A2988 RMK AO2",
      "metarTime": "2026-06-21T22:15:00.000Z",
      "taf": "",
      "tafTime": ""
    },
    "KRAL": {
      "name": "Riverside Municipal",
      "metar": "METAR KRAL 212153Z 27009G18KT 240V310 10SM CLR 28/12 A2986 RMK AO2 SLP096 T02780122",
      "metarTime": "2026-06-21T22:00:00.000Z",
      "taf": "",
      "tafTime": ""
    }
  }
}
