{
  "updated": "2026-06-03T19:00:00.000Z",
  "airports": {
    "KPOC": {
      "name": "Brackett Field",
      "metar": "METAR KPOC 031847Z 25008KT 7SM CLR 23/14 A2999",
      "metarTime": "2026-06-03T19:00:00.000Z",
      "taf": "",
      "tafTime": ""
    },
    "KCCB": {
      "name": "Cable Airport",
      "metar": "METAR KCCB 031850Z AUTO 24007KT 210V270 8SM CLR 23/13 A2999 RMK AO2",
      "metarTime": "2026-06-03T19:00:00.000Z",
      "taf": "",
      "tafTime": ""
    },
    "KRAL": {
      "name": "Riverside Municipal",
      "metar": "METAR KRAL 031853Z 25005KT 10SM CLR 25/13 A2997 RMK AO2 SLP134 T02500128",
      "metarTime": "2026-06-03T19:00:00.000Z",
      "taf": "",
      "tafTime": ""
    }
  }
}
