{
  "updated": "2026-04-19T21:35:00.000Z",
  "airports": {
    "KPOC": {
      "name": "Brackett Field",
      "metar": "METAR KPOC 192047Z 25006KT 10SM CLR 26/07 A2992",
      "metarTime": "2026-04-19T21:00:00.000Z",
      "taf": "",
      "tafTime": ""
    },
    "KCCB": {
      "name": "Cable Airport",
      "metar": "METAR KCCB 192135Z AUTO 25009G15KT 10SM CLR 26/04 A2991 RMK AO2",
      "metarTime": "2026-04-19T21:35:00.000Z",
      "taf": "",
      "tafTime": ""
    },
    "KRAL": {
      "name": "Riverside Municipal",
      "metar": "METAR KRAL 192053Z VRB05KT 10SM CLR 27/06 A2990 RMK AO2 SLP109 T02720056 58012",
      "metarTime": "2026-04-19T21:00:00.000Z",
      "taf": "",
      "tafTime": ""
    }
  }
}
