{
  "updated": "2026-03-14T23:35:00.000Z",
  "airports": {
    "KPOC": {
      "name": "Brackett Field",
      "metar": "",
      "metarTime": "",
      "taf": "",
      "tafTime": ""
    },
    "KCCB": {
      "name": "Cable Airport",
      "metar": "METAR KCCB 142335Z AUTO 24011KT 10SM CLR 26/05 A2991 RMK AO2",
      "metarTime": "2026-03-14T23:35:00.000Z",
      "taf": "",
      "tafTime": ""
    },
    "KRAL": {
      "name": "Riverside Municipal",
      "metar": "METAR KRAL 142253Z 27010G18KT 10SM CLR 29/02 A2988 RMK AO2 SLP101 T02890022",
      "metarTime": "2026-03-14T23:00:00.000Z",
      "taf": "",
      "tafTime": ""
    }
  }
}
