{
  "updated": "2026-06-01T22:05:00.000Z",
  "airports": {
    "KPOC": {
      "name": "Brackett Field",
      "metar": "METAR KPOC 012147Z 27009KT 10SM CLR 28/12 A2993",
      "metarTime": "2026-06-01T22:00:00.000Z",
      "taf": "",
      "tafTime": ""
    },
    "KCCB": {
      "name": "Cable Airport",
      "metar": "METAR KCCB 012205Z AUTO 26012G18KT 10SM CLR 27/10 A2993 RMK AO2",
      "metarTime": "2026-06-01T22:05:00.000Z",
      "taf": "",
      "tafTime": ""
    },
    "KRAL": {
      "name": "Riverside Municipal",
      "metar": "METAR KRAL 012153Z 27009G21KT 10SM CLR 30/12 A2989 RMK AO2 SLP107 T03000117",
      "metarTime": "2026-06-01T22:00:00.000Z",
      "taf": "",
      "tafTime": ""
    }
  }
}
