{
  "updated": "2026-05-03T17:00:00.000Z",
  "airports": {
    "KPOC": {
      "name": "Brackett Field",
      "metar": "METAR KPOC 031647Z 23005KT 2SM BR OVC007 14/13 A2997",
      "metarTime": "2026-05-03T17:00:00.000Z",
      "taf": "",
      "tafTime": ""
    },
    "KCCB": {
      "name": "Cable Airport",
      "metar": "METAR KCCB 031655Z AUTO 22004KT 2SM BR SCT004 BKN007 BKN014 14/14 A2995 RMK AO2",
      "metarTime": "2026-05-03T17:00:00.000Z",
      "taf": "",
      "tafTime": ""
    },
    "KRAL": {
      "name": "Riverside Municipal",
      "metar": "SPECI KRAL 031657Z COR 28004KT 5SM BKN005 BKN010 OVC018 14/14 A2995 RMK AO2 CIG 004V008 T01440139",
      "metarTime": "2026-05-03T16:57:00.000Z",
      "taf": "",
      "tafTime": ""
    }
  }
}
