{
  "updated": "2026-03-21T20:00:00.000Z",
  "airports": {
    "KPOC": {
      "name": "Brackett Field",
      "metar": "METAR KPOC 211847Z 22003KT 10SM CLR 29/09 A2998",
      "metarTime": "2026-03-21T19:00:00.000Z",
      "taf": "",
      "tafTime": ""
    },
    "KCCB": {
      "name": "Cable Airport",
      "metar": "METAR KCCB 211955Z AUTO 24009KT 220V280 10SM CLR 30/05 A2996 RMK AO2",
      "metarTime": "2026-03-21T20:00:00.000Z",
      "taf": "",
      "tafTime": ""
    },
    "KRAL": {
      "name": "Riverside Municipal",
      "metar": "METAR KRAL 211953Z COR 2760/08KT 10SM CLR 31/07 A2993 RMK AO2 SLP120 T03110067",
      "metarTime": "2026-03-21T20:00:00.000Z",
      "taf": "",
      "tafTime": ""
    }
  }
}
