{
  "updated": "2026-02-28T07:15:00.000Z",
  "airports": {
    "KPOC": {
      "name": "Brackett Field",
      "metar": "",
      "metarTime": "",
      "taf": "",
      "tafTime": ""
    },
    "KCCB": {
      "name": "Cable Airport",
      "metar": "METAR KCCB 280715Z AUTO 01005KT 10SM CLR 24/04 A2995 RMK AO2",
      "metarTime": "2026-02-28T07:15:00.000Z",
      "taf": "",
      "tafTime": ""
    },
    "KRAL": {
      "name": "Riverside Municipal",
      "metar": "METAR KRAL 280653Z AUTO 00000KT 10SM CLR 20/11 A2994 RMK AO2 SLP121 T02000111",
      "metarTime": "2026-02-28T07:00:00.000Z",
      "taf": "",
      "tafTime": ""
    }
  }
}
