{
  "updated": "2026-07-22T20:00:00.000Z",
  "airports": {
    "KPOC": {
      "name": "Brackett Field",
      "metar": "METAR KPOC 221947Z 29008KT 10SM CLR 30/18 A2998",
      "metarTime": "2026-07-22T20:00:00.000Z",
      "taf": "",
      "tafTime": ""
    },
    "KCCB": {
      "name": "Cable Airport",
      "metar": "METAR KCCB 221955Z AUTO 25009G14KT 10SM CLR 30/17 A2999 RMK AO2",
      "metarTime": "2026-07-22T20:00:00.000Z",
      "taf": "",
      "tafTime": ""
    },
    "KRAL": {
      "name": "Riverside Municipal",
      "metar": "METAR KRAL 221953Z VRB05KT 10SM CLR 32/17 A2995 RMK AO2 SLP126 T03220167",
      "metarTime": "2026-07-22T20:00:00.000Z",
      "taf": "",
      "tafTime": ""
    }
  }
}
