{
  "updated": "2026-03-16T21:00:00.000Z",
  "airports": {
    "KPOC": {
      "name": "Brackett Field",
      "metar": "METAR KPOC 162047Z 27005KT 10SM CLR 35/05 A2997",
      "metarTime": "2026-03-16T21:00:00.000Z",
      "taf": "",
      "tafTime": ""
    },
    "KCCB": {
      "name": "Cable Airport",
      "metar": "METAR KCCB 162055Z AUTO 24007KT 10SM CLR 32/M01 A2997 RMK AO2",
      "metarTime": "2026-03-16T21:00:00.000Z",
      "taf": "",
      "tafTime": ""
    },
    "KRAL": {
      "name": "Riverside Municipal",
      "metar": "METAR KRAL 162053Z 34009G21KT 310V010 10SM CLR 34/00 A2993 RMK AO2 PK WND 36026/2006 SLP120 T03440000 58022",
      "metarTime": "2026-03-16T21:00:00.000Z",
      "taf": "",
      "tafTime": ""
    }
  }
}
