{
  "updated": "2026-03-29T16:15:00.000Z",
  "airports": {
    "KPOC": {
      "name": "Brackett Field",
      "metar": "METAR KPOC 291547Z VRB04KT 10SM CLR 22/03 A2995",
      "metarTime": "2026-03-29T16:00:00.000Z",
      "taf": "",
      "tafTime": ""
    },
    "KCCB": {
      "name": "Cable Airport",
      "metar": "METAR KCCB 291615Z AUTO 00000KT 10SM CLR 24/M06 A2995 RMK AO2",
      "metarTime": "2026-03-29T16:15:00.000Z",
      "taf": "",
      "tafTime": ""
    },
    "KRAL": {
      "name": "Riverside Municipal",
      "metar": "METAR KRAL 291553Z 00000KT 10SM CLR 20/06 A2994 RMK AO2 SLP125 T02000056",
      "metarTime": "2026-03-29T16:00:00.000Z",
      "taf": "",
      "tafTime": ""
    }
  }
}
