{
  "updated": "2026-07-23T23:35:00.000Z",
  "airports": {
    "KPOC": {
      "name": "Brackett Field",
      "metar": "METAR KPOC 232247Z 24013KT 10SM CLR 35/18 A2984",
      "metarTime": "2026-07-23T23:00:00.000Z",
      "taf": "",
      "tafTime": ""
    },
    "KCCB": {
      "name": "Cable Airport",
      "metar": "METAR KCCB 232335Z AUTO 25014G19KT 10SM CLR 35/17 A2985 RMK AO2",
      "metarTime": "2026-07-23T23:35:00.000Z",
      "taf": "",
      "tafTime": ""
    },
    "KRAL": {
      "name": "Riverside Municipal",
      "metar": "METAR KRAL 232253Z 26014G19KT 10SM CLR 37/14 A2980 RMK AO2 SLP074 T03720139",
      "metarTime": "2026-07-23T23:00:00.000Z",
      "taf": "",
      "tafTime": ""
    }
  }
}
