{
  "updated": "2026-02-05T14:35:00.000Z",
  "airports": {
    "KPOC": {
      "name": "Brackett Field",
      "metar": "",
      "metarTime": "",
      "taf": "",
      "tafTime": ""
    },
    "KCCB": {
      "name": "Cable Airport",
      "metar": "METAR KCCB 051435Z AUTO 13004KT 10SM CLR 17/M08 A3008 RMK AO2",
      "metarTime": "2026-02-05T14:35:00.000Z",
      "taf": "",
      "tafTime": ""
    },
    "KRAL": {
      "name": "Riverside Municipal",
      "metar": "METAR KRAL 051353Z AUTO 10003KT 10SM CLR 13/M03 A3007 RMK AO2 SLP169 T01281028",
      "metarTime": "2026-02-05T14:00:00.000Z",
      "taf": "",
      "tafTime": ""
    }
  }
}
