{
  "updated": "2026-07-09T21:00:00.000Z",
  "airports": {
    "KPOC": {
      "name": "Brackett Field",
      "metar": "METAR KPOC 092047Z 27007KT 10SM CLR 31/16 A2989",
      "metarTime": "2026-07-09T21:00:00.000Z",
      "taf": "",
      "tafTime": ""
    },
    "KCCB": {
      "name": "Cable Airport",
      "metar": "METAR KCCB 092055Z AUTO 24012KT 9SM CLR 32/12 A2989 RMK AO2",
      "metarTime": "2026-07-09T21:00:00.000Z",
      "taf": "",
      "tafTime": ""
    },
    "KRAL": {
      "name": "Riverside Municipal",
      "metar": "METAR KRAL 092053Z 10SM CLR 34/14 A2985 RMK AO2 SLP091 T03440139 58010",
      "metarTime": "2026-07-09T21:00:00.000Z",
      "taf": "",
      "tafTime": ""
    }
  }
}
