{
  "updated": "2026-05-02T10:35:00.000Z",
  "airports": {
    "KPOC": {
      "name": "Brackett Field",
      "metar": "",
      "metarTime": "",
      "taf": "",
      "tafTime": ""
    },
    "KCCB": {
      "name": "Cable Airport",
      "metar": "METAR KCCB 021035Z AUTO 00000KT 10SM CLR 14/12 A2992 RMK AO2",
      "metarTime": "2026-05-02T10:35:00.000Z",
      "taf": "",
      "tafTime": ""
    },
    "KRAL": {
      "name": "Riverside Municipal",
      "metar": "METAR KRAL 020953Z AUTO 00000KT 9SM CLR 14/12 A2992 RMK AO2 SLP118 T01440122",
      "metarTime": "2026-05-02T10:00:00.000Z",
      "taf": "",
      "tafTime": ""
    }
  }
}
