{
  "updated": "2026-03-10T12:15:00.000Z",
  "airports": {
    "KPOC": {
      "name": "Brackett Field",
      "metar": "",
      "metarTime": "",
      "taf": "",
      "tafTime": ""
    },
    "KCCB": {
      "name": "Cable Airport",
      "metar": "METAR KCCB 101215Z AUTO 00000KT 7SM BKN008 OVC017 12/12 A2999 RMK AO2",
      "metarTime": "2026-03-10T12:15:00.000Z",
      "taf": "",
      "tafTime": ""
    },
    "KRAL": {
      "name": "Riverside Municipal",
      "metar": "METAR KRAL 101153Z AUTO 00000KT 10SM FEW013 11/08 A2999 RMK AO2 SLP144 T01060083 10144 20106 53006",
      "metarTime": "2026-03-10T12:00:00.000Z",
      "taf": "",
      "tafTime": ""
    }
  }
}
