{
  "updated": "2026-05-02T19:15:00.000Z",
  "airports": {
    "KPOC": {
      "name": "Brackett Field",
      "metar": "METAR KPOC 021847Z 27004KT 5SM SCT025 18/13 A2997 HZ",
      "metarTime": "2026-05-02T19:00:00.000Z",
      "taf": "",
      "tafTime": ""
    },
    "KCCB": {
      "name": "Cable Airport",
      "metar": "METAR KCCB 021915Z AUTO 25005KT 7SM CLR 22/13 A2993 RMK AO2",
      "metarTime": "2026-05-02T19:15:00.000Z",
      "taf": "",
      "tafTime": ""
    },
    "KRAL": {
      "name": "Riverside Municipal",
      "metar": "METAR KRAL 021853Z COR VRB05KT 6SM HZ CLR 22/13 A2993 RMK AO2 SLP123 T02170133",
      "metarTime": "2026-05-02T19:00:00.000Z",
      "taf": "",
      "tafTime": ""
    }
  }
}
