{
  "updated": "2026-02-08T20:00:00.000Z",
  "airports": {
    "KPOC": {
      "name": "Brackett Field",
      "metar": "METAR KPOC 081947Z VRB03KT 10SM CLR 26/M01 A3024",
      "metarTime": "2026-02-08T20:00:00.000Z",
      "taf": "",
      "tafTime": ""
    },
    "KCCB": {
      "name": "Cable Airport",
      "metar": "METAR KCCB 081955Z AUTO 00000KT 10SM CLR 25/M04 A3023 RMK AO2",
      "metarTime": "2026-02-08T20:00:00.000Z",
      "taf": "",
      "tafTime": ""
    },
    "KRAL": {
      "name": "Riverside Municipal",
      "metar": "METAR KRAL 081953Z 03003KT 10SM CLR 27/M02 A3021 RMK AO2 SLP216 T02721017 $",
      "metarTime": "2026-02-08T20:00:00.000Z",
      "taf": "",
      "tafTime": ""
    }
  }
}
