{
  "updated": "2026-04-29T17:00:00.000Z",
  "airports": {
    "KPOC": {
      "name": "Brackett Field",
      "metar": "METAR KPOC 291647Z VRB03KT 10SM CLR 18/06 A3005",
      "metarTime": "2026-04-29T17:00:00.000Z",
      "taf": "",
      "tafTime": ""
    },
    "KCCB": {
      "name": "Cable Airport",
      "metar": "METAR KCCB 291655Z AUTO 00000KT 10SM CLR 17/04 A3004 RMK AO2",
      "metarTime": "2026-04-29T17:00:00.000Z",
      "taf": "",
      "tafTime": ""
    },
    "KRAL": {
      "name": "Riverside Municipal",
      "metar": "METAR KRAL 291653Z VRB03KT 10SM CLR 19/06 A3004 RMK AO2 SLP159 T01890061",
      "metarTime": "2026-04-29T17:00:00.000Z",
      "taf": "",
      "tafTime": ""
    }
  }
}
