{
  "updated": "2026-05-03T20:15:00.000Z",
  "airports": {
    "KPOC": {
      "name": "Brackett Field",
      "metar": "METAR KPOC 031947Z 28004KT 4SM BR OVC015 16/13 A2996",
      "metarTime": "2026-05-03T20:00:00.000Z",
      "taf": "",
      "tafTime": ""
    },
    "KCCB": {
      "name": "Cable Airport",
      "metar": "METAR KCCB 032015Z AUTO 28006KT 10SM BKN008 BKN012 BKN035 14/14 A2994 RMK AO2",
      "metarTime": "2026-05-03T20:15:00.000Z",
      "taf": "",
      "tafTime": ""
    },
    "KRAL": {
      "name": "Riverside Municipal",
      "metar": "METAR KRAL 031953Z 27006KT 10SM BKN018 OVC023 17/12 A2994 RMK AO2 SLP128 T01720122",
      "metarTime": "2026-05-03T20:00:00.000Z",
      "taf": "",
      "tafTime": ""
    }
  }
}
