{
  "updated": "2026-03-17T12:35:00.000Z",
  "airports": {
    "KPOC": {
      "name": "Brackett Field",
      "metar": "",
      "metarTime": "",
      "taf": "",
      "tafTime": ""
    },
    "KCCB": {
      "name": "Cable Airport",
      "metar": "METAR KCCB 171235Z AUTO 03005KT 10SM CLR 22/01 A2995 RMK AO2",
      "metarTime": "2026-03-17T12:35:00.000Z",
      "taf": "",
      "tafTime": ""
    },
    "KRAL": {
      "name": "Riverside Municipal",
      "metar": "METAR KRAL 171153Z AUTO 05006KT 10SM CLR 19/04 A2994 RMK AO2 SLP120 T01940039 10239 20167 55004",
      "metarTime": "2026-03-17T12:00:00.000Z",
      "taf": "",
      "tafTime": ""
    }
  }
}
