{
  "updated": "2026-03-07T01:00:00.000Z",
  "airports": {
    "KPOC": {
      "name": "Brackett Field",
      "metar": "METAR KPOC 070047Z 19005KT 10SM CLR 22/M07 A2999",
      "metarTime": "2026-03-07T01:00:00.000Z",
      "taf": "",
      "tafTime": ""
    },
    "KCCB": {
      "name": "Cable Airport",
      "metar": "METAR KCCB 070055Z AUTO 12007KT 10SM CLR 21/M12 A2998 RMK AO2",
      "metarTime": "2026-03-07T01:00:00.000Z",
      "taf": "",
      "tafTime": ""
    },
    "KRAL": {
      "name": "Riverside Municipal",
      "metar": "METAR KRAL 070053Z 36007G19KT 10SM CLR 21/M08 A2998 RMK AO2 SLP140 T02111083",
      "metarTime": "2026-03-07T01:00:00.000Z",
      "taf": "",
      "tafTime": ""
    }
  }
}
