{
  "updated": "2026-02-16T19:00:00.000Z",
  "airports": {
    "KPOC": {
      "name": "Brackett Field",
      "metar": "METAR KPOC 161847Z 07007KT 1 1/2SM VV007 11/09 A2981 -RABR",
      "metarTime": "2026-02-16T19:00:00.000Z",
      "taf": "",
      "tafTime": ""
    },
    "KCCB": {
      "name": "Cable Airport",
      "metar": "METAR KCCB 161855Z AUTO 06007KT 2SM RA SCT023 BKN030 BKN037 11/11 A2980 RMK AO2 P0008",
      "metarTime": "2026-02-16T19:00:00.000Z",
      "taf": "",
      "tafTime": ""
    },
    "KRAL": {
      "name": "Riverside Municipal",
      "metar": "METAR KRAL 161853Z 15012G18KT 10SM -RA BKN038 OVC060 13/08 A2981 RMK AO2 RAB14 SLP083 P0001 T01330083",
      "metarTime": "2026-02-16T19:00:00.000Z",
      "taf": "",
      "tafTime": ""
    }
  }
}
