{
  "updated": "2026-04-11T11:15:00.000Z",
  "airports": {
    "KPOC": {
      "name": "Brackett Field",
      "metar": "",
      "metarTime": "",
      "taf": "",
      "tafTime": ""
    },
    "KCCB": {
      "name": "Cable Airport",
      "metar": "METAR KCCB 111115Z AUTO 26005KT 10SM CLR 14/14 A2996 RMK AO2",
      "metarTime": "2026-04-11T11:15:00.000Z",
      "taf": "",
      "tafTime": ""
    },
    "KRAL": {
      "name": "Riverside Municipal",
      "metar": "METAR KRAL 111053Z AUTO 00000KT 10SM FEW047 SCT060 15/11 A2996 RMK AO2 SLP133 T01500111",
      "metarTime": "2026-04-11T11:00:00.000Z",
      "taf": "",
      "tafTime": ""
    }
  }
}
