{
  "updated": "2026-06-24T06:15:00.000Z",
  "airports": {
    "KPOC": {
      "name": "Brackett Field",
      "metar": "",
      "metarTime": "",
      "taf": "",
      "tafTime": ""
    },
    "KCCB": {
      "name": "Cable Airport",
      "metar": "METAR KCCB 240615Z AUTO 27006KT 10SM 20/15 A3003 RMK AO2",
      "metarTime": "2026-06-24T06:15:00.000Z",
      "taf": "",
      "tafTime": ""
    },
    "KRAL": {
      "name": "Riverside Municipal",
      "metar": "METAR KRAL 240553Z AUTO 27005KT 10SM FU CLR 21/14 A3002 RMK AO2 SLP150 T02110139 10294 20211 51016",
      "metarTime": "2026-06-24T06:00:00.000Z",
      "taf": "",
      "tafTime": ""
    }
  }
}
