{
  "updated": "2026-03-16T09:35:00.000Z",
  "airports": {
    "KPOC": {
      "name": "Brackett Field",
      "metar": "",
      "metarTime": "",
      "taf": "",
      "tafTime": ""
    },
    "KCCB": {
      "name": "Cable Airport",
      "metar": "METAR KCCB 160935Z AUTO 08004KT 10SM 19/09 A3001 RMK AO2",
      "metarTime": "2026-03-16T09:35:00.000Z",
      "taf": "",
      "tafTime": ""
    },
    "KRAL": {
      "name": "Riverside Municipal",
      "metar": "METAR KRAL 160853Z AUTO 00000KT 10SM CLR 17/12 A3001 RMK AO2 SLP147 T01670117 50005",
      "metarTime": "2026-03-16T09:00:00.000Z",
      "taf": "",
      "tafTime": ""
    }
  }
}
