{
  "updated": "2026-03-10T05:00:00.000Z",
  "airports": {
    "KPOC": {
      "name": "Brackett Field",
      "metar": "METAR KPOC 100347Z 27007KT 10SM CLR 18/13 A2998 RMK LAST",
      "metarTime": "2026-03-10T04:00:00.000Z",
      "taf": "",
      "tafTime": ""
    },
    "KCCB": {
      "name": "Cable Airport",
      "metar": "METAR KCCB 100455Z AUTO 28004KT 10SM 14/13 A2996 RMK AO2",
      "metarTime": "2026-03-10T05:00:00.000Z",
      "taf": "",
      "tafTime": ""
    },
    "KRAL": {
      "name": "Riverside Municipal",
      "metar": "METAR KRAL 100453Z AUTO VRB03KT 10SM CLR 15/11 A2996 RMK AO2 SLP134 T01500106",
      "metarTime": "2026-03-10T05:00:00.000Z",
      "taf": "",
      "tafTime": ""
    }
  }
}
