{
  "updated": "2026-06-09T23:00:00.000Z",
  "airports": {
    "KPOC": {
      "name": "Brackett Field",
      "metar": "METAR KPOC 092247Z 24010KT 10SM CLR 28/14 A2986",
      "metarTime": "2026-06-09T23:00:00.000Z",
      "taf": "",
      "tafTime": ""
    },
    "KCCB": {
      "name": "Cable Airport",
      "metar": "METAR KCCB 092235Z AUTO VRB04G15KT 10SM CLR 27/12 A2986 RMK AO2",
      "metarTime": "2026-06-09T22:35:00.000Z",
      "taf": "",
      "tafTime": ""
    },
    "KRAL": {
      "name": "Riverside Municipal",
      "metar": "METAR KRAL 092253Z 26012G21KT 10SM CLR 29/12 A2983 RMK AO2 SLP084 T02940122",
      "metarTime": "2026-06-09T23:00:00.000Z",
      "taf": "",
      "tafTime": ""
    }
  }
}
