{
  "updated": "2026-04-05T04:00:00.000Z",
  "airports": {
    "KPOC": {
      "name": "Brackett Field",
      "metar": "METAR KPOC 050247Z 23007KT 10SM CLR 26/M02 A2998",
      "metarTime": "2026-04-05T03:00:00.000Z",
      "taf": "",
      "tafTime": ""
    },
    "KCCB": {
      "name": "Cable Airport",
      "metar": "METAR KCCB 050355Z AUTO 00000KT 10SM CLR 22/M05 A3001 RMK AO2",
      "metarTime": "2026-04-05T04:00:00.000Z",
      "taf": "",
      "tafTime": ""
    },
    "KRAL": {
      "name": "Riverside Municipal",
      "metar": "METAR KRAL 050353Z AUTO 00000KT 10SM CLR 23/M02 A3001 RMK AO2 SLP145 T02281022",
      "metarTime": "2026-04-05T04:00:00.000Z",
      "taf": "",
      "tafTime": ""
    }
  }
}
