{
  "updated": "2026-04-09T04:00:00.000Z",
  "airports": {
    "KPOC": {
      "name": "Brackett Field",
      "metar": "METAR KPOC 090347Z 24004KT 10SM CLR 19/13 A2991",
      "metarTime": "2026-04-09T04:00:00.000Z",
      "taf": "",
      "tafTime": ""
    },
    "KCCB": {
      "name": "Cable Airport",
      "metar": "METAR KCCB 090355Z AUTO 25007KT 10SM 19/13 A2991 RMK AO2",
      "metarTime": "2026-04-09T04:00:00.000Z",
      "taf": "",
      "tafTime": ""
    },
    "KRAL": {
      "name": "Riverside Municipal",
      "metar": "METAR KRAL 090353Z AUTO 27004KT 10SM CLR 19/13 A2990 RMK AO2 SLP112 T01940128",
      "metarTime": "2026-04-09T04:00:00.000Z",
      "taf": "",
      "tafTime": ""
    }
  }
}
