{
  "updated": "2026-03-06T14:15:00.000Z",
  "airports": {
    "KPOC": {
      "name": "Brackett Field",
      "metar": "",
      "metarTime": "",
      "taf": "",
      "tafTime": ""
    },
    "KCCB": {
      "name": "Cable Airport",
      "metar": "METAR KCCB 061415Z AUTO 30005KT 10SM CLR 11/M04 A2999 RMK AO2",
      "metarTime": "2026-03-06T14:15:00.000Z",
      "taf": "",
      "tafTime": ""
    },
    "KRAL": {
      "name": "Riverside Municipal",
      "metar": "METAR KRAL 061353Z AUTO 03013G29KT 10SM CLR 15/M06 A3001 RMK AO2 PK WND 02029/1345 SLP149 T01501061",
      "metarTime": "2026-03-06T14:00:00.000Z",
      "taf": "",
      "tafTime": ""
    }
  }
}
