{
  "updated": "2026-02-11T09:35:00.000Z",
  "airports": {
    "KPOC": {
      "name": "Brackett Field",
      "metar": "",
      "metarTime": "",
      "taf": "",
      "tafTime": ""
    },
    "KCCB": {
      "name": "Cable Airport",
      "metar": "METAR KCCB 110935Z AUTO 08010KT 4SM BR FEW021 BKN030 OVC037 13/12 A2999 RMK AO2",
      "metarTime": "2026-02-11T09:35:00.000Z",
      "taf": "",
      "tafTime": ""
    },
    "KRAL": {
      "name": "Riverside Municipal",
      "metar": "METAR KRAL 110853Z AUTO 08010G16KT 10SM CLR 14/10 A3000 RMK AO2 SLP148 T01440100 51003 $",
      "metarTime": "2026-02-11T09:00:00.000Z",
      "taf": "",
      "tafTime": ""
    }
  }
}
