{
  "updated": "2026-02-26T01:00:00.000Z",
  "airports": {
    "KPOC": {
      "name": "Brackett Field",
      "metar": "METAR KPOC 260047Z 21007KT 10SM CLR 24/13 A3000",
      "metarTime": "2026-02-26T01:00:00.000Z",
      "taf": "",
      "tafTime": ""
    },
    "KCCB": {
      "name": "Cable Airport",
      "metar": "METAR KCCB 260055Z AUTO 25008KT 10SM CLR 25/09 A3000 RMK AO2",
      "metarTime": "2026-02-26T01:00:00.000Z",
      "taf": "",
      "tafTime": ""
    },
    "KRAL": {
      "name": "Riverside Municipal",
      "metar": "METAR KRAL 260053Z 27006KT 10SM CLR 25/11 A2998 RMK AO2 SLP139 T02500111",
      "metarTime": "2026-02-26T01:00:00.000Z",
      "taf": "",
      "tafTime": ""
    }
  }
}
