{
  "updated": "2026-04-03T21:00:00.000Z",
  "airports": {
    "KPOC": {
      "name": "Brackett Field",
      "metar": "METAR KPOC 032047Z 26009KT 10SM CLR 24/08 A3001",
      "metarTime": "2026-04-03T21:00:00.000Z",
      "taf": "",
      "tafTime": ""
    },
    "KCCB": {
      "name": "Cable Airport",
      "metar": "METAR KCCB 032055Z AUTO 24007G12KT 210V270 10SM CLR 25/05 A3001 RMK AO2",
      "metarTime": "2026-04-03T21:00:00.000Z",
      "taf": "",
      "tafTime": ""
    },
    "KRAL": {
      "name": "Riverside Municipal",
      "metar": "METAR KRAL 032053Z 01018G35KT 10SM CLR 26/M09 A3001 RMK AO2 PK WND 36037/2016 SLP149 T02611094 56007",
      "metarTime": "2026-04-03T21:00:00.000Z",
      "taf": "",
      "tafTime": ""
    }
  }
}
