{
  "updated": "2026-03-01T12:15:00.000Z",
  "airports": {
    "KPOC": {
      "name": "Brackett Field",
      "metar": "",
      "metarTime": "",
      "taf": "",
      "tafTime": ""
    },
    "KCCB": {
      "name": "Cable Airport",
      "metar": "METAR KCCB 011215Z AUTO 05004KT 10SM CLR 17/06 A2996 RMK AO2",
      "metarTime": "2026-03-01T12:15:00.000Z",
      "taf": "",
      "tafTime": ""
    },
    "KRAL": {
      "name": "Riverside Municipal",
      "metar": "METAR KRAL 011153Z AUTO 05003KT 10SM CLR 13/09 A2995 RMK AO2 SLP128 T01330089 10189 20133 55003",
      "metarTime": "2026-03-01T12:00:00.000Z",
      "taf": "",
      "tafTime": ""
    }
  }
}
