{
  "updated": "2026-05-16T23:25:00.000Z",
  "airports": {
    "KPOC": {
      "name": "Brackett Field",
      "metar": "METAR KPOC 162247Z 22010KT 10SM OVC040 21/12 A2986",
      "metarTime": "2026-05-16T23:00:00.000Z",
      "taf": "",
      "tafTime": ""
    },
    "KCCB": {
      "name": "Cable Airport",
      "metar": "METAR KCCB 162325Z AUTO 24011G16KT 10SM OVC032 20/12 A2985 RMK AO2",
      "metarTime": "2026-05-16T23:25:00.000Z",
      "taf": "",
      "tafTime": ""
    },
    "KRAL": {
      "name": "Riverside Municipal",
      "metar": "METAR KRAL 162253Z 27011G19KT 10SM CLR 24/12 A2983 RMK AO2 SLP087 T02390117",
      "metarTime": "2026-05-16T23:00:00.000Z",
      "taf": "",
      "tafTime": ""
    }
  }
}
