{
  "updated": "2026-03-20T21:15:00.000Z",
  "airports": {
    "KPOC": {
      "name": "Brackett Field",
      "metar": "METAR KPOC 202047Z 26007KT 10SM CLR 35/11 A2997",
      "metarTime": "2026-03-20T21:00:00.000Z",
      "taf": "",
      "tafTime": ""
    },
    "KCCB": {
      "name": "Cable Airport",
      "metar": "METAR KCCB 202115Z AUTO 24009KT 10SM CLR 35/07 A2997 RMK AO2",
      "metarTime": "2026-03-20T21:15:00.000Z",
      "taf": "",
      "tafTime": ""
    },
    "KRAL": {
      "name": "Riverside Municipal",
      "metar": "METAR KRAL 202053Z 26005KT 10SM CLR 38/06 A2994 RMK AO2 SLP120 T03780061 58018",
      "metarTime": "2026-03-20T21:00:00.000Z",
      "taf": "",
      "tafTime": ""
    }
  }
}
