{
  "updated": "2026-04-19T11:35:00.000Z",
  "airports": {
    "KPOC": {
      "name": "Brackett Field",
      "metar": "",
      "metarTime": "",
      "taf": "",
      "tafTime": ""
    },
    "KCCB": {
      "name": "Cable Airport",
      "metar": "METAR KCCB 191135Z AUTO 00000KT 10SM 16/02 A2989 RMK AO2",
      "metarTime": "2026-04-19T11:35:00.000Z",
      "taf": "",
      "tafTime": ""
    },
    "KRAL": {
      "name": "Riverside Municipal",
      "metar": "METAR KRAL 191053Z AUTO 04003KT 10SM CLR 15/08 A2989 RMK AO2 SLP107 T01500083",
      "metarTime": "2026-04-19T11:00:00.000Z",
      "taf": "",
      "tafTime": ""
    }
  }
}
