{
  "updated": "2026-04-20T19:00:00.000Z",
  "airports": {
    "KPOC": {
      "name": "Brackett Field",
      "metar": "METAR KPOC 201847Z 24005KT 10SM CLR 21/08 A3001",
      "metarTime": "2026-04-20T19:00:00.000Z",
      "taf": "",
      "tafTime": ""
    },
    "KCCB": {
      "name": "Cable Airport",
      "metar": "METAR KCCB 201835Z AUTO VRB04KT 10SM CLR 21/07 A3001 RMK AO2",
      "metarTime": "2026-04-20T18:35:00.000Z",
      "taf": "",
      "tafTime": ""
    },
    "KRAL": {
      "name": "Riverside Municipal",
      "metar": "METAR KRAL 201753Z 32003KT 10SM CLR 21/08 A3000 RMK AO2 SLP148 T02060078 10211 20117 50001",
      "metarTime": "2026-04-20T18:00:00.000Z",
      "taf": "",
      "tafTime": ""
    }
  }
}
