{
  "updated": "2026-02-18T05:15:00.000Z",
  "airports": {
    "KPOC": {
      "name": "Brackett Field",
      "metar": "METAR KPOC 180447Z 20006G14KT 10SM BKN024 11/06 A3000 RMK LAST",
      "metarTime": "2026-02-18T05:00:00.000Z",
      "taf": "",
      "tafTime": ""
    },
    "KCCB": {
      "name": "Cable Airport",
      "metar": "METAR KCCB 180515Z AUTO 22010G19KT 10SM BKN025 BKN030 OVC038 10/07 A2997 RMK AO2",
      "metarTime": "2026-02-18T05:15:00.000Z",
      "taf": "",
      "tafTime": ""
    },
    "KRAL": {
      "name": "Riverside Municipal",
      "metar": "METAR KRAL 180453Z AUTO 21010KT 10SM OVC060 12/04 A2999 RMK AO2 SLP147 T01220039",
      "metarTime": "2026-02-18T05:00:00.000Z",
      "taf": "",
      "tafTime": ""
    }
  }
}
