{
  "updated": "2026-04-18T20:15:00.000Z",
  "airports": {
    "KPOC": {
      "name": "Brackett Field",
      "metar": "METAR KPOC 181947Z VRB05KT 10SM CLR 27/M12 A2997",
      "metarTime": "2026-04-18T20:00:00.000Z",
      "taf": "",
      "tafTime": ""
    },
    "KCCB": {
      "name": "Cable Airport",
      "metar": "METAR KCCB 182015Z AUTO VRB04KT 10SM CLR 26/M18 A2996 RMK AO2",
      "metarTime": "2026-04-18T20:15:00.000Z",
      "taf": "",
      "tafTime": ""
    },
    "KRAL": {
      "name": "Riverside Municipal",
      "metar": "METAR KRAL 181953Z VRB04KT 10SM CLR 27/M13 A2994 RMK AO2 SLP124 T02721133",
      "metarTime": "2026-04-18T20:00:00.000Z",
      "taf": "",
      "tafTime": ""
    }
  }
}
