{
  "updated": "2026-02-21T18:15:00.000Z",
  "airports": {
    "KPOC": {
      "name": "Brackett Field",
      "metar": "METAR KPOC 211747Z 12010KT 10SM CLR 12/M01 A3017",
      "metarTime": "2026-02-21T18:00:00.000Z",
      "taf": "",
      "tafTime": ""
    },
    "KCCB": {
      "name": "Cable Airport",
      "metar": "METAR KCCB 211815Z AUTO 10007KT 10SM CLR 14/M04 A3015 RMK AO2",
      "metarTime": "2026-02-21T18:15:00.000Z",
      "taf": "",
      "tafTime": ""
    },
    "KRAL": {
      "name": "Riverside Municipal",
      "metar": "METAR KRAL 211753Z 05006KT 10SM CLR 15/M03 A3017 RMK AO2 SLP208 T01501033 10150 20028 51013 $",
      "metarTime": "2026-02-21T18:00:00.000Z",
      "taf": "",
      "tafTime": ""
    }
  }
}
