{
  "updated": "2026-06-20T02:35:00.000Z",
  "airports": {
    "KPOC": {
      "name": "Brackett Field",
      "metar": "METAR KPOC 200147Z 25011KT 10SM CLR 21/13 A2997",
      "metarTime": "2026-06-20T02:00:00.000Z",
      "taf": "",
      "tafTime": ""
    },
    "KCCB": {
      "name": "Cable Airport",
      "metar": "METAR KCCB 200235Z AUTO 27010G16KT 9SM CLR 20/13 A2998 RMK AO2",
      "metarTime": "2026-06-20T02:35:00.000Z",
      "taf": "",
      "tafTime": ""
    },
    "KRAL": {
      "name": "Riverside Municipal",
      "metar": "METAR KRAL 200153Z 28012G18KT 10SM CLR 24/13 A2994 RMK AO2 SLP124 T02390128",
      "metarTime": "2026-06-20T02:00:00.000Z",
      "taf": "",
      "tafTime": ""
    }
  }
}
