{
  "updated": "2026-06-04T23:35:00.000Z",
  "airports": {
    "KPOC": {
      "name": "Brackett Field",
      "metar": "",
      "metarTime": "",
      "taf": "",
      "tafTime": ""
    },
    "KCCB": {
      "name": "Cable Airport",
      "metar": "METAR KCCB 042335Z AUTO 26012KT 10SM CLR 28/14 A2987 RMK AO2",
      "metarTime": "2026-06-04T23:35:00.000Z",
      "taf": "",
      "tafTime": ""
    },
    "KRAL": {
      "name": "Riverside Municipal",
      "metar": "METAR KRAL 042253Z 29008G17KT 250V320 10SM CLR 31/14 A2984 RMK AO2 SLP088 T03060139",
      "metarTime": "2026-06-04T23:00:00.000Z",
      "taf": "",
      "tafTime": ""
    }
  }
}
