{
  "updated": "2026-03-29T11:35:00.000Z",
  "airports": {
    "KPOC": {
      "name": "Brackett Field",
      "metar": "",
      "metarTime": "",
      "taf": "",
      "tafTime": ""
    },
    "KCCB": {
      "name": "Cable Airport",
      "metar": "METAR KCCB 291135Z AUTO 08006KT 10SM 20/M10 A2991 RMK AO2",
      "metarTime": "2026-03-29T11:35:00.000Z",
      "taf": "",
      "tafTime": ""
    },
    "KRAL": {
      "name": "Riverside Municipal",
      "metar": "METAR KRAL 291053Z AUTO 00000KT 10SM CLR 16/07 A2992 RMK AO2 SLP114 T01610072",
      "metarTime": "2026-03-29T11:00:00.000Z",
      "taf": "",
      "tafTime": ""
    }
  }
}
