{
  "updated": "2026-03-10T11:00:00.000Z",
  "airports": {
    "KPOC": {
      "name": "Brackett Field",
      "metar": "",
      "metarTime": "",
      "taf": "",
      "tafTime": ""
    },
    "KCCB": {
      "name": "Cable Airport",
      "metar": "METAR KCCB 101055Z AUTO 00000KT 1/2SM FG 12/12 A2998 RMK AO2",
      "metarTime": "2026-03-10T11:00:00.000Z",
      "taf": "",
      "tafTime": ""
    },
    "KRAL": {
      "name": "Riverside Municipal",
      "metar": "METAR KRAL 101053Z AUTO 00000KT 10SM CLR 12/09 A2998 RMK AO2 SLP140 T01170089",
      "metarTime": "2026-03-10T11:00:00.000Z",
      "taf": "",
      "tafTime": ""
    }
  }
}
