{
  "updated": "2026-04-25T22:15:00.000Z",
  "airports": {
    "KPOC": {
      "name": "Brackett Field",
      "metar": "METAR KPOC 252147Z 20015G18KT 8SM SCT037 BKN045 19/09 A2988",
      "metarTime": "2026-04-25T22:00:00.000Z",
      "taf": "",
      "tafTime": ""
    },
    "KCCB": {
      "name": "Cable Airport",
      "metar": "METAR KCCB 252215Z AUTO 23011KT 10SM SCT039 BKN046 BKN050 17/07 A2986 RMK AO2",
      "metarTime": "2026-04-25T22:15:00.000Z",
      "taf": "",
      "tafTime": ""
    },
    "KRAL": {
      "name": "Riverside Municipal",
      "metar": "METAR KRAL 252153Z 28011G19KT 10SM SCT100 21/07 A2985 RMK AO2 SLP093 T02110067",
      "metarTime": "2026-04-25T22:00:00.000Z",
      "taf": "",
      "tafTime": ""
    }
  }
}
