{
  "updated": "2026-05-15T17:15:00.000Z",
  "airports": {
    "KPOC": {
      "name": "Brackett Field",
      "metar": "METAR KPOC 151647Z VRB03KT 02SM OVC009 15/13 A3001 BR",
      "metarTime": "2026-05-15T17:00:00.000Z",
      "taf": "",
      "tafTime": ""
    },
    "KCCB": {
      "name": "Cable Airport",
      "metar": "METAR KCCB 151715Z AUTO 23005KT 2 1/2SM BR OVC006 14/14 A3000 RMK AO2",
      "metarTime": "2026-05-15T17:15:00.000Z",
      "taf": "",
      "tafTime": ""
    },
    "KRAL": {
      "name": "Riverside Municipal",
      "metar": "METAR KRAL 151653Z 00000KT 10SM OVC019 16/12 A3000 RMK AO2 SLP146 T01610117",
      "metarTime": "2026-05-15T17:00:00.000Z",
      "taf": "",
      "tafTime": ""
    }
  }
}
