{
  "updated": "2026-02-14T23:35:00.000Z",
  "airports": {
    "KPOC": {
      "name": "Brackett Field",
      "metar": "METAR KPOC 142247Z 23007KT 10SM CLR 19/08 A3005",
      "metarTime": "2026-02-14T23:00:00.000Z",
      "taf": "",
      "tafTime": ""
    },
    "KCCB": {
      "name": "Cable Airport",
      "metar": "METAR KCCB 142335Z AUTO 26009KT 10SM CLR 19/07 A3003 RMK AO2",
      "metarTime": "2026-02-14T23:35:00.000Z",
      "taf": "",
      "tafTime": ""
    },
    "KRAL": {
      "name": "Riverside Municipal",
      "metar": "METAR KRAL 142253Z 26004KT 10SM CLR 21/08 A3003 RMK AO2 SLP158 T02060078",
      "metarTime": "2026-02-14T23:00:00.000Z",
      "taf": "",
      "tafTime": ""
    }
  }
}
