{
  "updated": "2026-04-10T22:10:00.000Z",
  "airports": {
    "KPOC": {
      "name": "Brackett Field",
      "metar": "METAR KPOC 102147Z 22010G15KT 10SM BKN055 23/11 A2995",
      "metarTime": "2026-04-10T22:00:00.000Z",
      "taf": "",
      "tafTime": ""
    },
    "KCCB": {
      "name": "Cable Airport",
      "metar": "METAR KCCB 102210Z AUTO 22009KT 10SM SCT048 SCT055 BKN090 23/09 A2994 RMK AO2",
      "metarTime": "2026-04-10T22:10:00.000Z",
      "taf": "",
      "tafTime": ""
    },
    "KRAL": {
      "name": "Riverside Municipal",
      "metar": "METAR KRAL 102153Z 27012G20KT 10SM SCT070 24/12 A2992 RMK AO2 SLP117 T02440117",
      "metarTime": "2026-04-10T22:00:00.000Z",
      "taf": "",
      "tafTime": ""
    }
  }
}
