{
  "updated": "2026-05-17T01:35:00.000Z",
  "airports": {
    "KPOC": {
      "name": "Brackett Field",
      "metar": "",
      "metarTime": "",
      "taf": "",
      "tafTime": ""
    },
    "KCCB": {
      "name": "Cable Airport",
      "metar": "METAR KCCB 170135Z AUTO 25012KT 10SM OVC023 17/13 A2984 RMK AO2",
      "metarTime": "2026-05-17T01:35:00.000Z",
      "taf": "",
      "tafTime": ""
    },
    "KRAL": {
      "name": "Riverside Municipal",
      "metar": "METAR KRAL 170053Z 27015G19KT 10SM FEW049 21/12 A2982 RMK AO2 SLP083 T02110117",
      "metarTime": "2026-05-17T01:00:00.000Z",
      "taf": "",
      "tafTime": ""
    }
  }
}
