{
  "updated": "2026-02-21T19:35:00.000Z",
  "airports": {
    "KPOC": {
      "name": "Brackett Field",
      "metar": "SPECI KPOC 211903Z 12008G16KT 10SM CLR 16/M02 A3018",
      "metarTime": "2026-02-21T19:03:00.000Z",
      "taf": "",
      "tafTime": ""
    },
    "KCCB": {
      "name": "Cable Airport",
      "metar": "METAR KCCB 211935Z AUTO 13007KT 10SM CLR 17/M07 A3017 RMK AO2",
      "metarTime": "2026-02-21T19:35:00.000Z",
      "taf": "",
      "tafTime": ""
    },
    "KRAL": {
      "name": "Riverside Municipal",
      "metar": "METAR KRAL 211853Z AUTO 05007KT 10SM CLR 17/M02 A3016 RMK AO2 SLP205 T01721017 $",
      "metarTime": "2026-02-21T19:00:00.000Z",
      "taf": "",
      "tafTime": ""
    }
  }
}
