{
  "updated": "2026-05-23T10:00:00.000Z",
  "airports": {
    "KPOC": {
      "name": "Brackett Field",
      "metar": "",
      "metarTime": "",
      "taf": "",
      "tafTime": ""
    },
    "KCCB": {
      "name": "Cable Airport",
      "metar": "METAR KCCB 230955Z AUTO 26004KT 7SM OVC007 14/14 A2991 RMK AO2",
      "metarTime": "2026-05-23T10:00:00.000Z",
      "taf": "",
      "tafTime": ""
    },
    "KRAL": {
      "name": "Riverside Municipal",
      "metar": "METAR KRAL 230953Z AUTO 26003KT 10SM BKN014 14/12 A2991 RMK AO2 SLP115 T01440122",
      "metarTime": "2026-05-23T10:00:00.000Z",
      "taf": "",
      "tafTime": ""
    }
  }
}
