{
  "updated": "2026-02-12T10:15:00.000Z",
  "airports": {
    "KPOC": {
      "name": "Brackett Field",
      "metar": "",
      "metarTime": "",
      "taf": "",
      "tafTime": ""
    },
    "KCCB": {
      "name": "Cable Airport",
      "metar": "METAR KCCB 121015Z AUTO 07005KT 10SM CLR 10/10 A3016 RMK AO2",
      "metarTime": "2026-02-12T10:15:00.000Z",
      "taf": "",
      "tafTime": ""
    },
    "KRAL": {
      "name": "Riverside Municipal",
      "metar": "METAR KRAL 120953Z AUTO 00000KT 10SM CLR 09/08 A3018 RMK AO2 SLP210 T00890083 $",
      "metarTime": "2026-02-12T10:00:00.000Z",
      "taf": "",
      "tafTime": ""
    }
  }
}
