{
  "updated": "2026-02-09T11:15:00.000Z",
  "airports": {
    "KPOC": {
      "name": "Brackett Field",
      "metar": "",
      "metarTime": "",
      "taf": "",
      "tafTime": ""
    },
    "KCCB": {
      "name": "Cable Airport",
      "metar": "METAR KCCB 091115Z AUTO 05004KT 10SM CLR 16/M02 A3008 RMK AO2",
      "metarTime": "2026-02-09T11:15:00.000Z",
      "taf": "",
      "tafTime": ""
    },
    "KRAL": {
      "name": "Riverside Municipal",
      "metar": "METAR KRAL 091053Z AUTO 04006KT 10SM CLR 13/02 A3009 RMK AO2 SLP175 T01280017 $",
      "metarTime": "2026-02-09T11:00:00.000Z",
      "taf": "",
      "tafTime": ""
    }
  }
}
