{
  "updated": "2026-04-07T04:00:00.000Z",
  "airports": {
    "KPOC": {
      "name": "Brackett Field",
      "metar": "METAR KPOC 070347Z 25004KT 10SM CLR 18/11 A3003 RMK LAST",
      "metarTime": "2026-04-07T04:00:00.000Z",
      "taf": "",
      "tafTime": ""
    },
    "KCCB": {
      "name": "Cable Airport",
      "metar": "METAR KCCB 070355Z AUTO 24006KT 10SM CLR 18/09 A3001 RMK AO2",
      "metarTime": "2026-04-07T04:00:00.000Z",
      "taf": "",
      "tafTime": ""
    },
    "KRAL": {
      "name": "Riverside Municipal",
      "metar": "METAR KRAL 070353Z AUTO 00000KT 10SM CLR 19/11 A3000 RMK AO2 SLP146 T01940111",
      "metarTime": "2026-04-07T04:00:00.000Z",
      "taf": "",
      "tafTime": ""
    }
  }
}
