{
  "updated": "2026-04-02T21:15:00.000Z",
  "airports": {
    "KPOC": {
      "name": "Brackett Field",
      "metar": "METAR KPOC 022047Z 27007KT 10SM BKN060 19/10 A2996",
      "metarTime": "2026-04-02T21:00:00.000Z",
      "taf": "",
      "tafTime": ""
    },
    "KCCB": {
      "name": "Cable Airport",
      "metar": "METAR KCCB 022115Z AUTO 26007KT 10SM BKN037 OVC042 18/09 A2995 RMK AO2",
      "metarTime": "2026-04-02T21:15:00.000Z",
      "taf": "",
      "tafTime": ""
    },
    "KRAL": {
      "name": "Riverside Municipal",
      "metar": "METAR KRAL 022053Z VRB03KT 10SM BKN047 OVC055 21/09 A2995 RMK AO2 SLP130 T02060089 56021",
      "metarTime": "2026-04-02T21:00:00.000Z",
      "taf": "",
      "tafTime": ""
    }
  }
}
