{
  "updated": "2026-04-10T10:00:00.000Z",
  "airports": {
    "KPOC": {
      "name": "Brackett Field",
      "metar": "",
      "metarTime": "",
      "taf": "",
      "tafTime": ""
    },
    "KCCB": {
      "name": "Cable Airport",
      "metar": "METAR KCCB 100955Z AUTO 30004KT 7SM OVC010 16/16 A2995 RMK AO2",
      "metarTime": "2026-04-10T10:00:00.000Z",
      "taf": "",
      "tafTime": ""
    },
    "KRAL": {
      "name": "Riverside Municipal",
      "metar": "METAR KRAL 100953Z AUTO 9SM CLR 15/14 A2995 RMK AO2 SLP129 T01500139",
      "metarTime": "2026-04-10T10:00:00.000Z",
      "taf": "",
      "tafTime": ""
    }
  }
}
