{
  "updated": "2026-02-06T23:00:00.000Z",
  "airports": {
    "KPOC": {
      "name": "Brackett Field",
      "metar": "METAR KPOC 062247Z 24007KT 10SM CLR 20/09 A3009",
      "metarTime": "2026-02-06T23:00:00.000Z",
      "taf": "",
      "tafTime": ""
    },
    "KCCB": {
      "name": "Cable Airport",
      "metar": "METAR KCCB 062255Z AUTO 26010KT 10SM CLR 20/09 A3008 RMK AO2",
      "metarTime": "2026-02-06T23:00:00.000Z",
      "taf": "",
      "tafTime": ""
    },
    "KRAL": {
      "name": "Riverside Municipal",
      "metar": "METAR KRAL 062253Z COR VRB06KT 10SM CLR 22/11 A3007 RMK AO2 SLP171 T02170106",
      "metarTime": "2026-02-06T23:00:00.000Z",
      "taf": "",
      "tafTime": ""
    }
  }
}
