{
  "updated": "2026-03-31T01:15:00.000Z",
  "airports": {
    "KPOC": {
      "name": "Brackett Field",
      "metar": "METAR KPOC 310047Z 24009KT 10SM CLR 21/14 A2998",
      "metarTime": "2026-03-31T01:00:00.000Z",
      "taf": "",
      "tafTime": ""
    },
    "KCCB": {
      "name": "Cable Airport",
      "metar": "METAR KCCB 310115Z AUTO 26011KT 10SM CLR 21/14 A2997 RMK AO2",
      "metarTime": "2026-03-31T01:15:00.000Z",
      "taf": "",
      "tafTime": ""
    },
    "KRAL": {
      "name": "Riverside Municipal",
      "metar": "METAR KRAL 310053Z 27012KT 10SM CLR 22/13 A2996 RMK AO2 SLP131 T02220133",
      "metarTime": "2026-03-31T01:00:00.000Z",
      "taf": "",
      "tafTime": ""
    }
  }
}
