{
  "updated": "2026-02-04T12:15:00.000Z",
  "airports": {
    "KPOC": {
      "name": "Brackett Field",
      "metar": "",
      "metarTime": "",
      "taf": "",
      "tafTime": ""
    },
    "KCCB": {
      "name": "Cable Airport",
      "metar": "METAR KCCB 041215Z AUTO 33005KT 10SM CLR 18/M08 A3016 RMK AO2",
      "metarTime": "2026-02-04T12:15:00.000Z",
      "taf": "",
      "tafTime": ""
    },
    "KRAL": {
      "name": "Riverside Municipal",
      "metar": "METAR KRAL 041153Z AUTO 05007KT 10SM CLR 19/M06 A3018 RMK AO2 SLP203 T01891061 10189 20117 58005",
      "metarTime": "2026-02-04T12:00:00.000Z",
      "taf": "",
      "tafTime": ""
    }
  }
}
