{
  "updated": "2026-04-03T20:15:00.000Z",
  "airports": {
    "KPOC": {
      "name": "Brackett Field",
      "metar": "METAR KPOC 031947Z 23006KT 10SM CLR 23/09 A3001",
      "metarTime": "2026-04-03T20:00:00.000Z",
      "taf": "",
      "tafTime": ""
    },
    "KCCB": {
      "name": "Cable Airport",
      "metar": "METAR KCCB 032015Z AUTO 21008KT 190V250 10SM CLR 24/05 A3001 RMK AO2",
      "metarTime": "2026-04-03T20:15:00.000Z",
      "taf": "",
      "tafTime": ""
    },
    "KRAL": {
      "name": "Riverside Municipal",
      "metar": "METAR KRAL 031953Z 02015G32KT 10SM CLR 24/M08 A3002 RMK AO2 PK WND 02033/1936 SLP151 T02391078",
      "metarTime": "2026-04-03T20:00:00.000Z",
      "taf": "",
      "tafTime": ""
    }
  }
}
