{
  "updated": "2026-04-24T21:15:00.000Z",
  "airports": {
    "KPOC": {
      "name": "Brackett Field",
      "metar": "METAR KPOC 242047Z 25010G15KT 10SM CLR 23/08 A2988",
      "metarTime": "2026-04-24T21:00:00.000Z",
      "taf": "",
      "tafTime": ""
    },
    "KCCB": {
      "name": "Cable Airport",
      "metar": "METAR KCCB 242115Z AUTO 23009G18KT 210V270 10SM CLR 22/07 A2987 RMK AO2",
      "metarTime": "2026-04-24T21:15:00.000Z",
      "taf": "",
      "tafTime": ""
    },
    "KRAL": {
      "name": "Riverside Municipal",
      "metar": "METAR KRAL 242053Z 26008G18KT 230V310 10SM CLR 25/07 A2986 RMK AO2 SLP097 T02500072 56025",
      "metarTime": "2026-04-24T21:00:00.000Z",
      "taf": "",
      "tafTime": ""
    }
  }
}
