{
  "updated": "2026-04-13T19:00:00.000Z",
  "airports": {
    "KPOC": {
      "name": "Brackett Field",
      "metar": "METAR KPOC 131847Z 00000KT 7SM BKN033 15/07 A3006",
      "metarTime": "2026-04-13T19:00:00.000Z",
      "taf": "",
      "tafTime": ""
    },
    "KCCB": {
      "name": "Cable Airport",
      "metar": "METAR KCCB 131835Z AUTO 21008G13KT 7SM SCT026 BKN032 BKN040 14/07 A3005 RMK AO2",
      "metarTime": "2026-04-13T18:35:00.000Z",
      "taf": "",
      "tafTime": ""
    },
    "KRAL": {
      "name": "Riverside Municipal",
      "metar": "METAR KRAL 131853Z VRB06KT 10SM BKN033 BKN044 OVC055 15/07 A3006 RMK AO2 RAB18E51 SLP171 P0000 T01500067",
      "metarTime": "2026-04-13T19:00:00.000Z",
      "taf": "",
      "tafTime": ""
    }
  }
}
