{
  "updated": "2026-05-17T16:35:00.000Z",
  "airports": {
    "KPOC": {
      "name": "Brackett Field",
      "metar": "METAR KPOC 171547Z 27005KT 7SM OVC016 15/12 A2983",
      "metarTime": "2026-05-17T16:00:00.000Z",
      "taf": "",
      "tafTime": ""
    },
    "KCCB": {
      "name": "Cable Airport",
      "metar": "METAR KCCB 171635Z AUTO 24006KT 6SM BR OVC019 14/13 A2981 RMK AO2",
      "metarTime": "2026-05-17T16:35:00.000Z",
      "taf": "",
      "tafTime": ""
    },
    "KRAL": {
      "name": "Riverside Municipal",
      "metar": "METAR KRAL 171553Z 28006KT 10SM OVC034 17/12 A2982 RMK AO2 SLP085 T01670117",
      "metarTime": "2026-05-17T16:00:00.000Z",
      "taf": "",
      "tafTime": ""
    }
  }
}
