{
  "updated": "2026-07-06T22:35:00.000Z",
  "airports": {
    "KPOC": {
      "name": "Brackett Field",
      "metar": "METAR KPOC 062147Z 26010KT 10SM CLR 32/14 A2992",
      "metarTime": "2026-07-06T22:00:00.000Z",
      "taf": "",
      "tafTime": ""
    },
    "KCCB": {
      "name": "Cable Airport",
      "metar": "METAR KCCB 062235Z AUTO 27013KT 10SM CLR 32/12 A2992 RMK AO2",
      "metarTime": "2026-07-06T22:35:00.000Z",
      "taf": "",
      "tafTime": ""
    },
    "KRAL": {
      "name": "Riverside Municipal",
      "metar": "METAR KRAL 062153Z 27012G19KT 10SM CLR 34/13 A2989 RMK AO2 SLP105 T03390133",
      "metarTime": "2026-07-06T22:00:00.000Z",
      "taf": "",
      "tafTime": ""
    }
  }
}
