{
  "updated": "2026-03-23T14:00:00.000Z",
  "airports": {
    "KPOC": {
      "name": "Brackett Field",
      "metar": "",
      "metarTime": "",
      "taf": "",
      "tafTime": ""
    },
    "KCCB": {
      "name": "Cable Airport",
      "metar": "METAR KCCB 231355Z AUTO 25003KT 10SM CLR 16/09 A2992 RMK AO2",
      "metarTime": "2026-03-23T14:00:00.000Z",
      "taf": "",
      "tafTime": ""
    },
    "KRAL": {
      "name": "Riverside Municipal",
      "metar": "METAR KRAL 231353Z AUTO 00000KT 9SM CLR 14/12 A2992 RMK AO2 SLP116 T01440117",
      "metarTime": "2026-03-23T14:00:00.000Z",
      "taf": "",
      "tafTime": ""
    }
  }
}
