{
  "updated": "2026-06-30T15:00:00.000Z",
  "airports": {
    "KPOC": {
      "name": "Brackett Field",
      "metar": "METAR KPOC 301447Z 00000KT 3SM HZ OVC009 16/13 A2996",
      "metarTime": "2026-06-30T15:00:00.000Z",
      "taf": "",
      "tafTime": ""
    },
    "KCCB": {
      "name": "Cable Airport",
      "metar": "METAR KCCB 301445Z AUTO 26005KT 9SM BKN015 BKN022 BKN028 15/14 A2995 RMK AO2",
      "metarTime": "2026-06-30T15:00:00.000Z",
      "taf": "",
      "tafTime": ""
    },
    "KRAL": {
      "name": "Riverside Municipal",
      "metar": "METAR KRAL 301453Z 27006KT 10SM OVC028 17/12 A2995 RMK AO2 SLP129 T01720117 53013",
      "metarTime": "2026-06-30T15:00:00.000Z",
      "taf": "",
      "tafTime": ""
    }
  }
}
