{
  "updated": "2026-03-12T11:00:00.000Z",
  "airports": {
    "KPOC": {
      "name": "Brackett Field",
      "metar": "",
      "metarTime": "",
      "taf": "",
      "tafTime": ""
    },
    "KCCB": {
      "name": "Cable Airport",
      "metar": "METAR KCCB 121055Z AUTO 00000KT 10SM 17/04 A3021 RMK AO2",
      "metarTime": "2026-03-12T11:00:00.000Z",
      "taf": "",
      "tafTime": ""
    },
    "KRAL": {
      "name": "Riverside Municipal",
      "metar": "METAR KRAL 121053Z AUTO 06003KT 10SM CLR 14/09 A3020 RMK AO2 SLP212 T01440089",
      "metarTime": "2026-03-12T11:00:00.000Z",
      "taf": "",
      "tafTime": ""
    }
  }
}
