{
  "updated": "2026-04-03T14:00:00.000Z",
  "airports": {
    "KPOC": {
      "name": "Brackett Field",
      "metar": "",
      "metarTime": "",
      "taf": "",
      "tafTime": ""
    },
    "KCCB": {
      "name": "Cable Airport",
      "metar": "METAR KCCB 031355Z AUTO 00000KT 10SM CLR 12/10 A2997 RMK AO2",
      "metarTime": "2026-04-03T14:00:00.000Z",
      "taf": "",
      "tafTime": ""
    },
    "KRAL": {
      "name": "Riverside Municipal",
      "metar": "METAR KRAL 031353Z 08005KT 10SM CLR 11/09 A2997 RMK AO2 SLP137 T01110094",
      "metarTime": "2026-04-03T14:00:00.000Z",
      "taf": "",
      "tafTime": ""
    }
  }
}
