{
  "updated": "2026-07-23T16:00:00.000Z",
  "airports": {
    "KPOC": {
      "name": "Brackett Field",
      "metar": "METAR KPOC 231547Z 00000KT 7SM CLR 26/18 A2993",
      "metarTime": "2026-07-23T16:00:00.000Z",
      "taf": "",
      "tafTime": ""
    },
    "KCCB": {
      "name": "Cable Airport",
      "metar": "METAR KCCB 231555Z AUTO 00000KT 10SM CLR 27/17 A2993 RMK AO2",
      "metarTime": "2026-07-23T16:00:00.000Z",
      "taf": "",
      "tafTime": ""
    },
    "KRAL": {
      "name": "Riverside Municipal",
      "metar": "METAR KRAL 231553Z 00000KT 10SM CLR 26/17 A2991 RMK AO2 SLP112 T02610172",
      "metarTime": "2026-07-23T16:00:00.000Z",
      "taf": "",
      "tafTime": ""
    }
  }
}
