{
  "updated": "2026-06-28T15:00:00.000Z",
  "airports": {
    "KPOC": {
      "name": "Brackett Field",
      "metar": "METAR KPOC 281447Z 24004KT 4SM BR BKN018 16/13 A2995",
      "metarTime": "2026-06-28T15:00:00.000Z",
      "taf": "",
      "tafTime": ""
    },
    "KCCB": {
      "name": "Cable Airport",
      "metar": "METAR KCCB 281455Z AUTO 28005KT 7SM CLR 15/15 A2994 RMK AO2",
      "metarTime": "2026-06-28T15:00:00.000Z",
      "taf": "",
      "tafTime": ""
    },
    "KRAL": {
      "name": "Riverside Municipal",
      "metar": "METAR KRAL 281453Z 00000KT 10SM OVC038 18/13 A2994 RMK AO2 SLP123 T01780133 53011",
      "metarTime": "2026-06-28T15:00:00.000Z",
      "taf": "",
      "tafTime": ""
    }
  }
}
