{
  "updated": "2026-04-13T21:00:00.000Z",
  "airports": {
    "KPOC": {
      "name": "Brackett Field",
      "metar": "METAR KPOC 132047Z 22009G15KT 10SM BKN035 17/06 A3003",
      "metarTime": "2026-04-13T21:00:00.000Z",
      "taf": "",
      "tafTime": ""
    },
    "KCCB": {
      "name": "Cable Airport",
      "metar": "METAR KCCB 132055Z AUTO 21011KT 180V240 10SM BKN043 BKN049 BKN065 16/05 A3002 RMK AO2",
      "metarTime": "2026-04-13T21:00:00.000Z",
      "taf": "",
      "tafTime": ""
    },
    "KRAL": {
      "name": "Riverside Municipal",
      "metar": "METAR KRAL 132053Z 22010KT 10SM SCT055 BKN070 18/05 A3003 RMK AO2 SLP157 60002 T01830050 58012",
      "metarTime": "2026-04-13T21:00:00.000Z",
      "taf": "",
      "tafTime": ""
    }
  }
}
