{
  "updated": "2026-02-08T17:00:00.000Z",
  "airports": {
    "KPOC": {
      "name": "Brackett Field",
      "metar": "METAR KPOC 081647Z 10008KT 10SM CLR 19/02 A3024",
      "metarTime": "2026-02-08T17:00:00.000Z",
      "taf": "",
      "tafTime": ""
    },
    "KCCB": {
      "name": "Cable Airport",
      "metar": "METAR KCCB 081635Z AUTO 00000KT 10SM CLR 18/M00 A3024 RMK AO2",
      "metarTime": "2026-02-08T16:35:00.000Z",
      "taf": "",
      "tafTime": ""
    },
    "KRAL": {
      "name": "Riverside Municipal",
      "metar": "METAR KRAL 081553Z 07005KT 10SM CLR 13/03 A3023 RMK AO2 SLP227 T01330033 $",
      "metarTime": "2026-02-08T16:00:00.000Z",
      "taf": "",
      "tafTime": ""
    }
  }
}
