{
  "updated": "2026-02-27T19:15:00.000Z",
  "airports": {
    "KPOC": {
      "name": "Brackett Field",
      "metar": "METAR KPOC 271847Z 16005KT 10SM CLR 28/10 A3003",
      "metarTime": "2026-02-27T19:00:00.000Z",
      "taf": "",
      "tafTime": ""
    },
    "KCCB": {
      "name": "Cable Airport",
      "metar": "METAR KCCB 271915Z AUTO 23005KT 10SM CLR 28/06 A3003 RMK AO2",
      "metarTime": "2026-02-27T19:15:00.000Z",
      "taf": "",
      "tafTime": ""
    },
    "KRAL": {
      "name": "Riverside Municipal",
      "metar": "METAR KRAL 271853Z 08005KT 10SM CLR 31/09 A3001 RMK AO2 SLP147 T03060089",
      "metarTime": "2026-02-27T19:00:00.000Z",
      "taf": "",
      "tafTime": ""
    }
  }
}
