{
  "updated": "2026-03-25T22:15:00.000Z",
  "airports": {
    "KPOC": {
      "name": "Brackett Field",
      "metar": "",
      "metarTime": "",
      "taf": "",
      "tafTime": ""
    },
    "KCCB": {
      "name": "Cable Airport",
      "metar": "METAR KCCB 252215Z AUTO 25008G14KT 9SM CLR 29/11 A2994 RMK AO2",
      "metarTime": "2026-03-25T22:15:00.000Z",
      "taf": "",
      "tafTime": ""
    },
    "KRAL": {
      "name": "Riverside Municipal",
      "metar": "METAR KRAL 252153Z 27010G17KT 10SM CLR 32/12 A2991 RMK AO2 SLP113 T03170117",
      "metarTime": "2026-03-25T22:00:00.000Z",
      "taf": "",
      "tafTime": ""
    }
  }
}
