{
  "updated": "2026-03-11T07:00:00.000Z",
  "airports": {
    "KPOC": {
      "name": "Brackett Field",
      "metar": "",
      "metarTime": "",
      "taf": "",
      "tafTime": ""
    },
    "KCCB": {
      "name": "Cable Airport",
      "metar": "METAR KCCB 110655Z AUTO 00000KT 10SM CLR 13/12 A3018 RMK AO2",
      "metarTime": "2026-03-11T07:00:00.000Z",
      "taf": "",
      "tafTime": ""
    },
    "KRAL": {
      "name": "Riverside Municipal",
      "metar": "METAR KRAL 110653Z AUTO 18003KT 10SM CLR 13/09 A3019 RMK AO2 SLP213 T01280094",
      "metarTime": "2026-03-11T07:00:00.000Z",
      "taf": "",
      "tafTime": ""
    }
  }
}
