{
  "updated": "2026-02-18T14:00:00.000Z",
  "airports": {
    "KPOC": {
      "name": "Brackett Field",
      "metar": "",
      "metarTime": "",
      "taf": "",
      "tafTime": ""
    },
    "KCCB": {
      "name": "Cable Airport",
      "metar": "METAR KCCB 181355Z AUTO 26011KT 10SM FEW060 BKN075 BKN085 07/07 A2989 RMK AO2 P0001",
      "metarTime": "2026-02-18T14:00:00.000Z",
      "taf": "",
      "tafTime": ""
    },
    "KRAL": {
      "name": "Riverside Municipal",
      "metar": "METAR KRAL 181353Z AUTO 24012G22KT 10SM BKN060 BKN080 09/07 A2991 RMK AO2 PK WND 28026/1314 RAE29 SLP120 P0003 T00890067",
      "metarTime": "2026-02-18T14:00:00.000Z",
      "taf": "",
      "tafTime": ""
    }
  }
}
