{
  "updated": "2026-04-22T00:00:00.000Z",
  "airports": {
    "KPOC": {
      "name": "Brackett Field",
      "metar": "METAR KPOC 212347Z 28004KT 10SM OVC033 17/11 A3004",
      "metarTime": "2026-04-22T00:00:00.000Z",
      "taf": "",
      "tafTime": ""
    },
    "KCCB": {
      "name": "Cable Airport",
      "metar": "METAR KCCB 212335Z AUTO 32005KT 10SM FEW026 BKN032 OVC040 17/10 A3004 RMK AO2",
      "metarTime": "2026-04-21T23:35:00.000Z",
      "taf": "",
      "tafTime": ""
    },
    "KRAL": {
      "name": "Riverside Municipal",
      "metar": "METAR KRAL 212353Z 25008KT 10SM BKN043 OVC050 19/10 A3003 RMK AO2 SLP158 T01890100 10228 20189 50002",
      "metarTime": "2026-04-22T00:00:00.000Z",
      "taf": "",
      "tafTime": ""
    }
  }
}
