{
  "updated": "2026-04-26T22:15:00.000Z",
  "airports": {
    "KPOC": {
      "name": "Brackett Field",
      "metar": "METAR KPOC 262147Z 25013KT 10SM SCT050 BKN055 17/06 A2995",
      "metarTime": "2026-04-26T22:00:00.000Z",
      "taf": "",
      "tafTime": ""
    },
    "KCCB": {
      "name": "Cable Airport",
      "metar": "METAR KCCB 262215Z AUTO 25010G16KT 10SM BKN045 OVC055 16/04 A2994 RMK AO2",
      "metarTime": "2026-04-26T22:15:00.000Z",
      "taf": "",
      "tafTime": ""
    },
    "KRAL": {
      "name": "Riverside Municipal",
      "metar": "METAR KRAL 262153Z 24017G24KT 10SM FEW050 19/04 A2994 RMK AO2 SLP129 T01890044",
      "metarTime": "2026-04-26T22:00:00.000Z",
      "taf": "",
      "tafTime": ""
    }
  }
}
