{
  "updated": "2026-06-30T21:00:00.000Z",
  "airports": {
    "KPOC": {
      "name": "Brackett Field",
      "metar": "METAR KPOC 302047Z 21004KT 10SM OVC036 21/12 A2995",
      "metarTime": "2026-06-30T21:00:00.000Z",
      "taf": "",
      "tafTime": ""
    },
    "KCCB": {
      "name": "Cable Airport",
      "metar": "METAR KCCB 302055Z AUTO VRB05KT 10SM BKN032 20/11 A2994 RMK AO2",
      "metarTime": "2026-06-30T21:00:00.000Z",
      "taf": "",
      "tafTime": ""
    },
    "KRAL": {
      "name": "Riverside Municipal",
      "metar": "METAR KRAL 302053Z COR VRB05KT 10SM SCT042 24/11 A2993 RMK AO2 SLP120 T02390111 58011",
      "metarTime": "2026-06-30T21:00:00.000Z",
      "taf": "",
      "tafTime": ""
    }
  }
}
