{
  "updated": "2026-02-04T21:00:00.000Z",
  "airports": {
    "KPOC": {
      "name": "Brackett Field",
      "metar": "METAR KPOC 042047Z 24008KT 10SM CLR 28/M03 A3010",
      "metarTime": "2026-02-04T21:00:00.000Z",
      "taf": "",
      "tafTime": ""
    },
    "KCCB": {
      "name": "Cable Airport",
      "metar": "METAR KCCB 042035Z AUTO 28012KT 10SM CLR 28/M09 A3011 RMK AO2",
      "metarTime": "2026-02-04T20:35:00.000Z",
      "taf": "",
      "tafTime": ""
    },
    "KRAL": {
      "name": "Riverside Municipal",
      "metar": "METAR KRAL 042053Z 01014G26KT 10SM CLR 28/M05 A3009 RMK AO2 PK WND 36026/2053 SLP176 T02831050 58030",
      "metarTime": "2026-02-04T21:00:00.000Z",
      "taf": "",
      "tafTime": ""
    }
  }
}
