{
  "updated": "2026-02-23T05:15:00.000Z",
  "airports": {
    "KPOC": {
      "name": "Brackett Field",
      "metar": "",
      "metarTime": "",
      "taf": "",
      "tafTime": ""
    },
    "KCCB": {
      "name": "Cable Airport",
      "metar": "METAR KCCB 230515Z AUTO 07006KT 10SM CLR 16/M02 A3020 RMK AO2",
      "metarTime": "2026-02-23T05:15:00.000Z",
      "taf": "",
      "tafTime": ""
    },
    "KRAL": {
      "name": "Riverside Municipal",
      "metar": "METAR KRAL 230453Z AUTO 05004KT 10SM CLR 16/02 A3019 RMK AO2 SLP212 T01610017 $",
      "metarTime": "2026-02-23T05:00:00.000Z",
      "taf": "",
      "tafTime": ""
    }
  }
}
