{
  "updated": "2026-04-25T18:00:00.000Z",
  "airports": {
    "KPOC": {
      "name": "Brackett Field",
      "metar": "METAR KPOC 251747Z 18007KT 8SM SCT024 BKN029 16/10 A2992",
      "metarTime": "2026-04-25T18:00:00.000Z",
      "taf": "",
      "tafTime": ""
    },
    "KCCB": {
      "name": "Cable Airport",
      "metar": "METAR KCCB 251755Z AUTO 23008KT 10SM BKN021 BKN031 15/10 A2991 RMK AO2",
      "metarTime": "2026-04-25T18:00:00.000Z",
      "taf": "",
      "tafTime": ""
    },
    "KRAL": {
      "name": "Riverside Municipal",
      "metar": "METAR KRAL 251753Z AUTO 28004KT 10SM FEW100 18/09 A2991 RMK AO2 SLP116 T01780089 10178 20128 58002",
      "metarTime": "2026-04-25T18:00:00.000Z",
      "taf": "",
      "tafTime": ""
    }
  }
}
