{
  "updated": "2026-02-12T05:35:00.000Z",
  "airports": {
    "KPOC": {
      "name": "Brackett Field",
      "metar": "METAR KPOC 120447Z 00000KT 10SM CLR 11/09 A3014",
      "metarTime": "2026-02-12T05:00:00.000Z",
      "taf": "",
      "tafTime": ""
    },
    "KCCB": {
      "name": "Cable Airport",
      "metar": "METAR KCCB 120535Z AUTO 35003KT 10SM CLR 11/10 A3014 RMK AO2",
      "metarTime": "2026-02-12T05:35:00.000Z",
      "taf": "",
      "tafTime": ""
    },
    "KRAL": {
      "name": "Riverside Municipal",
      "metar": "METAR KRAL 120453Z AUTO 25003KT 10SM BKN031 12/10 A3014 RMK AO2 SLP196 T01170100 $",
      "metarTime": "2026-02-12T05:00:00.000Z",
      "taf": "",
      "tafTime": ""
    }
  }
}
