{
  "updated": "2026-07-24T11:15:00.000Z",
  "airports": {
    "KPOC": {
      "name": "Brackett Field",
      "metar": "",
      "metarTime": "",
      "taf": "",
      "tafTime": ""
    },
    "KCCB": {
      "name": "Cable Airport",
      "metar": "METAR KCCB 241115Z AUTO 00000KT 10SM CLR 24/15 A2989 RMK AO2",
      "metarTime": "2026-07-24T11:15:00.000Z",
      "taf": "",
      "tafTime": ""
    },
    "KRAL": {
      "name": "Riverside Municipal",
      "metar": "METAR KRAL 241053Z AUTO 00000KT 10SM CLR 24/16 A2988 RMK AO2 SLP098 T02440156",
      "metarTime": "2026-07-24T11:00:00.000Z",
      "taf": "",
      "tafTime": ""
    }
  }
}
