{
  "updated": "2026-03-05T08:00:00.000Z",
  "airports": {
    "KPOC": {
      "name": "Brackett Field",
      "metar": "",
      "metarTime": "",
      "taf": "",
      "tafTime": ""
    },
    "KCCB": {
      "name": "Cable Airport",
      "metar": "METAR KCCB 050735Z AUTO 28005KT 4SM BR 12/12 A2992 RMK AO2",
      "metarTime": "2026-03-05T07:35:00.000Z",
      "taf": "",
      "tafTime": ""
    },
    "KRAL": {
      "name": "Riverside Municipal",
      "metar": "METAR KRAL 050753Z AUTO VRB03KT 7SM SCT019 12/11 A2993 RMK AO2 SLP124 T01220111 402220094",
      "metarTime": "2026-03-05T08:00:00.000Z",
      "taf": "",
      "tafTime": ""
    }
  }
}
