{
  "updated": "2026-05-21T20:15:00.000Z",
  "airports": {
    "KPOC": {
      "name": "Brackett Field",
      "metar": "",
      "metarTime": "",
      "taf": "",
      "tafTime": ""
    },
    "KCCB": {
      "name": "Cable Airport",
      "metar": "METAR KCCB 212015Z AUTO 27009G15KT 10SM CLR 27/08 A2988 RMK AO2",
      "metarTime": "2026-05-21T20:15:00.000Z",
      "taf": "",
      "tafTime": ""
    },
    "KRAL": {
      "name": "Riverside Municipal",
      "metar": "METAR KRAL 211953Z 27009KT 10SM CLR 29/08 A2986 RMK AO2 SLP095 T02890078",
      "metarTime": "2026-05-21T20:00:00.000Z",
      "taf": "",
      "tafTime": ""
    }
  }
}
