{
  "updated": "2026-07-21T07:15:00.000Z",
  "airports": {
    "KPOC": {
      "name": "Brackett Field",
      "metar": "",
      "metarTime": "",
      "taf": "",
      "tafTime": ""
    },
    "KCCB": {
      "name": "Cable Airport",
      "metar": "METAR KCCB 210715Z AUTO 27005KT 10SM 24/12 A2996 RMK AO2",
      "metarTime": "2026-07-21T07:15:00.000Z",
      "taf": "",
      "tafTime": ""
    },
    "KRAL": {
      "name": "Riverside Municipal",
      "metar": "METAR KRAL 210653Z AUTO 28003KT 10SM CLR 26/09 A2994 RMK AO2 SLP120 T02560089",
      "metarTime": "2026-07-21T07:00:00.000Z",
      "taf": "",
      "tafTime": ""
    }
  }
}
