{
  "updated": "2026-05-13T02:00:00.000Z",
  "airports": {
    "KPOC": {
      "name": "Brackett Field",
      "metar": "METAR KPOC 130147Z 20010KT 10SM CLR 19/12 A3001",
      "metarTime": "2026-05-13T02:00:00.000Z",
      "taf": "",
      "tafTime": ""
    },
    "KCCB": {
      "name": "Cable Airport",
      "metar": "METAR KCCB 130135Z AUTO 26012KT 10SM CLR 20/12 A3000 RMK AO2",
      "metarTime": "2026-05-13T01:35:00.000Z",
      "taf": "",
      "tafTime": ""
    },
    "KRAL": {
      "name": "Riverside Municipal",
      "metar": "METAR KRAL 130153Z 27014KT 10SM CLR 19/12 A3000 RMK AO2 SLP145 T01940122",
      "metarTime": "2026-05-13T02:00:00.000Z",
      "taf": "",
      "tafTime": ""
    }
  }
}
