{
  "updated": "2026-03-02T21:15:00.000Z",
  "airports": {
    "KPOC": {
      "name": "Brackett Field",
      "metar": "",
      "metarTime": "",
      "taf": "",
      "tafTime": ""
    },
    "KCCB": {
      "name": "Cable Airport",
      "metar": "METAR KCCB 022115Z AUTO 26012KT 10SM CLR 21/09 A2996 RMK AO2",
      "metarTime": "2026-03-02T21:15:00.000Z",
      "taf": "",
      "tafTime": ""
    },
    "KRAL": {
      "name": "Riverside Municipal",
      "metar": "METAR KRAL 022053Z 27009KT 10SM CLR 23/11 A2995 RMK AO2 SLP129 T02330106 58017",
      "metarTime": "2026-03-02T21:00:00.000Z",
      "taf": "",
      "tafTime": ""
    }
  }
}
