{
  "updated": "2026-07-16T16:00:00.000Z",
  "airports": {
    "KPOC": {
      "name": "Brackett Field",
      "metar": "METAR KPOC 161547Z 00000KT 10SM CLR 26/16 A2987",
      "metarTime": "2026-07-16T16:00:00.000Z",
      "taf": "",
      "tafTime": ""
    },
    "KCCB": {
      "name": "Cable Airport",
      "metar": "METAR KCCB 161525Z AUTO 00000KT 10SM CLR 26/15 A2987 RMK AO2",
      "metarTime": "2026-07-16T15:25:00.000Z",
      "taf": "",
      "tafTime": ""
    },
    "KRAL": {
      "name": "Riverside Municipal",
      "metar": "METAR KRAL 161453Z 00000KT 10SM CLR 26/15 A2985 RMK AO2 SLP089 T02560150 53006",
      "metarTime": "2026-07-16T15:00:00.000Z",
      "taf": "",
      "tafTime": ""
    }
  }
}
