{
  "updated": "2026-06-19T16:15:00.000Z",
  "airports": {
    "KPOC": {
      "name": "Brackett Field",
      "metar": "METAR KPOC 191547Z 00000KT 3SM BR OVC009 16/13 A3003",
      "metarTime": "2026-06-19T16:00:00.000Z",
      "taf": "",
      "tafTime": ""
    },
    "KCCB": {
      "name": "Cable Airport",
      "metar": "METAR KCCB 191615Z AUTO 00000KT 5SM BR OVC012 16/15 A3002 RMK AO2",
      "metarTime": "2026-06-19T16:15:00.000Z",
      "taf": "",
      "tafTime": ""
    },
    "KRAL": {
      "name": "Riverside Municipal",
      "metar": "SPECI KRAL 191609Z VRB03KT 9SM BKN015 OVC025 18/13 A3001 RMK AO2 T01780133",
      "metarTime": "2026-06-19T16:09:00.000Z",
      "taf": "",
      "tafTime": ""
    }
  }
}
