{
  "updated": "2026-04-10T14:00:00.000Z",
  "airports": {
    "KPOC": {
      "name": "Brackett Field",
      "metar": "METAR KPOC 101347Z 00000KT 5SM BKN030 15/13 A2995",
      "metarTime": "2026-04-10T14:00:00.000Z",
      "taf": "",
      "tafTime": ""
    },
    "KCCB": {
      "name": "Cable Airport",
      "metar": "METAR KCCB 101355Z AUTO 25003KT 4SM BR OVC006 15/14 A2995 RMK AO2",
      "metarTime": "2026-04-10T14:00:00.000Z",
      "taf": "",
      "tafTime": ""
    },
    "KRAL": {
      "name": "Riverside Municipal",
      "metar": "METAR KRAL 101353Z 00000KT 8SM OVC011 16/14 A2994 RMK AO2 SLP126 T01610139",
      "metarTime": "2026-04-10T14:00:00.000Z",
      "taf": "",
      "tafTime": ""
    }
  }
}
