{
  "updated": "2026-04-07T01:15:00.000Z",
  "airports": {
    "KPOC": {
      "name": "Brackett Field",
      "metar": "",
      "metarTime": "",
      "taf": "",
      "tafTime": ""
    },
    "KCCB": {
      "name": "Cable Airport",
      "metar": "METAR KCCB 070115Z AUTO 27014KT 10SM CLR 23/07 A2997 RMK AO2",
      "metarTime": "2026-04-07T01:15:00.000Z",
      "taf": "",
      "tafTime": ""
    },
    "KRAL": {
      "name": "Riverside Municipal",
      "metar": "METAR KRAL 070053Z 27012KT 10SM CLR 24/07 A2996 RMK AO2 SLP130 T02440067",
      "metarTime": "2026-04-07T01:00:00.000Z",
      "taf": "",
      "tafTime": ""
    }
  }
}
