{
  "updated": "2026-04-28T23:15:00.000Z",
  "airports": {
    "KPOC": {
      "name": "Brackett Field",
      "metar": "METAR KPOC 282247Z 25013G17KT 10SM CLR 23/04 A3000",
      "metarTime": "2026-04-28T23:00:00.000Z",
      "taf": "",
      "tafTime": ""
    },
    "KCCB": {
      "name": "Cable Airport",
      "metar": "METAR KCCB 282315Z AUTO 26011G17KT 10SM CLR 23/02 A2999 RMK AO2",
      "metarTime": "2026-04-28T23:15:00.000Z",
      "taf": "",
      "tafTime": ""
    },
    "KRAL": {
      "name": "Riverside Municipal",
      "metar": "METAR KRAL 282253Z 26014G22KT 10SM CLR 24/06 A2997 RMK AO2 SLP137 T02440056",
      "metarTime": "2026-04-28T23:00:00.000Z",
      "taf": "",
      "tafTime": ""
    }
  }
}
