{
  "updated": "2026-02-16T14:35:00.000Z",
  "airports": {
    "KPOC": {
      "name": "Brackett Field",
      "metar": "",
      "metarTime": "",
      "taf": "",
      "tafTime": ""
    },
    "KCCB": {
      "name": "Cable Airport",
      "metar": "METAR KCCB 161435Z AUTO 09006KT 10SM 11/09 A2984 RMK AO2",
      "metarTime": "2026-02-16T14:35:00.000Z",
      "taf": "",
      "tafTime": ""
    },
    "KRAL": {
      "name": "Riverside Municipal",
      "metar": "METAR KRAL 161353Z AUTO 00000KT 10SM SCT042 OVC085 11/08 A2985 RMK AO2 SLP098 T01060083",
      "metarTime": "2026-02-16T14:00:00.000Z",
      "taf": "",
      "tafTime": ""
    }
  }
}
