{
  "updated": "2026-03-11T23:00:00.000Z",
  "airports": {
    "KPOC": {
      "name": "Brackett Field",
      "metar": "METAR KPOC 112247Z 25010KT 10SM CLR 16/09 A3020",
      "metarTime": "2026-03-11T23:00:00.000Z",
      "taf": "",
      "tafTime": ""
    },
    "KCCB": {
      "name": "Cable Airport",
      "metar": "METAR KCCB 112255Z AUTO 28010KT 10SM CLR 26/07 A3021 RMK AO2",
      "metarTime": "2026-03-11T23:00:00.000Z",
      "taf": "",
      "tafTime": ""
    },
    "KRAL": {
      "name": "Riverside Municipal",
      "metar": "METAR KRAL 112253Z 26006KT 10SM CLR 28/09 A3018 RMK AO2 SLP208 T02780094",
      "metarTime": "2026-03-11T23:00:00.000Z",
      "taf": "",
      "tafTime": ""
    }
  }
}
