{
  "updated": "2026-02-16T15:15:00.000Z",
  "airports": {
    "KPOC": {
      "name": "Brackett Field",
      "metar": "METAR KPOC 161447Z 09007KT 10SM CLR 12/08 A2984",
      "metarTime": "2026-02-16T15:00:00.000Z",
      "taf": "",
      "tafTime": ""
    },
    "KCCB": {
      "name": "Cable Airport",
      "metar": "METAR KCCB 161515Z AUTO 08007KT 10SM OVC036 11/09 A2982 RMK AO2",
      "metarTime": "2026-02-16T15:15:00.000Z",
      "taf": "",
      "tafTime": ""
    },
    "KRAL": {
      "name": "Riverside Municipal",
      "metar": "METAR KRAL 161453Z AUTO 00000KT 10SM SCT037 11/08 A2984 RMK AO2 SLP097 T01060078 56011",
      "metarTime": "2026-02-16T15:00:00.000Z",
      "taf": "",
      "tafTime": ""
    }
  }
}
