{
  "updated": "2026-05-16T11:35:00.000Z",
  "airports": {
    "KPOC": {
      "name": "Brackett Field",
      "metar": "",
      "metarTime": "",
      "taf": "",
      "tafTime": ""
    },
    "KCCB": {
      "name": "Cable Airport",
      "metar": "METAR KCCB 161135Z AUTO 24004KT 8SM BKN009 OVC021 14/14 A2990 RMK AO2",
      "metarTime": "2026-05-16T11:35:00.000Z",
      "taf": "",
      "tafTime": ""
    },
    "KRAL": {
      "name": "Riverside Municipal",
      "metar": "SPECI KRAL 161104Z AUTO 28003KT 10SM OVC015 16/13 A2991 RMK AO2 T01560133",
      "metarTime": "2026-05-16T11:04:00.000Z",
      "taf": "",
      "tafTime": ""
    }
  }
}
