{
  "updated": "2026-05-02T14:00:00.000Z",
  "airports": {
    "KPOC": {
      "name": "Brackett Field",
      "metar": "METAR KPOC 021347Z 26004KT 2SM OVC006 13/12 A2997 BR",
      "metarTime": "2026-05-02T14:00:00.000Z",
      "taf": "",
      "tafTime": ""
    },
    "KCCB": {
      "name": "Cable Airport",
      "metar": "METAR KCCB 021355Z AUTO 26005KT 1/4SM FG OVC002 13/13 A2996 RMK AO2",
      "metarTime": "2026-05-02T14:00:00.000Z",
      "taf": "",
      "tafTime": ""
    },
    "KRAL": {
      "name": "Riverside Municipal",
      "metar": "METAR KRAL 021353Z VRB03KT 2SM BR OVC003 14/13 A2997 RMK AO2 SLP136 T01390128",
      "metarTime": "2026-05-02T14:00:00.000Z",
      "taf": "",
      "tafTime": ""
    }
  }
}
