{
  "updated": "2026-07-05T15:35:00.000Z",
  "airports": {
    "KPOC": {
      "name": "Brackett Field",
      "metar": "METAR KPOC 051447Z 27005KT 2SM HZ CLR 19/14 A3002",
      "metarTime": "2026-07-05T15:00:00.000Z",
      "taf": "",
      "tafTime": ""
    },
    "KCCB": {
      "name": "Cable Airport",
      "metar": "METAR KCCB 051535Z AUTO 00000KT 3SM HZ CLR 21/14 A3001 RMK AO2",
      "metarTime": "2026-07-05T15:35:00.000Z",
      "taf": "",
      "tafTime": ""
    },
    "KRAL": {
      "name": "Riverside Municipal",
      "metar": "METAR KRAL 051453Z 00000KT 2SM HZ CLR 21/15 A3000 RMK AO2 SLP145 T02110150 53003",
      "metarTime": "2026-07-05T15:00:00.000Z",
      "taf": "",
      "tafTime": ""
    }
  }
}
