{
  "updated": "2026-02-15T22:00:00.000Z",
  "airports": {
    "KPOC": {
      "name": "Brackett Field",
      "metar": "METAR KPOC 152147Z VRB03KT 8SM BKN040 16/05 A2997",
      "metarTime": "2026-02-15T22:00:00.000Z",
      "taf": "",
      "tafTime": ""
    },
    "KCCB": {
      "name": "Cable Airport",
      "metar": "METAR KCCB 152155Z AUTO 23003KT 10SM CLR 15/04 A2995 RMK AO2",
      "metarTime": "2026-02-15T22:00:00.000Z",
      "taf": "",
      "tafTime": ""
    },
    "KRAL": {
      "name": "Riverside Municipal",
      "metar": "METAR KRAL 152153Z VRB04KT 10SM CLR 17/07 A2995 RMK AO2 SLP131 T01670067",
      "metarTime": "2026-02-15T22:00:00.000Z",
      "taf": "",
      "tafTime": ""
    }
  }
}
