{
  "updated": "2026-06-09T09:00:00.000Z",
  "airports": {
    "KPOC": {
      "name": "Brackett Field",
      "metar": "",
      "metarTime": "",
      "taf": "",
      "tafTime": ""
    },
    "KCCB": {
      "name": "Cable Airport",
      "metar": "METAR KCCB 090835Z AUTO 31003KT 10SM CLR 15/14 A2990 RMK AO2",
      "metarTime": "2026-06-09T08:35:00.000Z",
      "taf": "",
      "tafTime": ""
    },
    "KRAL": {
      "name": "Riverside Municipal",
      "metar": "METAR KRAL 090853Z AUTO 00000KT 10SM CLR 16/13 A2990 RMK AO2 SLP109 T01610128 58006",
      "metarTime": "2026-06-09T09:00:00.000Z",
      "taf": "",
      "tafTime": ""
    }
  }
}
