{
  "updated": "2026-02-11T18:35:00.000Z",
  "airports": {
    "KPOC": {
      "name": "Brackett Field",
      "metar": "SPECI KPOC 111835Z VRB03KT 7SM BR BKN025 13/11 A3014",
      "metarTime": "2026-02-11T18:35:00.000Z",
      "taf": "",
      "tafTime": ""
    },
    "KCCB": {
      "name": "Cable Airport",
      "metar": "METAR KCCB 111835Z AUTO 00000KT 10SM BKN007 BKN013 OVC060 12/12 A3013 RMK AO2",
      "metarTime": "2026-02-11T18:35:00.000Z",
      "taf": "",
      "tafTime": ""
    },
    "KRAL": {
      "name": "Riverside Municipal",
      "metar": "SPECI KRAL 111828Z 00000KT 4SM -RA BR FEW011 BKN043 OVC060 13/12 A3014 RMK AO2 P0002 T01280117 $",
      "metarTime": "2026-02-11T18:28:00.000Z",
      "taf": "",
      "tafTime": ""
    }
  }
}
