{
  "updated": "2026-02-05T08:00:00.000Z",
  "airports": {
    "KPOC": {
      "name": "Brackett Field",
      "metar": "",
      "metarTime": "",
      "taf": "",
      "tafTime": ""
    },
    "KCCB": {
      "name": "Cable Airport",
      "metar": "METAR KCCB 050755Z AUTO 36003KT 10SM CLR 19/M09 A3012 RMK AO2",
      "metarTime": "2026-02-05T08:00:00.000Z",
      "taf": "",
      "tafTime": ""
    },
    "KRAL": {
      "name": "Riverside Municipal",
      "metar": "METAR KRAL 050753Z AUTO 06003KT 10SM CLR 17/M04 A3011 RMK AO2 SLP180 T01721039 403000122",
      "metarTime": "2026-02-05T08:00:00.000Z",
      "taf": "",
      "tafTime": ""
    }
  }
}
