{
  "updated": "2026-04-05T23:00:00.000Z",
  "airports": {
    "KPOC": {
      "name": "Brackett Field",
      "metar": "METAR KPOC 052247Z 24010KT 10SM CLR 29/04 A2998",
      "metarTime": "2026-04-05T23:00:00.000Z",
      "taf": "",
      "tafTime": ""
    },
    "KCCB": {
      "name": "Cable Airport",
      "metar": "METAR KCCB 052215Z AUTO 28009KT 10SM CLR 29/M11 A2999 RMK AO2",
      "metarTime": "2026-04-05T22:15:00.000Z",
      "taf": "",
      "tafTime": ""
    },
    "KRAL": {
      "name": "Riverside Municipal",
      "metar": "METAR KRAL 052153Z 26014G20KT 10SM CLR 32/M04 A2996 RMK AO2 SLP128 T03171044 $",
      "metarTime": "2026-04-05T22:00:00.000Z",
      "taf": "",
      "tafTime": ""
    }
  }
}
