{
  "updated": "2026-07-02T22:35:00.000Z",
  "airports": {
    "KPOC": {
      "name": "Brackett Field",
      "metar": "METAR KPOC 022147Z 27010KT 10SM CLR 26/12 A2996",
      "metarTime": "2026-07-02T22:00:00.000Z",
      "taf": "",
      "tafTime": ""
    },
    "KCCB": {
      "name": "Cable Airport",
      "metar": "METAR KCCB 022235Z AUTO 24008G14KT 10SM CLR 27/11 A2995 RMK AO2",
      "metarTime": "2026-07-02T22:35:00.000Z",
      "taf": "",
      "tafTime": ""
    },
    "KRAL": {
      "name": "Riverside Municipal",
      "metar": "METAR KRAL 022153Z 25006KT 10SM CLR 29/10 A2993 RMK AO2 SLP119 T02890100",
      "metarTime": "2026-07-02T22:00:00.000Z",
      "taf": "",
      "tafTime": ""
    }
  }
}
