{
  "updated": "2026-04-27T17:00:00.000Z",
  "airports": {
    "KPOC": {
      "name": "Brackett Field",
      "metar": "",
      "metarTime": "",
      "taf": "",
      "tafTime": ""
    },
    "KCCB": {
      "name": "Cable Airport",
      "metar": "METAR KCCB 271655Z AUTO 27006G12KT 10SM FEW042 OVC050 14/00 A3000 RMK AO2",
      "metarTime": "2026-04-27T17:00:00.000Z",
      "taf": "",
      "tafTime": ""
    },
    "KRAL": {
      "name": "Riverside Municipal",
      "metar": "METAR KRAL 271653Z 26007KT 10SM FEW046 17/04 A3001 RMK AO2 SLP152 T01670044",
      "metarTime": "2026-04-27T17:00:00.000Z",
      "taf": "",
      "tafTime": ""
    }
  }
}
