{
  "updated": "2026-02-14T11:35:00.000Z",
  "airports": {
    "KPOC": {
      "name": "Brackett Field",
      "metar": "",
      "metarTime": "",
      "taf": "",
      "tafTime": ""
    },
    "KCCB": {
      "name": "Cable Airport",
      "metar": "METAR KCCB 141135Z AUTO 06003KT 10SM CLR 10/05 A3008 RMK AO2",
      "metarTime": "2026-02-14T11:35:00.000Z",
      "taf": "",
      "tafTime": ""
    },
    "KRAL": {
      "name": "Riverside Municipal",
      "metar": "METAR KRAL 141053Z AUTO 04003KT 10SM CLR 09/09 A3009 RMK AO2 SLP179 T00890089",
      "metarTime": "2026-02-14T11:00:00.000Z",
      "taf": "",
      "tafTime": ""
    }
  }
}
