{
  "updated": "2026-05-19T16:35:00.000Z",
  "airports": {
    "KPOC": {
      "name": "Brackett Field",
      "metar": "METAR KPOC 191547Z 00000KT 10SM CLR 19/09 A3000",
      "metarTime": "2026-05-19T16:00:00.000Z",
      "taf": "",
      "tafTime": ""
    },
    "KCCB": {
      "name": "Cable Airport",
      "metar": "METAR KCCB 191635Z AUTO 9SM CLR RMK AO2 PNO PWINO",
      "metarTime": "2026-05-19T16:35:00.000Z",
      "taf": "",
      "tafTime": ""
    },
    "KRAL": {
      "name": "Riverside Municipal",
      "metar": "METAR KRAL 191553Z 08003KT 10SM CLR 22/08 A2999 RMK AO2 SLP141 T02220078",
      "metarTime": "2026-05-19T16:00:00.000Z",
      "taf": "",
      "tafTime": ""
    }
  }
}
