{
  "updated": "2026-04-05T11:15:00.000Z",
  "airports": {
    "KPOC": {
      "name": "Brackett Field",
      "metar": "",
      "metarTime": "",
      "taf": "",
      "tafTime": ""
    },
    "KCCB": {
      "name": "Cable Airport",
      "metar": "METAR KCCB 051115Z AUTO 04004KT 10SM CLR 17/M06 A3001 RMK AO2",
      "metarTime": "2026-04-05T11:15:00.000Z",
      "taf": "",
      "tafTime": ""
    },
    "KRAL": {
      "name": "Riverside Municipal",
      "metar": "METAR KRAL 051053Z AUTO 06004KT 10SM CLR 13/02 A3001 RMK AO2 SLP147 T01330017",
      "metarTime": "2026-04-05T11:00:00.000Z",
      "taf": "",
      "tafTime": ""
    }
  }
}
