{
  "updated": "2026-03-22T18:00:00.000Z",
  "airports": {
    "KPOC": {
      "name": "Brackett Field",
      "metar": "METAR KPOC 221747Z 00000KT 7SM CLR 23/14 A2995",
      "metarTime": "2026-03-22T18:00:00.000Z",
      "taf": "",
      "tafTime": ""
    },
    "KCCB": {
      "name": "Cable Airport",
      "metar": "METAR KCCB 221655Z AUTO 00000KT 10SM CLR 23/10 A2995 RMK AO2",
      "metarTime": "2026-03-22T17:00:00.000Z",
      "taf": "",
      "tafTime": ""
    },
    "KRAL": {
      "name": "Riverside Municipal",
      "metar": "METAR KRAL 221753Z 19003KT 10SM CLR 24/09 A2993 RMK AO2 SLP119 T02440094 10244 20144 50005",
      "metarTime": "2026-03-22T18:00:00.000Z",
      "taf": "",
      "tafTime": ""
    }
  }
}
