{
  "updated": "2026-05-05T17:00:00.000Z",
  "airports": {
    "KPOC": {
      "name": "Brackett Field",
      "metar": "METAR KPOC 051647Z 26005KT 10SM BKN032 14/09 A2996",
      "metarTime": "2026-05-05T17:00:00.000Z",
      "taf": "",
      "tafTime": ""
    },
    "KCCB": {
      "name": "Cable Airport",
      "metar": "METAR KCCB 051655Z AUTO 24008G13KT 10SM SCT017 BKN024 14/09 A2995 RMK AO2",
      "metarTime": "2026-05-05T17:00:00.000Z",
      "taf": "",
      "tafTime": ""
    },
    "KRAL": {
      "name": "Riverside Municipal",
      "metar": "METAR KRAL 051653Z 29005KT 10SM BKN035 BKN060 16/08 A2996 RMK AO2 SLP134 T01560083",
      "metarTime": "2026-05-05T17:00:00.000Z",
      "taf": "",
      "tafTime": ""
    }
  }
}
