{
  "updated": "2026-07-20T05:15:00.000Z",
  "airports": {
    "KPOC": {
      "name": "Brackett Field",
      "metar": "",
      "metarTime": "",
      "taf": "",
      "tafTime": ""
    },
    "KCCB": {
      "name": "Cable Airport",
      "metar": "METAR KCCB 200515Z AUTO 26007KT 10SM 25/15 A2995 RMK AO2",
      "metarTime": "2026-07-20T05:15:00.000Z",
      "taf": "",
      "tafTime": ""
    },
    "KRAL": {
      "name": "Riverside Municipal",
      "metar": "METAR KRAL 200453Z AUTO 10SM CLR 26/14 A2992 RMK AO2 SLP115 T02610144",
      "metarTime": "2026-07-20T05:00:00.000Z",
      "taf": "",
      "tafTime": ""
    }
  }
}
