{
  "updated": "2026-02-13T18:15:00.000Z",
  "airports": {
    "KPOC": {
      "name": "Brackett Field",
      "metar": "METAR KPOC 131747Z 20003KT 10SM CLR 16/07 A3002",
      "metarTime": "2026-02-13T18:00:00.000Z",
      "taf": "",
      "tafTime": ""
    },
    "KCCB": {
      "name": "Cable Airport",
      "metar": "METAR KCCB 131815Z AUTO 23005KT 10SM CLR 16/04 A3002 RMK AO2",
      "metarTime": "2026-02-13T18:15:00.000Z",
      "taf": "",
      "tafTime": ""
    },
    "KRAL": {
      "name": "Riverside Municipal",
      "metar": "METAR KRAL 131753Z VRB03KT 10SM CLR 16/07 A3001 RMK AO2 SLP150 T01610067 10161 20078 50005",
      "metarTime": "2026-02-13T18:00:00.000Z",
      "taf": "",
      "tafTime": ""
    }
  }
}
