{
  "updated": "2026-04-11T07:35:00.000Z",
  "airports": {
    "KPOC": {
      "name": "Brackett Field",
      "metar": "",
      "metarTime": "",
      "taf": "",
      "tafTime": ""
    },
    "KCCB": {
      "name": "Cable Airport",
      "metar": "METAR KCCB 110735Z AUTO 24008KT 10SM 14/13 A2997 RMK AO2",
      "metarTime": "2026-04-11T07:35:00.000Z",
      "taf": "",
      "tafTime": ""
    },
    "KRAL": {
      "name": "Riverside Municipal",
      "metar": "METAR KRAL 110653Z AUTO 28004KT 10SM BKN043 16/12 A2997 RMK AO2 SLP136 T01560117",
      "metarTime": "2026-04-11T07:00:00.000Z",
      "taf": "",
      "tafTime": ""
    }
  }
}
