{
  "updated": "2026-04-02T10:00:00.000Z",
  "airports": {
    "KPOC": {
      "name": "Brackett Field",
      "metar": "",
      "metarTime": "",
      "taf": "",
      "tafTime": ""
    },
    "KCCB": {
      "name": "Cable Airport",
      "metar": "",
      "metarTime": "",
      "taf": "",
      "tafTime": ""
    },
    "KRAL": {
      "name": "Riverside Municipal",
      "metar": "METAR KRAL 020953Z AUTO 18003KT 10SM BKN023 OVC029 13/11 A2998 RMK AO2 SLP139 T01330111",
      "metarTime": "2026-04-02T10:00:00.000Z",
      "taf": "",
      "tafTime": ""
    }
  }
}
