{
  "updated": "2026-02-21T12:15:00.000Z",
  "airports": {
    "KPOC": {
      "name": "Brackett Field",
      "metar": "",
      "metarTime": "",
      "taf": "",
      "tafTime": ""
    },
    "KCCB": {
      "name": "Cable Airport",
      "metar": "METAR KCCB 211215Z AUTO 00000KT 10SM CLR 06/00 A3010 RMK AO2",
      "metarTime": "2026-02-21T12:15:00.000Z",
      "taf": "",
      "tafTime": ""
    },
    "KRAL": {
      "name": "Riverside Municipal",
      "metar": "METAR KRAL 211153Z AUTO 08003KT 10SM CLR 04/02 A3012 RMK AO2 SLP191 T00390017 10078 20033 58001 $",
      "metarTime": "2026-02-21T12:00:00.000Z",
      "taf": "",
      "tafTime": ""
    }
  }
}
