{
  "updated": "2026-02-13T12:00:00.000Z",
  "airports": {
    "KPOC": {
      "name": "Brackett Field",
      "metar": "",
      "metarTime": "",
      "taf": "",
      "tafTime": ""
    },
    "KCCB": {
      "name": "Cable Airport",
      "metar": "",
      "metarTime": "",
      "taf": "",
      "tafTime": ""
    },
    "KRAL": {
      "name": "Riverside Municipal",
      "metar": "METAR KRAL 131153Z AUTO 07003KT 10SM CLR 09/07 A2996 RMK AO2 SLP135 T00940072 10139 20094 56014",
      "metarTime": "2026-02-13T12:00:00.000Z",
      "taf": "",
      "tafTime": ""
    }
  }
}
