{
  "updated": "2026-05-29T21:15:00.000Z",
  "airports": {
    "KPOC": {
      "name": "Brackett Field",
      "metar": "METAR KPOC 292047Z 26007KT 10SM BKN027 19/08 A3001",
      "metarTime": "2026-05-29T21:00:00.000Z",
      "taf": "",
      "tafTime": ""
    },
    "KCCB": {
      "name": "Cable Airport",
      "metar": "METAR KCCB 292115Z AUTO 29007G14KT 10SM OVC041 19/08 A3000 RMK AO2",
      "metarTime": "2026-05-29T21:15:00.000Z",
      "taf": "",
      "tafTime": ""
    },
    "KRAL": {
      "name": "Riverside Municipal",
      "metar": "METAR KRAL 292053Z VRB06KT 10SM OVC050 21/08 A3000 RMK AO2 SLP144 T02060083 57007",
      "metarTime": "2026-05-29T21:00:00.000Z",
      "taf": "",
      "tafTime": ""
    }
  }
}
