{
  "updated": "2026-02-18T08:15:00.000Z",
  "airports": {
    "KPOC": {
      "name": "Brackett Field",
      "metar": "",
      "metarTime": "",
      "taf": "",
      "tafTime": ""
    },
    "KCCB": {
      "name": "Cable Airport",
      "metar": "METAR KCCB 180815Z AUTO 23017G25KT 2SM RA 09/09 A2989 RMK AO2 VIS 1 1/4V5",
      "metarTime": "2026-02-18T08:15:00.000Z",
      "taf": "",
      "tafTime": ""
    },
    "KRAL": {
      "name": "Riverside Municipal",
      "metar": "METAR KRAL 180753Z AUTO 21011G25KT 10SM -RA SCT036 OVC049 11/07 A2991 RMK AO2 RAE14B33 SLP118 P0000 T01110067 401440072",
      "metarTime": "2026-02-18T08:00:00.000Z",
      "taf": "",
      "tafTime": ""
    }
  }
}
