{
  "updated": "2026-02-04T23:35:00.000Z",
  "airports": {
    "KPOC": {
      "name": "Brackett Field",
      "metar": "METAR KPOC 042247Z 24009KT 10SM CLR 29/M04 A3007",
      "metarTime": "2026-02-04T23:00:00.000Z",
      "taf": "",
      "tafTime": ""
    },
    "KCCB": {
      "name": "Cable Airport",
      "metar": "METAR KCCB 042335Z AUTO 27006KT 10SM CLR 29/M09 A3008 RMK AO2",
      "metarTime": "2026-02-04T23:35:00.000Z",
      "taf": "",
      "tafTime": ""
    },
    "KRAL": {
      "name": "Riverside Municipal",
      "metar": "METAR KRAL 042253Z 07008G24KT 10SM CLR 29/M04 A3007 RMK AO2 SLP169 T02891044",
      "metarTime": "2026-02-04T23:00:00.000Z",
      "taf": "",
      "tafTime": ""
    }
  }
}
