{
  "updated": "2026-03-10T06:00:00.000Z",
  "airports": {
    "KPOC": {
      "name": "Brackett Field",
      "metar": "",
      "metarTime": "",
      "taf": "",
      "tafTime": ""
    },
    "KCCB": {
      "name": "Cable Airport",
      "metar": "METAR KCCB 100555Z AUTO 22003KT 10SM 14/13 A2997 RMK AO2",
      "metarTime": "2026-03-10T06:00:00.000Z",
      "taf": "",
      "tafTime": ""
    },
    "KRAL": {
      "name": "Riverside Municipal",
      "metar": "METAR KRAL 100553Z AUTO 00000KT 10SM CLR 14/10 A2997 RMK AO2 SLP137 T01440100 10233 20144 51020",
      "metarTime": "2026-03-10T06:00:00.000Z",
      "taf": "",
      "tafTime": ""
    }
  }
}
