{
  "updated": "2026-02-18T01:00:00.000Z",
  "airports": {
    "KPOC": {
      "name": "Brackett Field",
      "metar": "METAR KPOC 180047Z 26010G15KT 10SM BKN040 12/04 A3002",
      "metarTime": "2026-02-18T01:00:00.000Z",
      "taf": "",
      "tafTime": ""
    },
    "KCCB": {
      "name": "Cable Airport",
      "metar": "METAR KCCB 180055Z AUTO 23013KT 10SM FEW039 BKN048 OVC060 12/03 A3001 RMK AO2",
      "metarTime": "2026-02-18T01:00:00.000Z",
      "taf": "",
      "tafTime": ""
    },
    "KRAL": {
      "name": "Riverside Municipal",
      "metar": "METAR KRAL 180053Z AUTO 23011KT 10SM SCT048 SCT060 13/03 A3002 RMK AO2 SLP159 T01280033",
      "metarTime": "2026-02-18T01:00:00.000Z",
      "taf": "",
      "tafTime": ""
    }
  }
}
