{
  "updated": "2026-02-22T11:00:00.000Z",
  "airports": {
    "KPOC": {
      "name": "Brackett Field",
      "metar": "",
      "metarTime": "",
      "taf": "",
      "tafTime": ""
    },
    "KCCB": {
      "name": "Cable Airport",
      "metar": "METAR KCCB 221055Z AUTO 06004KT 10SM CLR 11/M01 A3018 RMK AO2",
      "metarTime": "2026-02-22T11:00:00.000Z",
      "taf": "",
      "tafTime": ""
    },
    "KRAL": {
      "name": "Riverside Municipal",
      "metar": "METAR KRAL 221053Z AUTO 07004KT 10SM CLR 08/02 A3019 RMK AO2 SLP214 T00780017 $",
      "metarTime": "2026-02-22T11:00:00.000Z",
      "taf": "",
      "tafTime": ""
    }
  }
}
