{
  "updated": "2026-05-16T05:00:00.000Z",
  "airports": {
    "KPOC": {
      "name": "Brackett Field",
      "metar": "",
      "metarTime": "",
      "taf": "",
      "tafTime": ""
    },
    "KCCB": {
      "name": "Cable Airport",
      "metar": "METAR KCCB 160455Z AUTO 25008KT 10SM CLR 15/14 A2994 RMK AO2",
      "metarTime": "2026-05-16T05:00:00.000Z",
      "taf": "",
      "tafTime": ""
    },
    "KRAL": {
      "name": "Riverside Municipal",
      "metar": "METAR KRAL 160453Z AUTO 27006KT 10SM CLR 16/12 A2994 RMK AO2 SLP127 T01610122",
      "metarTime": "2026-05-16T05:00:00.000Z",
      "taf": "",
      "tafTime": ""
    }
  }
}
