{
  "updated": "2026-03-18T21:35:00.000Z",
  "airports": {
    "KPOC": {
      "name": "Brackett Field",
      "metar": "",
      "metarTime": "",
      "taf": "",
      "tafTime": ""
    },
    "KCCB": {
      "name": "Cable Airport",
      "metar": "METAR KCCB 182135Z AUTO 28011KT 10SM CLR 34/03 A3003 RMK AO2",
      "metarTime": "2026-03-18T21:35:00.000Z",
      "taf": "",
      "tafTime": ""
    },
    "KRAL": {
      "name": "Riverside Municipal",
      "metar": "METAR KRAL 182053Z 26007KT 10SM CLR 36/06 A3000 RMK AO2 SLP142 T03560056 58013",
      "metarTime": "2026-03-18T21:00:00.000Z",
      "taf": "",
      "tafTime": ""
    }
  }
}
