{
  "updated": "2026-02-07T03:15:00.000Z",
  "airports": {
    "KPOC": {
      "name": "Brackett Field",
      "metar": "METAR KPOC 070247Z 26005KT 10SM CLR 16/12 A3014",
      "metarTime": "2026-02-07T03:00:00.000Z",
      "taf": "",
      "tafTime": ""
    },
    "KCCB": {
      "name": "Cable Airport",
      "metar": "METAR KCCB 070315Z AUTO 26008G13KT 10SM CLR 16/12 A3013 RMK AO2",
      "metarTime": "2026-02-07T03:15:00.000Z",
      "taf": "",
      "tafTime": ""
    },
    "KRAL": {
      "name": "Riverside Municipal",
      "metar": "METAR KRAL 070253Z VRB03KT 10SM FEW110 17/12 A3012 RMK AO2 SLP190 T01670117 53016",
      "metarTime": "2026-02-07T03:00:00.000Z",
      "taf": "",
      "tafTime": ""
    }
  }
}
