{
  "updated": "2026-03-05T14:15:00.000Z",
  "airports": {
    "KPOC": {
      "name": "Brackett Field",
      "metar": "",
      "metarTime": "",
      "taf": "",
      "tafTime": ""
    },
    "KCCB": {
      "name": "Cable Airport",
      "metar": "METAR KCCB 051415Z AUTO 24005KT 5SM BR BKN009 OVC012 12/12 A2990 RMK AO2",
      "metarTime": "2026-03-05T14:15:00.000Z",
      "taf": "",
      "tafTime": ""
    },
    "KRAL": {
      "name": "Riverside Municipal",
      "metar": "METAR KRAL 051353Z AUTO 27004KT 6SM BR FEW014 11/10 A2989 RMK AO2 SLP111 T01110100",
      "metarTime": "2026-03-05T14:00:00.000Z",
      "taf": "",
      "tafTime": ""
    }
  }
}
