{
  "updated": "2026-02-19T17:15:00.000Z",
  "airports": {
    "KPOC": {
      "name": "Brackett Field",
      "metar": "METAR KPOC 191647Z 10006KT 10SM SCT039 BKN048 09/04 A3000",
      "metarTime": "2026-02-19T17:00:00.000Z",
      "taf": "",
      "tafTime": ""
    },
    "KCCB": {
      "name": "Cable Airport",
      "metar": "METAR KCCB 191715Z AUTO 11004KT 10SM BKN038 OVC045 08/04 A2997 RMK AO2",
      "metarTime": "2026-02-19T17:15:00.000Z",
      "taf": "",
      "tafTime": ""
    },
    "KRAL": {
      "name": "Riverside Municipal",
      "metar": "METAR KRAL 191653Z 10004KT 10SM OVC046 09/04 A3000 RMK AO2 SLP151 T00940044",
      "metarTime": "2026-02-19T17:00:00.000Z",
      "taf": "",
      "tafTime": ""
    }
  }
}
