{
  "updated": "2026-03-13T13:35:00.000Z",
  "airports": {
    "KPOC": {
      "name": "Brackett Field",
      "metar": "",
      "metarTime": "",
      "taf": "",
      "tafTime": ""
    },
    "KCCB": {
      "name": "Cable Airport",
      "metar": "METAR KCCB 131335Z AUTO 05004KT 10SM FEW019 19/M04 A3002 RMK AO2",
      "metarTime": "2026-03-13T13:35:00.000Z",
      "taf": "",
      "tafTime": ""
    },
    "KRAL": {
      "name": "Riverside Municipal",
      "metar": "METAR KRAL 131253Z AUTO 05003KT 10SM CLR 12/02 A3001 RMK AO2 SLP147 T01170017",
      "metarTime": "2026-03-13T13:00:00.000Z",
      "taf": "",
      "tafTime": ""
    }
  }
}
