{
  "updated": "2026-05-16T15:15:00.000Z",
  "airports": {
    "KPOC": {
      "name": "Brackett Field",
      "metar": "METAR KPOC 161447Z 25005KT 2SM OVC009 16/13 A2993 BR",
      "metarTime": "2026-05-16T15:00:00.000Z",
      "taf": "",
      "tafTime": ""
    },
    "KCCB": {
      "name": "Cable Airport",
      "metar": "METAR KCCB 161515Z AUTO 26007KT 7SM FEW007 BKN014 OVC025 14/14 A2993 RMK AO2",
      "metarTime": "2026-05-16T15:15:00.000Z",
      "taf": "",
      "tafTime": ""
    },
    "KRAL": {
      "name": "Riverside Municipal",
      "metar": "METAR KRAL 161453Z 00000KT 10SM OVC040 16/13 A2992 RMK AO2 SLP119 T01610128 51007",
      "metarTime": "2026-05-16T15:00:00.000Z",
      "taf": "",
      "tafTime": ""
    }
  }
}
