{
  "updated": "2026-05-09T18:00:00.000Z",
  "airports": {
    "KPOC": {
      "name": "Brackett Field",
      "metar": "METAR KPOC 091747Z 00000KT 5SM CLR 22/14 A2994 HZ",
      "metarTime": "2026-05-09T18:00:00.000Z",
      "taf": "",
      "tafTime": ""
    },
    "KCCB": {
      "name": "Cable Airport",
      "metar": "METAR KCCB 091755Z AUTO VRB04KT 5SM HZ CLR 22/13 A2994 RMK AO2",
      "metarTime": "2026-05-09T18:00:00.000Z",
      "taf": "",
      "tafTime": ""
    },
    "KRAL": {
      "name": "Riverside Municipal",
      "metar": "METAR KRAL 091753Z COR 5SM VRB04KT CLR 22/13 A2992 RMK AO2 SLP119 T02220133 10222 20133 58008 $",
      "metarTime": "2026-05-09T18:00:00.000Z",
      "taf": "",
      "tafTime": ""
    }
  }
}
