{
  "updated": "2026-03-07T11:35:00.000Z",
  "airports": {
    "KPOC": {
      "name": "Brackett Field",
      "metar": "",
      "metarTime": "",
      "taf": "",
      "tafTime": ""
    },
    "KCCB": {
      "name": "Cable Airport",
      "metar": "METAR KCCB 071135Z AUTO 05014G24KT 010V080 10SM 16/M10 A3002 RMK AO2",
      "metarTime": "2026-03-07T11:35:00.000Z",
      "taf": "",
      "tafTime": ""
    },
    "KRAL": {
      "name": "Riverside Municipal",
      "metar": "METAR KRAL 071053Z AUTO 01007G20KT 10SM CLR 17/M09 A3001 RMK AO2 SLP148 T01671094",
      "metarTime": "2026-03-07T11:00:00.000Z",
      "taf": "",
      "tafTime": ""
    }
  }
}
