{
  "updated": "2026-04-08T06:15:00.000Z",
  "airports": {
    "KPOC": {
      "name": "Brackett Field",
      "metar": "",
      "metarTime": "",
      "taf": "",
      "tafTime": ""
    },
    "KCCB": {
      "name": "Cable Airport",
      "metar": "METAR KCCB 080615Z AUTO 30004KT 10SM 17/12 A2994 RMK AO2",
      "metarTime": "2026-04-08T06:15:00.000Z",
      "taf": "",
      "tafTime": ""
    },
    "KRAL": {
      "name": "Riverside Municipal",
      "metar": "METAR KRAL 080553Z AUTO 00000KT 10SM CLR 18/13 A2994 RMK AO2 SLP123 T01830128 10267 20178 50010",
      "metarTime": "2026-04-08T06:00:00.000Z",
      "taf": "",
      "tafTime": ""
    }
  }
}
