{
  "updated": "2026-06-14T15:00:00.000Z",
  "airports": {
    "KPOC": {
      "name": "Brackett Field",
      "metar": "METAR KPOC 141447Z 00000KT 7SM CLR 19/15 A2997",
      "metarTime": "2026-06-14T15:00:00.000Z",
      "taf": "",
      "tafTime": ""
    },
    "KCCB": {
      "name": "Cable Airport",
      "metar": "METAR KCCB 141405Z AUTO 00000KT 10SM CLR 20/13 A2996 RMK AO2",
      "metarTime": "2026-06-14T14:05:00.000Z",
      "taf": "",
      "tafTime": ""
    },
    "KRAL": {
      "name": "Riverside Municipal",
      "metar": "METAR KRAL 141453Z 27003KT 10SM CLR 21/15 A2996 RMK AO2 SLP130 T02060150 53011",
      "metarTime": "2026-06-14T15:00:00.000Z",
      "taf": "",
      "tafTime": ""
    }
  }
}
