{
  "updated": "2026-05-14T20:35:00.000Z",
  "airports": {
    "KPOC": {
      "name": "Brackett Field",
      "metar": "METAR KPOC 141947Z 25008KT 10SM CLR 21/12 A3003",
      "metarTime": "2026-05-14T20:00:00.000Z",
      "taf": "",
      "tafTime": ""
    },
    "KCCB": {
      "name": "Cable Airport",
      "metar": "METAR KCCB 142035Z AUTO 27012KT 10SM CLR 21/11 A3001 RMK AO2",
      "metarTime": "2026-05-14T20:35:00.000Z",
      "taf": "",
      "tafTime": ""
    },
    "KRAL": {
      "name": "Riverside Municipal",
      "metar": "METAR KRAL 141953Z 25007KT 10SM CLR 24/11 A3000 RMK AO2 SLP146 T02390106",
      "metarTime": "2026-05-14T20:00:00.000Z",
      "taf": "",
      "tafTime": ""
    }
  }
}
