{
  "updated": "2026-07-08T23:00:00.000Z",
  "airports": {
    "KPOC": {
      "name": "Brackett Field",
      "metar": "METAR KPOC 082247Z 26011KT 10SM CLR 33/13 A2991",
      "metarTime": "2026-07-08T23:00:00.000Z",
      "taf": "",
      "tafTime": ""
    },
    "KCCB": {
      "name": "Cable Airport",
      "metar": "METAR KCCB 082235Z AUTO 26012KT 10SM CLR 33/11 A2992 RMK AO2",
      "metarTime": "2026-07-08T22:35:00.000Z",
      "taf": "",
      "tafTime": ""
    },
    "KRAL": {
      "name": "Riverside Municipal",
      "metar": "METAR KRAL 082153Z 26013G18KT 10SM CLR 36/11 A2989 RMK AO2 SLP103 T03560111",
      "metarTime": "2026-07-08T22:00:00.000Z",
      "taf": "",
      "tafTime": ""
    }
  }
}
