{
  "updated": "2026-06-09T01:15:00.000Z",
  "airports": {
    "KPOC": {
      "name": "Brackett Field",
      "metar": "METAR KPOC 090047Z 26010KT 10SM CLR 24/13 A2988",
      "metarTime": "2026-06-09T01:00:00.000Z",
      "taf": "",
      "tafTime": ""
    },
    "KCCB": {
      "name": "Cable Airport",
      "metar": "METAR KCCB 090115Z AUTO 26012KT 10SM CLR 24/12 A2988 RMK AO2",
      "metarTime": "2026-06-09T01:15:00.000Z",
      "taf": "",
      "tafTime": ""
    },
    "KRAL": {
      "name": "Riverside Municipal",
      "metar": "METAR KRAL 090053Z 27012G20KT 10SM CLR 24/12 A2986 RMK AO2 SLP098 T02440122",
      "metarTime": "2026-06-09T01:00:00.000Z",
      "taf": "",
      "tafTime": ""
    }
  }
}
