{
  "updated": "2026-02-16T05:15:00.000Z",
  "airports": {
    "KPOC": {
      "name": "Brackett Field",
      "metar": "",
      "metarTime": "",
      "taf": "",
      "tafTime": ""
    },
    "KCCB": {
      "name": "Cable Airport",
      "metar": "METAR KCCB 160515Z AUTO 27004KT 10SM SCT018 SCT035 BKN044 11/09 A2994 RMK AO2",
      "metarTime": "2026-02-16T05:15:00.000Z",
      "taf": "",
      "tafTime": ""
    },
    "KRAL": {
      "name": "Riverside Municipal",
      "metar": "METAR KRAL 160453Z AUTO 00000KT 10SM OVC049 13/08 A2995 RMK AO2 SLP130 T01280078",
      "metarTime": "2026-02-16T05:00:00.000Z",
      "taf": "",
      "tafTime": ""
    }
  }
}
