{
  "updated": "2026-05-06T05:00:00.000Z",
  "airports": {
    "KPOC": {
      "name": "Brackett Field",
      "metar": "",
      "metarTime": "",
      "taf": "",
      "tafTime": ""
    },
    "KCCB": {
      "name": "Cable Airport",
      "metar": "METAR KCCB 060455Z AUTO 29004KT 10SM OVC043 14/07 A3002 RMK AO2",
      "metarTime": "2026-05-06T05:00:00.000Z",
      "taf": "",
      "tafTime": ""
    },
    "KRAL": {
      "name": "Riverside Municipal",
      "metar": "METAR KRAL 060453Z AUTO 00000KT 10SM SCT060 15/07 A3002 RMK AO2 SLP156 T01500072",
      "metarTime": "2026-05-06T05:00:00.000Z",
      "taf": "",
      "tafTime": ""
    }
  }
}
