{
  "updated": "2026-02-09T14:00:00.000Z",
  "airports": {
    "KPOC": {
      "name": "Brackett Field",
      "metar": "",
      "metarTime": "",
      "taf": "",
      "tafTime": ""
    },
    "KCCB": {
      "name": "Cable Airport",
      "metar": "METAR KCCB 091355Z AUTO 03004KT 10SM CLR 17/M04 A3006 RMK AO2",
      "metarTime": "2026-02-09T14:00:00.000Z",
      "taf": "",
      "tafTime": ""
    },
    "KRAL": {
      "name": "Riverside Municipal",
      "metar": "METAR KRAL 091353Z AUTO 00000KT 10SM CLR 11/02 A3007 RMK AO2 SLP171 T01110017 $",
      "metarTime": "2026-02-09T14:00:00.000Z",
      "taf": "",
      "tafTime": ""
    }
  }
}
