{
  "updated": "2026-03-31T06:00:00.000Z",
  "airports": {
    "KPOC": {
      "name": "Brackett Field",
      "metar": "",
      "metarTime": "",
      "taf": "",
      "tafTime": ""
    },
    "KCCB": {
      "name": "Cable Airport",
      "metar": "METAR KCCB 310555Z AUTO 00000KT 10SM 16/15 A3001 RMK AO2",
      "metarTime": "2026-03-31T06:00:00.000Z",
      "taf": "",
      "tafTime": ""
    },
    "KRAL": {
      "name": "Riverside Municipal",
      "metar": "METAR KRAL 310553Z AUTO 00000KT 10SM CLR 17/14 A3000 RMK AO2 SLP144 T01670139 10239 20161 50006",
      "metarTime": "2026-03-31T06:00:00.000Z",
      "taf": "",
      "tafTime": ""
    }
  }
}
