{
  "updated": "2026-06-08T23:00:00.000Z",
  "airports": {
    "KPOC": {
      "name": "Brackett Field",
      "metar": "METAR KPOC 082247Z 23010KT 10SM CLR 27/12 A2988",
      "metarTime": "2026-06-08T23:00:00.000Z",
      "taf": "",
      "tafTime": ""
    },
    "KCCB": {
      "name": "Cable Airport",
      "metar": "METAR KCCB 082255Z AUTO 26011KT 10SM CLR 27/10 A2988 RMK AO2",
      "metarTime": "2026-06-08T23:00:00.000Z",
      "taf": "",
      "tafTime": ""
    },
    "KRAL": {
      "name": "Riverside Municipal",
      "metar": "METAR KRAL 082253Z 29013G23KT 10SM CLR 28/12 A2985 RMK AO2 SLP091 T02830117",
      "metarTime": "2026-06-08T23:00:00.000Z",
      "taf": "",
      "tafTime": ""
    }
  }
}
