{
  "updated": "2026-03-20T15:15:00.000Z",
  "airports": {
    "KPOC": {
      "name": "Brackett Field",
      "metar": "METAR KPOC 201447Z 00000KT 10SM CLR 19/09 A3001",
      "metarTime": "2026-03-20T15:00:00.000Z",
      "taf": "",
      "tafTime": ""
    },
    "KCCB": {
      "name": "Cable Airport",
      "metar": "METAR KCCB 201515Z AUTO 00000KT 10SM CLR 24/07 A3002 RMK AO2",
      "metarTime": "2026-03-20T15:15:00.000Z",
      "taf": "",
      "tafTime": ""
    },
    "KRAL": {
      "name": "Riverside Municipal",
      "metar": "METAR KRAL 201453Z 04003KT 10SM CLR 19/09 A3000 RMK AO2 SLP142 T01940094 53008",
      "metarTime": "2026-03-20T15:00:00.000Z",
      "taf": "",
      "tafTime": ""
    }
  }
}
