{
  "updated": "2026-02-17T21:00:00.000Z",
  "airports": {
    "KPOC": {
      "name": "Brackett Field",
      "metar": "SPECI KPOC 172045Z 00000KT 03SM OVC009 11/09 A3007 BR",
      "metarTime": "2026-02-17T20:45:00.000Z",
      "taf": "",
      "tafTime": ""
    },
    "KCCB": {
      "name": "Cable Airport",
      "metar": "METAR KCCB 172055Z AUTO VRB04KT 10SM FEW008 SCT013 BKN020 11/11 A3005 RMK AO2",
      "metarTime": "2026-02-17T21:00:00.000Z",
      "taf": "",
      "tafTime": ""
    },
    "KRAL": {
      "name": "Riverside Municipal",
      "metar": "METAR KRAL 172053Z 00000KT 10SM BKN034 OVC044 12/08 A3006 RMK AO2 RAE13 SLP172 P0001 60001 T01220083 58012",
      "metarTime": "2026-02-17T21:00:00.000Z",
      "taf": "",
      "tafTime": ""
    }
  }
}
