{
  "updated": "2026-02-05T16:15:00.000Z",
  "airports": {
    "KPOC": {
      "name": "Brackett Field",
      "metar": "METAR KPOC 051547Z VRB04KT 10SM CLR 17/M04 A3009",
      "metarTime": "2026-02-05T16:00:00.000Z",
      "taf": "",
      "tafTime": ""
    },
    "KCCB": {
      "name": "Cable Airport",
      "metar": "METAR KCCB 051615Z AUTO 01005KT 10SM CLR 18/M07 A3009 RMK AO2",
      "metarTime": "2026-02-05T16:15:00.000Z",
      "taf": "",
      "tafTime": ""
    },
    "KRAL": {
      "name": "Riverside Municipal",
      "metar": "METAR KRAL 051553Z 09003KT 10SM CLR 14/M03 A3009 RMK AO2 SLP175 T01391028",
      "metarTime": "2026-02-05T16:00:00.000Z",
      "taf": "",
      "tafTime": ""
    }
  }
}
