{
  "updated": "2026-02-05T23:35:00.000Z",
  "airports": {
    "KPOC": {
      "name": "Brackett Field",
      "metar": "METAR KPOC 052247Z VRB05KT 10SM CLR 26/M03 A3003",
      "metarTime": "2026-02-05T23:00:00.000Z",
      "taf": "",
      "tafTime": ""
    },
    "KCCB": {
      "name": "Cable Airport",
      "metar": "METAR KCCB 052335Z AUTO 22006KT 10SM CLR 25/M05 A3003 RMK AO2",
      "metarTime": "2026-02-05T23:35:00.000Z",
      "taf": "",
      "tafTime": ""
    },
    "KRAL": {
      "name": "Riverside Municipal",
      "metar": "METAR KRAL 052253Z 22005KT 10SM CLR 27/M04 A3000 RMK AO2 SLP145 T02721039",
      "metarTime": "2026-02-05T23:00:00.000Z",
      "taf": "",
      "tafTime": ""
    }
  }
}
