{
  "updated": "2026-03-17T08:15:00.000Z",
  "airports": {
    "KPOC": {
      "name": "Brackett Field",
      "metar": "",
      "metarTime": "",
      "taf": "",
      "tafTime": ""
    },
    "KCCB": {
      "name": "Cable Airport",
      "metar": "METAR KCCB 170815Z AUTO 01005KT 10SM 22/03 A2998 RMK AO2",
      "metarTime": "2026-03-17T08:15:00.000Z",
      "taf": "",
      "tafTime": ""
    },
    "KRAL": {
      "name": "Riverside Municipal",
      "metar": "METAR KRAL 170753Z AUTO 14004KT 10SM CLR 21/05 A2996 RMK AO2 SLP127 T02110050 403500128",
      "metarTime": "2026-03-17T08:00:00.000Z",
      "taf": "",
      "tafTime": ""
    }
  }
}
