{
  "updated": "2026-02-24T21:35:00.000Z",
  "airports": {
    "KPOC": {
      "name": "Brackett Field",
      "metar": "METAR KPOC 242047Z 25006KT 10SM CLR 25/05 A3005",
      "metarTime": "2026-02-24T21:00:00.000Z",
      "taf": "",
      "tafTime": ""
    },
    "KCCB": {
      "name": "Cable Airport",
      "metar": "METAR KCCB 242135Z AUTO 24006KT 10SM CLR 25/02 A3003 RMK AO2",
      "metarTime": "2026-02-24T21:35:00.000Z",
      "taf": "",
      "tafTime": ""
    },
    "KRAL": {
      "name": "Riverside Municipal",
      "metar": "METAR KRAL 242053Z VRB03KT 10SM CLR 25/06 A3003 RMK AO2 SLP155 T02500056 58018",
      "metarTime": "2026-02-24T21:00:00.000Z",
      "taf": "",
      "tafTime": ""
    }
  }
}
