{
  "updated": "2026-04-27T09:00:00.000Z",
  "airports": {
    "KPOC": {
      "name": "Brackett Field",
      "metar": "",
      "metarTime": "",
      "taf": "",
      "tafTime": ""
    },
    "KCCB": {
      "name": "Cable Airport",
      "metar": "METAR KCCB 270855Z AUTO 29004KT 10SM BKN055 12/07 A2998 RMK AO2",
      "metarTime": "2026-04-27T09:00:00.000Z",
      "taf": "",
      "tafTime": ""
    },
    "KRAL": {
      "name": "Riverside Municipal",
      "metar": "METAR KRAL 270853Z AUTO 00000KT 10SM OVC060 12/07 A3000 RMK AO2 SLP146 T01220072 58001",
      "metarTime": "2026-04-27T09:00:00.000Z",
      "taf": "",
      "tafTime": ""
    }
  }
}
