{
  "updated": "2026-02-28T22:00:00.000Z",
  "airports": {
    "KPOC": {
      "name": "Brackett Field",
      "metar": "METAR KPOC 282147Z 22008KT 10SM CLR 30/12 A2992",
      "metarTime": "2026-02-28T22:00:00.000Z",
      "taf": "",
      "tafTime": ""
    },
    "KCCB": {
      "name": "Cable Airport",
      "metar": "METAR KCCB 282155Z AUTO 25009KT 10SM CLR 30/08 A2993 RMK AO2",
      "metarTime": "2026-02-28T22:00:00.000Z",
      "taf": "",
      "tafTime": ""
    },
    "KRAL": {
      "name": "Riverside Municipal",
      "metar": "METAR KRAL 282153Z 27009KT 10SM CLR 31/12 A2990 RMK AO2 SLP107 T03110117",
      "metarTime": "2026-02-28T22:00:00.000Z",
      "taf": "",
      "tafTime": ""
    }
  }
}
