{
  "updated": "2026-04-05T01:00:00.000Z",
  "airports": {
    "KPOC": {
      "name": "Brackett Field",
      "metar": "METAR KPOC 050047Z 26011KT 10SM CLR 28/M01 A2996",
      "metarTime": "2026-04-05T01:00:00.000Z",
      "taf": "",
      "tafTime": ""
    },
    "KCCB": {
      "name": "Cable Airport",
      "metar": "METAR KCCB 050055Z AUTO 29009KT 10SM CLR 29/M12 A2997 RMK AO2",
      "metarTime": "2026-04-05T01:00:00.000Z",
      "taf": "",
      "tafTime": ""
    },
    "KRAL": {
      "name": "Riverside Municipal",
      "metar": "METAR KRAL 050053Z AUTO 36005KT 10SM CLR 29/M11 A2994 RMK AO2 SLP123 T02941106",
      "metarTime": "2026-04-05T01:00:00.000Z",
      "taf": "",
      "tafTime": ""
    }
  }
}
