{
  "updated": "2026-07-13T20:00:00.000Z",
  "airports": {
    "KPOC": {
      "name": "Brackett Field",
      "metar": "METAR KPOC 131947Z 26006KT 10SM CLR 26/18 A3000",
      "metarTime": "2026-07-13T20:00:00.000Z",
      "taf": "",
      "tafTime": ""
    },
    "KCCB": {
      "name": "Cable Airport",
      "metar": "METAR KCCB 131935Z AUTO 27007KT 9SM CLR 26/18 A3000 RMK AO2",
      "metarTime": "2026-07-13T19:35:00.000Z",
      "taf": "",
      "tafTime": ""
    },
    "KRAL": {
      "name": "Riverside Municipal",
      "metar": "METAR KRAL 131853Z 00000KT 10SM FEW120 26/18 A2998 RMK AO2 SLP137 T02560178",
      "metarTime": "2026-07-13T19:00:00.000Z",
      "taf": "",
      "tafTime": ""
    }
  }
}
