{
  "updated": "2026-06-06T15:35:00.000Z",
  "airports": {
    "KPOC": {
      "name": "Brackett Field",
      "metar": "",
      "metarTime": "",
      "taf": "",
      "tafTime": ""
    },
    "KCCB": {
      "name": "Cable Airport",
      "metar": "METAR KCCB 061535Z AUTO 00000KT 5SM BR CLR 16/16 A2988 RMK AO2",
      "metarTime": "2026-06-06T15:35:00.000Z",
      "taf": "",
      "tafTime": ""
    },
    "KRAL": {
      "name": "Riverside Municipal",
      "metar": "METAR KRAL 061453Z 27004KT 6SM BR OVC007 16/14 A2988 RMK AO2 SLP104 T01610139 53007",
      "metarTime": "2026-06-06T15:00:00.000Z",
      "taf": "",
      "tafTime": ""
    }
  }
}
