{
  "updated": "2026-03-28T07:15:00.000Z",
  "airports": {
    "KPOC": {
      "name": "Brackett Field",
      "metar": "",
      "metarTime": "",
      "taf": "",
      "tafTime": ""
    },
    "KCCB": {
      "name": "Cable Airport",
      "metar": "METAR KCCB 280715Z AUTO 00000KT 10SM 19/05 A3000 RMK AO2",
      "metarTime": "2026-03-28T07:15:00.000Z",
      "taf": "",
      "tafTime": ""
    },
    "KRAL": {
      "name": "Riverside Municipal",
      "metar": "METAR KRAL 280653Z AUTO 00000KT 10SM CLR 19/13 A2999 RMK AO2 SLP141 T01890128",
      "metarTime": "2026-03-28T07:00:00.000Z",
      "taf": "",
      "tafTime": ""
    }
  }
}
