{
  "updated": "2026-05-08T17:00:00.000Z",
  "airports": {
    "KPOC": {
      "name": "Brackett Field",
      "metar": "SPECI KPOC 081647Z 00000KT 04SM CLR 18/13 A3002 HZ",
      "metarTime": "2026-05-08T16:47:00.000Z",
      "taf": "",
      "tafTime": ""
    },
    "KCCB": {
      "name": "Cable Airport",
      "metar": "METAR KCCB 081655Z AUTO VRB03KT 5SM HZ CLR 18/14 A3001 RMK AO2",
      "metarTime": "2026-05-08T17:00:00.000Z",
      "taf": "",
      "tafTime": ""
    },
    "KRAL": {
      "name": "Riverside Municipal",
      "metar": "METAR KRAL 081653Z 00000KT 4SM HZ SCT008 18/13 A3001 RMK AO2 SLP150 T01780128",
      "metarTime": "2026-05-08T17:00:00.000Z",
      "taf": "",
      "tafTime": ""
    }
  }
}
