{
  "updated": "2026-06-26T06:00:00.000Z",
  "airports": {
    "KPOC": {
      "name": "Brackett Field",
      "metar": "",
      "metarTime": "",
      "taf": "",
      "tafTime": ""
    },
    "KCCB": {
      "name": "Cable Airport",
      "metar": "METAR KCCB 260555Z AUTO 28005KT 10SM 17/16 A2992 RMK AO2",
      "metarTime": "2026-06-26T06:00:00.000Z",
      "taf": "",
      "tafTime": ""
    },
    "KRAL": {
      "name": "Riverside Municipal",
      "metar": "METAR KRAL 260553Z AUTO 28005KT 10SM CLR 18/14 A2992 RMK AO2 SLP117 T01780139 10306 20178 51015",
      "metarTime": "2026-06-26T06:00:00.000Z",
      "taf": "",
      "tafTime": ""
    }
  }
}
