{
  "updated": "2026-02-05T01:00:00.000Z",
  "airports": {
    "KPOC": {
      "name": "Brackett Field",
      "metar": "METAR KPOC 050047Z 14009KT 10SM CLR 28/M06 A3008",
      "metarTime": "2026-02-05T01:00:00.000Z",
      "taf": "",
      "tafTime": ""
    },
    "KCCB": {
      "name": "Cable Airport",
      "metar": "METAR KCCB 050055Z AUTO 36005KT 10SM CLR 27/M06 A3009 RMK AO2",
      "metarTime": "2026-02-05T01:00:00.000Z",
      "taf": "",
      "tafTime": ""
    },
    "KRAL": {
      "name": "Riverside Municipal",
      "metar": "METAR KRAL 050053Z 00000KT 10SM CLR 27/M05 A3010 RMK AO2 SLP177 T02671050",
      "metarTime": "2026-02-05T01:00:00.000Z",
      "taf": "",
      "tafTime": ""
    }
  }
}
