{
  "updated": "2026-04-24T17:35:00.000Z",
  "airports": {
    "KPOC": {
      "name": "Brackett Field",
      "metar": "METAR KPOC 241647Z 28005KT 10SM CLR 17/10 A2995",
      "metarTime": "2026-04-24T17:00:00.000Z",
      "taf": "",
      "tafTime": ""
    },
    "KCCB": {
      "name": "Cable Airport",
      "metar": "METAR KCCB 241735Z AUTO 27006KT 9SM CLR 18/09 A2994 RMK AO2",
      "metarTime": "2026-04-24T17:35:00.000Z",
      "taf": "",
      "tafTime": ""
    },
    "KRAL": {
      "name": "Riverside Municipal",
      "metar": "SPECI KRAL 241713Z 00000KT 10SM CLR 19/08 A2994 RMK AO2 T01940083",
      "metarTime": "2026-04-24T17:13:00.000Z",
      "taf": "",
      "tafTime": ""
    }
  }
}
