{
  "updated": "2026-05-28T13:00:00.000Z",
  "airports": {
    "KPOC": {
      "name": "Brackett Field",
      "metar": "",
      "metarTime": "",
      "taf": "",
      "tafTime": ""
    },
    "KCCB": {
      "name": "Cable Airport",
      "metar": "METAR KCCB 281235Z AUTO 01003KT 10SM 10/07 A2992 RMK AO2",
      "metarTime": "2026-05-28T12:35:00.000Z",
      "taf": "",
      "tafTime": ""
    },
    "KRAL": {
      "name": "Riverside Municipal",
      "metar": "METAR KRAL 281253Z AUTO 00000KT 10SM CLR 10/08 A2993 RMK AO2 SLP124 T01000083",
      "metarTime": "2026-05-28T13:00:00.000Z",
      "taf": "",
      "tafTime": ""
    }
  }
}
