{
  "updated": "2026-07-22T12:35:00.000Z",
  "airports": {
    "KPOC": {
      "name": "Brackett Field",
      "metar": "",
      "metarTime": "",
      "taf": "",
      "tafTime": ""
    },
    "KCCB": {
      "name": "Cable Airport",
      "metar": "METAR KCCB 221235Z AUTO 00000KT 10SM 22/13 A3000 RMK AO2",
      "metarTime": "2026-07-22T12:35:00.000Z",
      "taf": "",
      "tafTime": ""
    },
    "KRAL": {
      "name": "Riverside Municipal",
      "metar": "METAR KRAL 221153Z AUTO 24004KT 10SM CLR 22/14 A2998 RMK AO2 SLP134 T02170139 10250 20217 56007",
      "metarTime": "2026-07-22T12:00:00.000Z",
      "taf": "",
      "tafTime": ""
    }
  }
}
