{
  "updated": "2026-03-02T06:00:00.000Z",
  "airports": {
    "KPOC": {
      "name": "Brackett Field",
      "metar": "",
      "metarTime": "",
      "taf": "",
      "tafTime": ""
    },
    "KCCB": {
      "name": "Cable Airport",
      "metar": "METAR KCCB 020555Z AUTO 00000KT 10SM CLR 19/10 A3000 RMK AO2",
      "metarTime": "2026-03-02T06:00:00.000Z",
      "taf": "",
      "tafTime": ""
    },
    "KRAL": {
      "name": "Riverside Municipal",
      "metar": "METAR KRAL 020553Z AUTO 13003KT 10SM CLR 18/11 A2999 RMK AO2 SLP141 T01780111 10272 20178 51010",
      "metarTime": "2026-03-02T06:00:00.000Z",
      "taf": "",
      "tafTime": ""
    }
  }
}
