{
  "updated": "2026-03-26T21:15:00.000Z",
  "airports": {
    "KPOC": {
      "name": "Brackett Field",
      "metar": "",
      "metarTime": "",
      "taf": "",
      "tafTime": ""
    },
    "KCCB": {
      "name": "Cable Airport",
      "metar": "METAR KCCB 262115Z AUTO 26008KT 9SM CLR 29/06 A2991 RMK AO2",
      "metarTime": "2026-03-26T21:15:00.000Z",
      "taf": "",
      "tafTime": ""
    },
    "KRAL": {
      "name": "Riverside Municipal",
      "metar": "METAR KRAL 262053Z 21003KT 10SM CLR 31/04 A2989 RMK AO2 SLP106 T03060044 58024",
      "metarTime": "2026-03-26T21:00:00.000Z",
      "taf": "",
      "tafTime": ""
    }
  }
}
