{
  "updated": "2026-04-05T09:15:00.000Z",
  "airports": {
    "KPOC": {
      "name": "Brackett Field",
      "metar": "",
      "metarTime": "",
      "taf": "",
      "tafTime": ""
    },
    "KCCB": {
      "name": "Cable Airport",
      "metar": "METAR KCCB 050915Z AUTO 04003KT 10SM CLR 18/M06 A3003 RMK AO2",
      "metarTime": "2026-04-05T09:15:00.000Z",
      "taf": "",
      "tafTime": ""
    },
    "KRAL": {
      "name": "Riverside Municipal",
      "metar": "METAR KRAL 050853Z AUTO 11003KT 10SM CLR 15/01 A3003 RMK AO2 SLP152 T01500006 50001",
      "metarTime": "2026-04-05T09:00:00.000Z",
      "taf": "",
      "tafTime": ""
    }
  }
}
