{
  "updated": "2026-02-11T11:31:00.000Z",
  "airports": {
    "KPOC": {
      "name": "Brackett Field",
      "metar": "",
      "metarTime": "",
      "taf": "",
      "tafTime": ""
    },
    "KCCB": {
      "name": "Cable Airport",
      "metar": "METAR KCCB 111115Z AUTO VRB04KT 2SM RA OVC003 12/12 A2999 RMK AO2",
      "metarTime": "2026-02-11T11:15:00.000Z",
      "taf": "",
      "tafTime": ""
    },
    "KRAL": {
      "name": "Riverside Municipal",
      "metar": "SPECI KRAL 111131Z AUTO VRB04KT 9SM -RA SCT017 BKN025 OVC031 13/12 A2999 RMK AO2 RAB02 P0003 T01280117 $",
      "metarTime": "2026-02-11T11:31:00.000Z",
      "taf": "",
      "tafTime": ""
    }
  }
}
