{
  "updated": "2026-07-21T01:15:00.000Z",
  "airports": {
    "KPOC": {
      "name": "Brackett Field",
      "metar": "METAR KPOC 210047Z 25006KT 10SM CLR 29/16 A2990",
      "metarTime": "2026-07-21T01:00:00.000Z",
      "taf": "",
      "tafTime": ""
    },
    "KCCB": {
      "name": "Cable Airport",
      "metar": "METAR KCCB 210115Z AUTO 26009KT 10SM CLR 29/15 A2991 RMK AO2",
      "metarTime": "2026-07-21T01:15:00.000Z",
      "taf": "",
      "tafTime": ""
    },
    "KRAL": {
      "name": "Riverside Municipal",
      "metar": "METAR KRAL 210053Z 28007KT 10SM CLR 32/08 A2988 RMK AO2 SLP099 T03220078",
      "metarTime": "2026-07-21T01:00:00.000Z",
      "taf": "",
      "tafTime": ""
    }
  }
}
