{
  "updated": "2026-04-19T16:00:00.000Z",
  "airports": {
    "KPOC": {
      "name": "Brackett Field",
      "metar": "METAR KPOC 191547Z 26004KT 10SM CLR 18/09 A2993",
      "metarTime": "2026-04-19T16:00:00.000Z",
      "taf": "",
      "tafTime": ""
    },
    "KCCB": {
      "name": "Cable Airport",
      "metar": "METAR KCCB 191555Z AUTO 24005KT 10SM CLR 18/04 A2993 RMK AO2",
      "metarTime": "2026-04-19T16:00:00.000Z",
      "taf": "",
      "tafTime": ""
    },
    "KRAL": {
      "name": "Riverside Municipal",
      "metar": "METAR KRAL 191553Z 00000KT 10SM CLR 19/06 A2991 RMK AO2 SLP116 T01890061",
      "metarTime": "2026-04-19T16:00:00.000Z",
      "taf": "",
      "tafTime": ""
    }
  }
}
