{
  "updated": "2026-04-12T10:15:00.000Z",
  "airports": {
    "KPOC": {
      "name": "Brackett Field",
      "metar": "",
      "metarTime": "",
      "taf": "",
      "tafTime": ""
    },
    "KCCB": {
      "name": "Cable Airport",
      "metar": "METAR KCCB 121015Z AUTO 20005KT 10SM OVC050 13/12 A2994 RMK AO2",
      "metarTime": "2026-04-12T10:15:00.000Z",
      "taf": "",
      "tafTime": ""
    },
    "KRAL": {
      "name": "Riverside Municipal",
      "metar": "METAR KRAL 120953Z AUTO 00000KT 10SM FEW038 FEW048 OVC060 14/10 A2996 RMK AO2 SLP133 T01390100",
      "metarTime": "2026-04-12T10:00:00.000Z",
      "taf": "",
      "tafTime": ""
    }
  }
}
