{
  "updated": "2026-07-15T23:15:00.000Z",
  "airports": {
    "KPOC": {
      "name": "Brackett Field",
      "metar": "METAR KPOC 152247Z 25012KT 10SM CLR 36/17 A2982",
      "metarTime": "2026-07-15T23:00:00.000Z",
      "taf": "",
      "tafTime": ""
    },
    "KCCB": {
      "name": "Cable Airport",
      "metar": "METAR KCCB 152315Z AUTO 26014KT 10SM CLR 36/15 A2983 RMK AO2",
      "metarTime": "2026-07-15T23:15:00.000Z",
      "taf": "",
      "tafTime": ""
    },
    "KRAL": {
      "name": "Riverside Municipal",
      "metar": "METAR KRAL 152253Z 27014KT 10SM CLR 38/14 A2978 RMK AO2 SLP067 T03830139",
      "metarTime": "2026-07-15T23:00:00.000Z",
      "taf": "",
      "tafTime": ""
    }
  }
}
