{
  "updated": "2026-06-01T00:00:00.000Z",
  "airports": {
    "KPOC": {
      "name": "Brackett Field",
      "metar": "METAR KPOC 312347Z 24015G20KT 10SM CLR 28/13 A2988",
      "metarTime": "2026-06-01T00:00:00.000Z",
      "taf": "",
      "tafTime": ""
    },
    "KCCB": {
      "name": "Cable Airport",
      "metar": "METAR KCCB 312335Z AUTO 26012KT 10SM CLR 29/11 A2988 RMK AO2",
      "metarTime": "2026-05-31T23:35:00.000Z",
      "taf": "",
      "tafTime": ""
    },
    "KRAL": {
      "name": "Riverside Municipal",
      "metar": "METAR KRAL 312253Z 29010G20KT 260V330 10SM CLR 31/11 A2986 RMK AO2 SLP094 T03060111",
      "metarTime": "2026-05-31T23:00:00.000Z",
      "taf": "",
      "tafTime": ""
    }
  }
}
