{
  "updated": "2026-03-26T23:15:00.000Z",
  "airports": {
    "KPOC": {
      "name": "Brackett Field",
      "metar": "METAR KPOC 262247Z 26003KT 10SM CLR 30/06 A2989",
      "metarTime": "2026-03-26T23:00:00.000Z",
      "taf": "",
      "tafTime": ""
    },
    "KCCB": {
      "name": "Cable Airport",
      "metar": "METAR KCCB 262315Z AUTO 24007KT 10SM CLR 30/04 A2988 RMK AO2",
      "metarTime": "2026-03-26T23:15:00.000Z",
      "taf": "",
      "tafTime": ""
    },
    "KRAL": {
      "name": "Riverside Municipal",
      "metar": "METAR KRAL 262253Z 28008G15KT 10SM CLR 32/10 A2986 RMK AO2 SLP094 T03170100",
      "metarTime": "2026-03-26T23:00:00.000Z",
      "taf": "",
      "tafTime": ""
    }
  }
}
