{
  "updated": "2026-03-08T05:00:00.000Z",
  "airports": {
    "KPOC": {
      "name": "Brackett Field",
      "metar": "METAR KPOC 080347Z 04008G16KT 10SM CLR 20/M10 A3001",
      "metarTime": "2026-03-08T04:00:00.000Z",
      "taf": "",
      "tafTime": ""
    },
    "KCCB": {
      "name": "Cable Airport",
      "metar": "METAR KCCB 080455Z AUTO VRB05G21KT 10SM CLR 20/M16 A2999 RMK AO2",
      "metarTime": "2026-03-08T05:00:00.000Z",
      "taf": "",
      "tafTime": ""
    },
    "KRAL": {
      "name": "Riverside Municipal",
      "metar": "METAR KRAL 080453Z AUTO 03008KT 10SM CLR 19/M11 A3000 RMK AO2 SLP146 T01941111",
      "metarTime": "2026-03-08T05:00:00.000Z",
      "taf": "",
      "tafTime": ""
    }
  }
}
