{
  "updated": "2026-03-06T20:00:00.000Z",
  "airports": {
    "KPOC": {
      "name": "Brackett Field",
      "metar": "METAR KPOC 061947Z 23003KT 10SM CLR 20/M05 A3004",
      "metarTime": "2026-03-06T20:00:00.000Z",
      "taf": "",
      "tafTime": ""
    },
    "KCCB": {
      "name": "Cable Airport",
      "metar": "METAR KCCB 061935Z AUTO 13006G11KT 10SM CLR 20/M10 A3004 RMK AO2",
      "metarTime": "2026-03-06T19:35:00.000Z",
      "taf": "",
      "tafTime": ""
    },
    "KRAL": {
      "name": "Riverside Municipal",
      "metar": "METAR KRAL 061853Z 02012G26KT 10SM CLR 20/M07 A3005 RMK AO2 PK WND 36026/1852 SLP164 T02001067",
      "metarTime": "2026-03-06T19:00:00.000Z",
      "taf": "",
      "tafTime": ""
    }
  }
}
