{
  "updated": "2026-03-02T09:00:00.000Z",
  "airports": {
    "KPOC": {
      "name": "Brackett Field",
      "metar": "",
      "metarTime": "",
      "taf": "",
      "tafTime": ""
    },
    "KCCB": {
      "name": "Cable Airport",
      "metar": "METAR KCCB 020855Z AUTO 00000KT 10SM CLR 17/09 A2999 RMK AO2",
      "metarTime": "2026-03-02T09:00:00.000Z",
      "taf": "",
      "tafTime": ""
    },
    "KRAL": {
      "name": "Riverside Municipal",
      "metar": "METAR KRAL 020853Z AUTO 00000KT 10SM CLR 16/11 A2999 RMK AO2 SLP141 T01560106 51001",
      "metarTime": "2026-03-02T09:00:00.000Z",
      "taf": "",
      "tafTime": ""
    }
  }
}
