{
  "updated": "2026-05-10T12:35:00.000Z",
  "airports": {
    "KPOC": {
      "name": "Brackett Field",
      "metar": "",
      "metarTime": "",
      "taf": "",
      "tafTime": ""
    },
    "KCCB": {
      "name": "Cable Airport",
      "metar": "METAR KCCB 101235Z AUTO 27003KT 5SM BR CLR 13/13 A2990 RMK AO2",
      "metarTime": "2026-05-10T12:35:00.000Z",
      "taf": "",
      "tafTime": ""
    },
    "KRAL": {
      "name": "Riverside Municipal",
      "metar": "SPECI KRAL 101204Z AUTO 27003KT BKN006 14/13 A2991 RMK AO2 T01390133 $",
      "metarTime": "2026-05-10T12:04:00.000Z",
      "taf": "",
      "tafTime": ""
    }
  }
}
