{
  "updated": "2026-02-20T17:15:00.000Z",
  "airports": {
    "KPOC": {
      "name": "Brackett Field",
      "metar": "METAR KPOC 201647Z 11005KT 10SM CLR 08/03 A3003",
      "metarTime": "2026-02-20T17:00:00.000Z",
      "taf": "",
      "tafTime": ""
    },
    "KCCB": {
      "name": "Cable Airport",
      "metar": "METAR KCCB 201715Z AUTO 07005KT 10SM CLR 09/02 A3001 RMK AO2",
      "metarTime": "2026-02-20T17:15:00.000Z",
      "taf": "",
      "tafTime": ""
    },
    "KRAL": {
      "name": "Riverside Municipal",
      "metar": "METAR KRAL 201653Z 00000KT 10SM CLR 08/04 A3003 RMK AO2 SLP162 T00780039",
      "metarTime": "2026-02-20T17:00:00.000Z",
      "taf": "",
      "tafTime": ""
    }
  }
}
