{
  "updated": "2026-04-04T23:35:00.000Z",
  "airports": {
    "KPOC": {
      "name": "Brackett Field",
      "metar": "METAR KPOC 042247Z VRB04KT 10SM CLR 30/M13 A2997",
      "metarTime": "2026-04-04T23:00:00.000Z",
      "taf": "",
      "tafTime": ""
    },
    "KCCB": {
      "name": "Cable Airport",
      "metar": "METAR KCCB 042335Z AUTO VRB06KT 10SM CLR 29/M18 A2996 RMK AO2",
      "metarTime": "2026-04-04T23:35:00.000Z",
      "taf": "",
      "tafTime": ""
    },
    "KRAL": {
      "name": "Riverside Municipal",
      "metar": "METAR KRAL 042253Z AUTO 35012G19KT 320V020 10SM CLR 31/M11 A2995 RMK AO2 SLP126 T03111106",
      "metarTime": "2026-04-04T23:00:00.000Z",
      "taf": "",
      "tafTime": ""
    }
  }
}
