{
  "updated": "2026-05-10T09:15:00.000Z",
  "airports": {
    "KPOC": {
      "name": "Brackett Field",
      "metar": "",
      "metarTime": "",
      "taf": "",
      "tafTime": ""
    },
    "KCCB": {
      "name": "Cable Airport",
      "metar": "METAR KCCB 100915Z AUTO 00000KT 10SM CLR 15/13 A2991 RMK AO2",
      "metarTime": "2026-05-10T09:15:00.000Z",
      "taf": "",
      "tafTime": ""
    },
    "KRAL": {
      "name": "Riverside Municipal",
      "metar": "METAR KRAL 100853Z AUTO 00000KT CLR 15/13 A2991 RMK AO2 SLP113 T01500133 58004 $",
      "metarTime": "2026-05-10T09:00:00.000Z",
      "taf": "",
      "tafTime": ""
    }
  }
}
