{
  "updated": "2026-04-16T22:15:00.000Z",
  "airports": {
    "KPOC": {
      "name": "Brackett Field",
      "metar": "METAR KPOC 162147Z 26010G15KT 10SM CLR 22/08 A2990",
      "metarTime": "2026-04-16T22:00:00.000Z",
      "taf": "",
      "tafTime": ""
    },
    "KCCB": {
      "name": "Cable Airport",
      "metar": "METAR KCCB 162215Z AUTO 26011G16KT 10SM CLR 21/06 A2989 RMK AO2",
      "metarTime": "2026-04-16T22:15:00.000Z",
      "taf": "",
      "tafTime": ""
    },
    "KRAL": {
      "name": "Riverside Municipal",
      "metar": "METAR KRAL 162153Z 26011KT 10SM CLR 23/06 A2988 RMK AO2 SLP106 T02330056",
      "metarTime": "2026-04-16T22:00:00.000Z",
      "taf": "",
      "tafTime": ""
    }
  }
}
