{
  "updated": "2026-07-14T14:15:00.000Z",
  "airports": {
    "KPOC": {
      "name": "Brackett Field",
      "metar": "METAR KPOC 141347Z 00000KT 10SM CLR 19/17 A3001",
      "metarTime": "2026-07-14T14:00:00.000Z",
      "taf": "",
      "tafTime": ""
    },
    "KCCB": {
      "name": "Cable Airport",
      "metar": "METAR KCCB 141415Z AUTO 00000KT 10SM CLR 22/17 A3001 RMK AO2",
      "metarTime": "2026-07-14T14:15:00.000Z",
      "taf": "",
      "tafTime": ""
    },
    "KRAL": {
      "name": "Riverside Municipal",
      "metar": "METAR KRAL 141353Z 00000KT 10SM CLR 21/16 A2999 RMK AO2 SLP140 T02060161",
      "metarTime": "2026-07-14T14:00:00.000Z",
      "taf": "",
      "tafTime": ""
    }
  }
}
