{
  "updated": "2026-02-16T09:35:00.000Z",
  "airports": {
    "KPOC": {
      "name": "Brackett Field",
      "metar": "",
      "metarTime": "",
      "taf": "",
      "tafTime": ""
    },
    "KCCB": {
      "name": "Cable Airport",
      "metar": "METAR KCCB 160935Z AUTO 35003KT 10SM BKN043 10/08 A2991 RMK AO2",
      "metarTime": "2026-02-16T09:35:00.000Z",
      "taf": "",
      "tafTime": ""
    },
    "KRAL": {
      "name": "Riverside Municipal",
      "metar": "METAR KRAL 160853Z AUTO 00000KT 10SM CLR 11/08 A2992 RMK AO2 SLP121 T01060078 56009",
      "metarTime": "2026-02-16T09:00:00.000Z",
      "taf": "",
      "tafTime": ""
    }
  }
}
