{
  "updated": "2026-02-02T23:00:00.000Z",
  "airports": {
    "KPOC": {
      "name": "Brackett Field",
      "metar": "METAR KPOC 022247Z 24006KT 10SM CLR 24/04 A3008",
      "metarTime": "2026-02-02T23:00:00.000Z",
      "taf": "",
      "tafTime": ""
    },
    "KCCB": {
      "name": "Cable Airport",
      "metar": "METAR KCCB 022255Z AUTO 25007KT 230V320 10SM CLR 24/01 A3008 RMK AO2",
      "metarTime": "2026-02-02T23:00:00.000Z",
      "taf": "",
      "tafTime": ""
    },
    "KRAL": {
      "name": "Riverside Municipal",
      "metar": "METAR KRAL 022253Z 27005KT 10SM CLR 25/03 A3006 RMK AO2 SLP167 T02500033",
      "metarTime": "2026-02-02T23:00:00.000Z",
      "taf": "",
      "tafTime": ""
    }
  }
}
