{
  "updated": "2026-07-13T05:00:00.000Z",
  "airports": {
    "KPOC": {
      "name": "Brackett Field",
      "metar": "",
      "metarTime": "",
      "taf": "",
      "tafTime": ""
    },
    "KCCB": {
      "name": "Cable Airport",
      "metar": "METAR KCCB 130435Z AUTO 28005KT 10SM 24/17 A2996 RMK AO2",
      "metarTime": "2026-07-13T04:35:00.000Z",
      "taf": "",
      "tafTime": ""
    },
    "KRAL": {
      "name": "Riverside Municipal",
      "metar": "METAR KRAL 130453Z AUTO 27005KT 10SM CLR 25/16 A2995 RMK AO2 SLP125 T02500161",
      "metarTime": "2026-07-13T05:00:00.000Z",
      "taf": "",
      "tafTime": ""
    }
  }
}
