{
  "updated": "2026-02-19T21:15:00.000Z",
  "airports": {
    "KPOC": {
      "name": "Brackett Field",
      "metar": "METAR KPOC 192047Z VRB04KT 1SM RA OVC010 08/07 A2990",
      "metarTime": "2026-02-19T21:00:00.000Z",
      "taf": "",
      "tafTime": ""
    },
    "KCCB": {
      "name": "Cable Airport",
      "metar": "METAR KCCB 192115Z AUTO 00000KT 1 1/2SM +RA BKN013 08/08 A2985 RMK AO2",
      "metarTime": "2026-02-19T21:15:00.000Z",
      "taf": "",
      "tafTime": ""
    },
    "KRAL": {
      "name": "Riverside Municipal",
      "metar": "METAR KRAL 192053Z 00000KT 2 1/2SM -RA BR BKN012 BKN040 OVC047 09/08 A2989 RMK AO2 RAE27B38 SLP113 P0000 60005 T00940078 58030",
      "metarTime": "2026-02-19T21:00:00.000Z",
      "taf": "",
      "tafTime": ""
    }
  }
}
