{
  "updated": "2026-04-10T15:00:00.000Z",
  "airports": {
    "KPOC": {
      "name": "Brackett Field",
      "metar": "METAR KPOC 101447Z VRB04KT 5SM BR BKN009 16/13 A2998",
      "metarTime": "2026-04-10T15:00:00.000Z",
      "taf": "",
      "tafTime": ""
    },
    "KCCB": {
      "name": "Cable Airport",
      "metar": "METAR KCCB 101455Z AUTO 00000KT 4SM BR OVC006 15/15 A2997 RMK AO2",
      "metarTime": "2026-04-10T15:00:00.000Z",
      "taf": "",
      "tafTime": ""
    },
    "KRAL": {
      "name": "Riverside Municipal",
      "metar": "METAR KRAL 101453Z 00000KT 7SM OVC011 17/14 A2997 RMK AO2 SLP135 T01670139 53013",
      "metarTime": "2026-04-10T15:00:00.000Z",
      "taf": "",
      "tafTime": ""
    }
  }
}
