{
  "updated": "2026-07-03T00:00:00.000Z",
  "airports": {
    "KPOC": {
      "name": "Brackett Field",
      "metar": "METAR KPOC 022347Z 25012KT 10SM CLR 27/13 A2994",
      "metarTime": "2026-07-03T00:00:00.000Z",
      "taf": "",
      "tafTime": ""
    },
    "KCCB": {
      "name": "Cable Airport",
      "metar": "METAR KCCB 022335Z AUTO 27012G17KT 10SM CLR 27/10 A2994 RMK AO2",
      "metarTime": "2026-07-02T23:35:00.000Z",
      "taf": "",
      "tafTime": ""
    },
    "KRAL": {
      "name": "Riverside Municipal",
      "metar": "METAR KRAL 022253Z 26011G18KT 10SM CLR 29/11 A2991 RMK AO2 SLP114 T02940106",
      "metarTime": "2026-07-02T23:00:00.000Z",
      "taf": "",
      "tafTime": ""
    }
  }
}
