{
  "updated": "2026-04-17T03:35:00.000Z",
  "airports": {
    "KPOC": {
      "name": "Brackett Field",
      "metar": "METAR KPOC 170247Z 22007KT 10SM CLR 18/10 A2988",
      "metarTime": "2026-04-17T03:00:00.000Z",
      "taf": "",
      "tafTime": ""
    },
    "KCCB": {
      "name": "Cable Airport",
      "metar": "METAR KCCB 170335Z AUTO 25009KT 10SM 17/11 A2989 RMK AO2",
      "metarTime": "2026-04-17T03:35:00.000Z",
      "taf": "",
      "tafTime": ""
    },
    "KRAL": {
      "name": "Riverside Municipal",
      "metar": "METAR KRAL 170253Z 28008KT 10SM CLR 18/09 A2986 RMK AO2 SLP100 T01830089 53002",
      "metarTime": "2026-04-17T03:00:00.000Z",
      "taf": "",
      "tafTime": ""
    }
  }
}
