{
  "updated": "2026-03-01T23:35:00.000Z",
  "airports": {
    "KPOC": {
      "name": "Brackett Field",
      "metar": "METAR KPOC 012247Z 27009KT 10SM CLR 28/08 A2996",
      "metarTime": "2026-03-01T23:00:00.000Z",
      "taf": "",
      "tafTime": ""
    },
    "KCCB": {
      "name": "Cable Airport",
      "metar": "METAR KCCB 012335Z AUTO 25010KT 10SM CLR 27/07 A2995 RMK AO2",
      "metarTime": "2026-03-01T23:35:00.000Z",
      "taf": "",
      "tafTime": ""
    },
    "KRAL": {
      "name": "Riverside Municipal",
      "metar": "METAR KRAL 012253Z 26008KT 10SM CLR 28/09 A2994 RMK AO2 SLP124 T02780094",
      "metarTime": "2026-03-01T23:00:00.000Z",
      "taf": "",
      "tafTime": ""
    }
  }
}
