{
  "updated": "2026-03-13T09:00:00.000Z",
  "airports": {
    "KPOC": {
      "name": "Brackett Field",
      "metar": "",
      "metarTime": "",
      "taf": "",
      "tafTime": ""
    },
    "KCCB": {
      "name": "Cable Airport",
      "metar": "METAR KCCB 130855Z AUTO 35004KT 10SM CLR 22/M06 A3005 RMK AO2",
      "metarTime": "2026-03-13T09:00:00.000Z",
      "taf": "",
      "tafTime": ""
    },
    "KRAL": {
      "name": "Riverside Municipal",
      "metar": "METAR KRAL 130853Z AUTO 06004KT 10SM CLR 17/01 A3003 RMK AO2 SLP152 T01720011 58008",
      "metarTime": "2026-03-13T09:00:00.000Z",
      "taf": "",
      "tafTime": ""
    }
  }
}
