{
  "updated": "2026-02-22T13:35:00.000Z",
  "airports": {
    "KPOC": {
      "name": "Brackett Field",
      "metar": "",
      "metarTime": "",
      "taf": "",
      "tafTime": ""
    },
    "KCCB": {
      "name": "Cable Airport",
      "metar": "METAR KCCB 221335Z AUTO 07003KT 10SM CLR 10/M02 A3017 RMK AO2",
      "metarTime": "2026-02-22T13:35:00.000Z",
      "taf": "",
      "tafTime": ""
    },
    "KRAL": {
      "name": "Riverside Municipal",
      "metar": "METAR KRAL 221253Z AUTO 06004KT 10SM CLR 08/00 A3018 RMK AO2 SLP210 T00830000 $",
      "metarTime": "2026-02-22T13:00:00.000Z",
      "taf": "",
      "tafTime": ""
    }
  }
}
