{
  "updated": "2026-07-09T15:35:00.000Z",
  "airports": {
    "KPOC": {
      "name": "Brackett Field",
      "metar": "METAR KPOC 091447Z 00000KT 10SM CLR 19/15 A2991",
      "metarTime": "2026-07-09T15:00:00.000Z",
      "taf": "",
      "tafTime": ""
    },
    "KCCB": {
      "name": "Cable Airport",
      "metar": "METAR KCCB 091535Z AUTO 00000KT 10SM CLR 24/13 A2992 RMK AO2",
      "metarTime": "2026-07-09T15:35:00.000Z",
      "taf": "",
      "tafTime": ""
    },
    "KRAL": {
      "name": "Riverside Municipal",
      "metar": "METAR KRAL 091453Z 00000KT 10SM CLR 22/14 A2990 RMK AO2 SLP109 T02170144 53005",
      "metarTime": "2026-07-09T15:00:00.000Z",
      "taf": "",
      "tafTime": ""
    }
  }
}
