{
  "updated": "2026-02-27T18:00:00.000Z",
  "airports": {
    "KPOC": {
      "name": "Brackett Field",
      "metar": "METAR KPOC 271747Z 10006KT 10SM CLR 26/09 A3004",
      "metarTime": "2026-02-27T18:00:00.000Z",
      "taf": "",
      "tafTime": ""
    },
    "KCCB": {
      "name": "Cable Airport",
      "metar": "METAR KCCB 271735Z AUTO 00000KT 10SM CLR 25/09 A3004 RMK AO2",
      "metarTime": "2026-02-27T17:35:00.000Z",
      "taf": "",
      "tafTime": ""
    },
    "KRAL": {
      "name": "Riverside Municipal",
      "metar": "METAR KRAL 271753Z 08006KT 10SM CLR 27/10 A3002 RMK AO2 SLP150 T02720100 10272 20144 50001",
      "metarTime": "2026-02-27T18:00:00.000Z",
      "taf": "",
      "tafTime": ""
    }
  }
}
