{
  "updated": "2026-02-06T01:00:00.000Z",
  "airports": {
    "KPOC": {
      "name": "Brackett Field",
      "metar": "METAR KPOC 060047Z 24008KT 10SM CLR 23/M02 A3003",
      "metarTime": "2026-02-06T01:00:00.000Z",
      "taf": "",
      "tafTime": ""
    },
    "KCCB": {
      "name": "Cable Airport",
      "metar": "METAR KCCB 060055Z AUTO 27007KT 10SM CLR 23/M05 A3004 RMK AO2",
      "metarTime": "2026-02-06T01:00:00.000Z",
      "taf": "",
      "tafTime": ""
    },
    "KRAL": {
      "name": "Riverside Municipal",
      "metar": "METAR KRAL 060053Z VRB03KT 10SM CLR 23/M01 A3002 RMK AO2 SLP152 T02331011",
      "metarTime": "2026-02-06T01:00:00.000Z",
      "taf": "",
      "tafTime": ""
    }
  }
}
