{
  "updated": "2026-06-20T11:35:00.000Z",
  "airports": {
    "KPOC": {
      "name": "Brackett Field",
      "metar": "",
      "metarTime": "",
      "taf": "",
      "tafTime": ""
    },
    "KCCB": {
      "name": "Cable Airport",
      "metar": "METAR KCCB 201135Z AUTO 00000KT 7SM 14/12 A2996 RMK AO2",
      "metarTime": "2026-06-20T11:35:00.000Z",
      "taf": "",
      "tafTime": ""
    },
    "KRAL": {
      "name": "Riverside Municipal",
      "metar": "METAR KRAL 201053Z AUTO 00000KT 10SM CLR 14/12 A2996 RMK AO2 SLP131 T01440117",
      "metarTime": "2026-06-20T11:00:00.000Z",
      "taf": "",
      "tafTime": ""
    }
  }
}
