{
  "updated": "2026-03-14T19:00:00.000Z",
  "airports": {
    "KPOC": {
      "name": "Brackett Field",
      "metar": "METAR KPOC 141847Z VRB03KT 10SM CLR 25/03 A2997",
      "metarTime": "2026-03-14T19:00:00.000Z",
      "taf": "",
      "tafTime": ""
    },
    "KCCB": {
      "name": "Cable Airport",
      "metar": "METAR KCCB 141855Z AUTO VRB03KT 10SM CLR 25/01 A2996 RMK AO2",
      "metarTime": "2026-03-14T19:00:00.000Z",
      "taf": "",
      "tafTime": ""
    },
    "KRAL": {
      "name": "Riverside Municipal",
      "metar": "METAR KRAL 141853Z 00000KT 10SM CLR 27/03 A2995 RMK AO2 SLP125 T02670028",
      "metarTime": "2026-03-14T19:00:00.000Z",
      "taf": "",
      "tafTime": ""
    }
  }
}
