{
  "updated": "2026-04-29T23:35:00.000Z",
  "airports": {
    "KPOC": {
      "name": "Brackett Field",
      "metar": "METAR KPOC 292247Z 24010KT 10SM CLR 23/10 A2996",
      "metarTime": "2026-04-29T23:00:00.000Z",
      "taf": "",
      "tafTime": ""
    },
    "KCCB": {
      "name": "Cable Airport",
      "metar": "METAR KCCB 292335Z AUTO 26016KT 10SM CLR 23/09 A2994 RMK AO2",
      "metarTime": "2026-04-29T23:35:00.000Z",
      "taf": "",
      "tafTime": ""
    },
    "KRAL": {
      "name": "Riverside Municipal",
      "metar": "METAR KRAL 292253Z 27014G23KT 10SM CLR 25/08 A2993 RMK AO2 SLP121 T02500083",
      "metarTime": "2026-04-29T23:00:00.000Z",
      "taf": "",
      "tafTime": ""
    }
  }
}
