{
  "updated": "2026-04-27T15:00:00.000Z",
  "airports": {
    "KPOC": {
      "name": "Brackett Field",
      "metar": "METAR KPOC 271447Z 26004KT 10SM BKN060 13/08 A3000",
      "metarTime": "2026-04-27T15:00:00.000Z",
      "taf": "",
      "tafTime": ""
    },
    "KCCB": {
      "name": "Cable Airport",
      "metar": "METAR KCCB 271455Z AUTO 26004KT 10SM BKN060 12/08 A2999 RMK AO2",
      "metarTime": "2026-04-27T15:00:00.000Z",
      "taf": "",
      "tafTime": ""
    },
    "KRAL": {
      "name": "Riverside Municipal",
      "metar": "METAR KRAL 271453Z 00000KT 10SM SCT065 12/09 A3000 RMK AO2 SLP150 60000 T01220094 53009",
      "metarTime": "2026-04-27T15:00:00.000Z",
      "taf": "",
      "tafTime": ""
    }
  }
}
