{
  "updated": "2026-04-09T15:00:00.000Z",
  "airports": {
    "KPOC": {
      "name": "Brackett Field",
      "metar": "METAR KPOC 091447Z 00000KT 10SM CLR 16/11 A2996",
      "metarTime": "2026-04-09T15:00:00.000Z",
      "taf": "",
      "tafTime": ""
    },
    "KCCB": {
      "name": "Cable Airport",
      "metar": "METAR KCCB 091435Z AUTO 00000KT 10SM CLR 16/10 A2995 RMK AO2",
      "metarTime": "2026-04-09T14:35:00.000Z",
      "taf": "",
      "tafTime": ""
    },
    "KRAL": {
      "name": "Riverside Municipal",
      "metar": "METAR KRAL 091353Z 00000KT 10SM CLR 14/12 A2994 RMK AO2 SLP123 T01440117",
      "metarTime": "2026-04-09T14:00:00.000Z",
      "taf": "",
      "tafTime": ""
    }
  }
}
