{
  "updated": "2026-07-20T21:15:00.000Z",
  "airports": {
    "KPOC": {
      "name": "Brackett Field",
      "metar": "METAR KPOC 202047Z 26007KT 10SM CLR 31/16 A2995",
      "metarTime": "2026-07-20T21:00:00.000Z",
      "taf": "",
      "tafTime": ""
    },
    "KCCB": {
      "name": "Cable Airport",
      "metar": "METAR KCCB 202115Z AUTO 27011KT 10SM CLR 31/13 A2995 RMK AO2",
      "metarTime": "2026-07-20T21:15:00.000Z",
      "taf": "",
      "tafTime": ""
    },
    "KRAL": {
      "name": "Riverside Municipal",
      "metar": "METAR KRAL 202053Z VRB05KT 10SM OVC120 33/11 A2992 RMK AO2 RAE1958 SLP113 P0000 60000 T03280106 58016",
      "metarTime": "2026-07-20T21:00:00.000Z",
      "taf": "",
      "tafTime": ""
    }
  }
}
