{
  "updated": "2026-03-03T14:15:00.000Z",
  "airports": {
    "KPOC": {
      "name": "Brackett Field",
      "metar": "",
      "metarTime": "",
      "taf": "",
      "tafTime": ""
    },
    "KCCB": {
      "name": "Cable Airport",
      "metar": "METAR KCCB 031415Z AUTO 01003KT 10SM CLR 11/07 A2999 RMK AO2",
      "metarTime": "2026-03-03T14:15:00.000Z",
      "taf": "",
      "tafTime": ""
    },
    "KRAL": {
      "name": "Riverside Municipal",
      "metar": "METAR KRAL 031353Z AUTO 04003KT 10SM CLR 09/07 A3000 RMK AO2 SLP150 T00890067",
      "metarTime": "2026-03-03T14:00:00.000Z",
      "taf": "",
      "tafTime": ""
    }
  }
}
