{
  "updated": "2026-06-23T08:35:00.000Z",
  "airports": {
    "KPOC": {
      "name": "Brackett Field",
      "metar": "",
      "metarTime": "",
      "taf": "",
      "tafTime": ""
    },
    "KCCB": {
      "name": "Cable Airport",
      "metar": "METAR KCCB 230835Z AUTO 26006KT 10SM 17/16 A2999 RMK AO2",
      "metarTime": "2026-06-23T08:35:00.000Z",
      "taf": "",
      "tafTime": ""
    },
    "KRAL": {
      "name": "Riverside Municipal",
      "metar": "METAR KRAL 230753Z AUTO 27006KT 10SM FU CLR 18/13 A2999 RMK AO2 SLP139 T01780133 403220150",
      "metarTime": "2026-06-23T08:00:00.000Z",
      "taf": "",
      "tafTime": ""
    }
  }
}
