{
  "updated": "2026-06-04T22:00:00.000Z",
  "airports": {
    "KPOC": {
      "name": "Brackett Field",
      "metar": "METAR KPOC 042047Z 25010KT 10SM CLR 27/14 A2989",
      "metarTime": "2026-06-04T21:00:00.000Z",
      "taf": "",
      "tafTime": ""
    },
    "KCCB": {
      "name": "Cable Airport",
      "metar": "METAR KCCB 042155Z AUTO 26012KT 10SM CLR 28/13 A2988 RMK AO2",
      "metarTime": "2026-06-04T22:00:00.000Z",
      "taf": "",
      "tafTime": ""
    },
    "KRAL": {
      "name": "Riverside Municipal",
      "metar": "METAR KRAL 042153Z 25013G19KT 10SM CLR 32/14 A2984 RMK AO2 SLP089 T03170139",
      "metarTime": "2026-06-04T22:00:00.000Z",
      "taf": "",
      "tafTime": ""
    }
  }
}
