{
  "updated": "2026-02-15T17:00:00.000Z",
  "airports": {
    "KPOC": {
      "name": "Brackett Field",
      "metar": "METAR KPOC 151647Z VRB05KT 7SM SCT012 13/10 A3005",
      "metarTime": "2026-02-15T17:00:00.000Z",
      "taf": "",
      "tafTime": ""
    },
    "KCCB": {
      "name": "Cable Airport",
      "metar": "METAR KCCB 151655Z AUTO VRB05KT 10SM CLR 12/10 A3003 RMK AO2",
      "metarTime": "2026-02-15T17:00:00.000Z",
      "taf": "",
      "tafTime": ""
    },
    "KRAL": {
      "name": "Riverside Municipal",
      "metar": "METAR KRAL 151653Z VRB03KT 10SM BKN023 13/09 A3004 RMK AO2 SLP163 T01330089",
      "metarTime": "2026-02-15T17:00:00.000Z",
      "taf": "",
      "tafTime": ""
    }
  }
}
