{
  "updated": "2026-02-16T12:15:00.000Z",
  "airports": {
    "KPOC": {
      "name": "Brackett Field",
      "metar": "",
      "metarTime": "",
      "taf": "",
      "tafTime": ""
    },
    "KCCB": {
      "name": "Cable Airport",
      "metar": "METAR KCCB 161215Z AUTO 06007KT 10SM OVC035 11/09 A2986 RMK AO2",
      "metarTime": "2026-02-16T12:15:00.000Z",
      "taf": "",
      "tafTime": ""
    },
    "KRAL": {
      "name": "Riverside Municipal",
      "metar": "METAR KRAL 161153Z AUTO 07003KT 10SM BKN048 OVC075 10/08 A2988 RMK AO2 SLP107 T01000078 10122 20089 58014",
      "metarTime": "2026-02-16T12:00:00.000Z",
      "taf": "",
      "tafTime": ""
    }
  }
}
