{
  "updated": "2026-03-09T06:00:00.000Z",
  "airports": {
    "KPOC": {
      "name": "Brackett Field",
      "metar": "",
      "metarTime": "",
      "taf": "",
      "tafTime": ""
    },
    "KCCB": {
      "name": "Cable Airport",
      "metar": "METAR KCCB 090555Z AUTO VRB03KT 10SM CLR 22/M10 A2985 RMK AO2",
      "metarTime": "2026-03-09T06:00:00.000Z",
      "taf": "",
      "tafTime": ""
    },
    "KRAL": {
      "name": "Riverside Municipal",
      "metar": "METAR KRAL 090553Z AUTO 13003KT 10SM CLR 17/M02 A2983 RMK AO2 SLP088 T01721017 10289 20172 51006",
      "metarTime": "2026-03-09T06:00:00.000Z",
      "taf": "",
      "tafTime": ""
    }
  }
}
