{
  "updated": "2026-03-12T10:15:00.000Z",
  "airports": {
    "KPOC": {
      "name": "Brackett Field",
      "metar": "",
      "metarTime": "",
      "taf": "",
      "tafTime": ""
    },
    "KCCB": {
      "name": "Cable Airport",
      "metar": "METAR KCCB 121015Z AUTO 02003KT 10SM 18/04 A3021 RMK AO2",
      "metarTime": "2026-03-12T10:15:00.000Z",
      "taf": "",
      "tafTime": ""
    },
    "KRAL": {
      "name": "Riverside Municipal",
      "metar": "METAR KRAL 120953Z AUTO 05003KT 10SM CLR 14/11 A3021 RMK AO2 SLP216 T01440106",
      "metarTime": "2026-03-12T10:00:00.000Z",
      "taf": "",
      "tafTime": ""
    }
  }
}
