{
  "updated": "2026-03-08T19:35:00.000Z",
  "airports": {
    "KPOC": {
      "name": "Brackett Field",
      "metar": "METAR KPOC 081847Z VR005KT 10SM CLR 28/M08 A2992",
      "metarTime": "2026-03-08T19:00:00.000Z",
      "taf": "",
      "tafTime": ""
    },
    "KCCB": {
      "name": "Cable Airport",
      "metar": "METAR KCCB 081935Z AUTO 08013G22KT 10SM CLR 28/M14 A2991 RMK AO2",
      "metarTime": "2026-03-08T19:35:00.000Z",
      "taf": "",
      "tafTime": ""
    },
    "KRAL": {
      "name": "Riverside Municipal",
      "metar": "METAR KRAL 081853Z 03011G27KT 10SM CLR 26/M09 A2992 RMK AO2 PK WND 04029/1757 SLP116 T02611089",
      "metarTime": "2026-03-08T19:00:00.000Z",
      "taf": "",
      "tafTime": ""
    }
  }
}
