{
  "updated": "2026-06-18T22:00:00.000Z",
  "airports": {
    "KPOC": {
      "name": "Brackett Field",
      "metar": "METAR KPOC 182147Z 26004G14KT 10SM CLR 23/13 A2998",
      "metarTime": "2026-06-18T22:00:00.000Z",
      "taf": "",
      "tafTime": ""
    },
    "KCCB": {
      "name": "Cable Airport",
      "metar": "METAR KCCB 182155Z AUTO 27007KT 10SM CLR 22/13 A2997 RMK AO2",
      "metarTime": "2026-06-18T22:00:00.000Z",
      "taf": "",
      "tafTime": ""
    },
    "KRAL": {
      "name": "Riverside Municipal",
      "metar": "METAR KRAL 182153Z 28007KT 10SM CLR 27/13 A2995 RMK AO2 SLP126 T02670128",
      "metarTime": "2026-06-18T22:00:00.000Z",
      "taf": "",
      "tafTime": ""
    }
  }
}
