{
  "updated": "2026-04-11T06:15:00.000Z",
  "airports": {
    "KPOC": {
      "name": "Brackett Field",
      "metar": "",
      "metarTime": "",
      "taf": "",
      "tafTime": ""
    },
    "KCCB": {
      "name": "Cable Airport",
      "metar": "METAR KCCB 110615Z AUTO 25008G14KT 10SM 14/14 A2997 RMK AO2",
      "metarTime": "2026-04-11T06:15:00.000Z",
      "taf": "",
      "tafTime": ""
    },
    "KRAL": {
      "name": "Riverside Municipal",
      "metar": "METAR KRAL 110553Z AUTO 28010KT 10SM SCT041 16/12 A2997 RMK AO2 SLP136 T01560117 10250 20156 51022",
      "metarTime": "2026-04-11T06:00:00.000Z",
      "taf": "",
      "tafTime": ""
    }
  }
}
