{
  "updated": "2026-05-15T21:35:00.000Z",
  "airports": {
    "KPOC": {
      "name": "Brackett Field",
      "metar": "METAR KPOC 152047Z 00000KT 5SM BR OVC020 18/12 A3000",
      "metarTime": "2026-05-15T21:00:00.000Z",
      "taf": "",
      "tafTime": ""
    },
    "KCCB": {
      "name": "Cable Airport",
      "metar": "METAR KCCB 152135Z AUTO 00000KT 10SM OVC023 18/12 A2998 RMK AO2",
      "metarTime": "2026-05-15T21:35:00.000Z",
      "taf": "",
      "tafTime": ""
    },
    "KRAL": {
      "name": "Riverside Municipal",
      "metar": "METAR KRAL 152053Z 10SM OVC033 21/12 A2998 RMK AO2 SLP138 T02110117 58009",
      "metarTime": "2026-05-15T21:00:00.000Z",
      "taf": "",
      "tafTime": ""
    }
  }
}
