{
  "updated": "2026-05-23T00:00:00.000Z",
  "airports": {
    "KPOC": {
      "name": "Brackett Field",
      "metar": "METAR KPOC 222347Z 24010KT 10SM CLR 24/12 A2983",
      "metarTime": "2026-05-23T00:00:00.000Z",
      "taf": "",
      "tafTime": ""
    },
    "KCCB": {
      "name": "Cable Airport",
      "metar": "METAR KCCB 222335Z AUTO 25010G16KT 9SM CLR 24/11 A2983 RMK AO2",
      "metarTime": "2026-05-22T23:35:00.000Z",
      "taf": "",
      "tafTime": ""
    },
    "KRAL": {
      "name": "Riverside Municipal",
      "metar": "METAR KRAL 222353Z 28009G18KT 10SM CLR 24/12 A2981 RMK AO2 SLP081 T02440117 10272 20206 56003",
      "metarTime": "2026-05-23T00:00:00.000Z",
      "taf": "",
      "tafTime": ""
    }
  }
}
