{
  "updated": "2026-02-18T22:00:00.000Z",
  "airports": {
    "KPOC": {
      "name": "Brackett Field",
      "metar": "METAR KPOC 182147Z 25007KT 10SM FEW050 13/M01 A3000",
      "metarTime": "2026-02-18T22:00:00.000Z",
      "taf": "",
      "tafTime": ""
    },
    "KCCB": {
      "name": "Cable Airport",
      "metar": "METAR KCCB 182135Z AUTO 25009G18KT 10SM SCT055 SCT070 12/M03 A2998 RMK AO2",
      "metarTime": "2026-02-18T21:35:00.000Z",
      "taf": "",
      "tafTime": ""
    },
    "KRAL": {
      "name": "Riverside Municipal",
      "metar": "METAR KRAL 182053Z 24013G19KT 10SM SCT055 14/M01 A3001 RMK AO2 SLP153 T01391011 58012 $",
      "metarTime": "2026-02-18T21:00:00.000Z",
      "taf": "",
      "tafTime": ""
    }
  }
}
