{
  "updated": "2026-03-19T20:00:00.000Z",
  "airports": {
    "KPOC": {
      "name": "Brackett Field",
      "metar": "METAR KPOC 191947Z 00000KT 10SM CLR 32/09 A3007",
      "metarTime": "2026-03-19T20:00:00.000Z",
      "taf": "",
      "tafTime": ""
    },
    "KCCB": {
      "name": "Cable Airport",
      "metar": "METAR KCCB 191935Z AUTO 26004KT 10SM CLR 32/07 A3008 RMK AO2",
      "metarTime": "2026-03-19T19:35:00.000Z",
      "taf": "",
      "tafTime": ""
    },
    "KRAL": {
      "name": "Riverside Municipal",
      "metar": "METAR KRAL 191953Z 00000KT 10SM CLR 34/07 A3004 RMK AO2 SLP155 T03440067",
      "metarTime": "2026-03-19T20:00:00.000Z",
      "taf": "",
      "tafTime": ""
    }
  }
}
