{
  "updated": "2026-02-10T14:00:00.000Z",
  "airports": {
    "KPOC": {
      "name": "Brackett Field",
      "metar": "",
      "metarTime": "",
      "taf": "",
      "tafTime": ""
    },
    "KCCB": {
      "name": "Cable Airport",
      "metar": "METAR KCCB 101355Z AUTO 26004KT 10SM CLR 14/04 A2993 RMK AO2",
      "metarTime": "2026-02-10T14:00:00.000Z",
      "taf": "",
      "tafTime": ""
    },
    "KRAL": {
      "name": "Riverside Municipal",
      "metar": "METAR KRAL 101353Z AUTO 02004KT 10SM CLR 13/05 A2992 RMK AO2 SLP120 T01280050 $",
      "metarTime": "2026-02-10T14:00:00.000Z",
      "taf": "",
      "tafTime": ""
    }
  }
}
