{
  "updated": "2026-02-19T14:00:00.000Z",
  "airports": {
    "KPOC": {
      "name": "Brackett Field",
      "metar": "",
      "metarTime": "",
      "taf": "",
      "tafTime": ""
    },
    "KCCB": {
      "name": "Cable Airport",
      "metar": "METAR KCCB 191335Z AUTO 05004KT 10SM OVC095 07/05 A2999 RMK AO2",
      "metarTime": "2026-02-19T13:35:00.000Z",
      "taf": "",
      "tafTime": ""
    },
    "KRAL": {
      "name": "Riverside Municipal",
      "metar": "METAR KRAL 191353Z AUTO 12004KT 10SM BKN100 07/03 A3001 RMK AO2 SLP153 T00670028 $",
      "metarTime": "2026-02-19T14:00:00.000Z",
      "taf": "",
      "tafTime": ""
    }
  }
}
