{
  "updated": "2026-05-15T20:15:00.000Z",
  "airports": {
    "KPOC": {
      "name": "Brackett Field",
      "metar": "METAR KPOC 151947Z VRB03KT 4SM BR OVC020 17/12 A3002",
      "metarTime": "2026-05-15T20:00:00.000Z",
      "taf": "",
      "tafTime": ""
    },
    "KCCB": {
      "name": "Cable Airport",
      "metar": "METAR KCCB 152015Z AUTO 26005KT 10SM OVC018 17/13 A3000 RMK AO2",
      "metarTime": "2026-05-15T20:15:00.000Z",
      "taf": "",
      "tafTime": ""
    },
    "KRAL": {
      "name": "Riverside Municipal",
      "metar": "METAR KRAL 151953Z VRB04KT 10SM OVC032 21/12 A2999 RMK AO2 SLP144 T02060117",
      "metarTime": "2026-05-15T20:00:00.000Z",
      "taf": "",
      "tafTime": ""
    }
  }
}
