{
  "updated": "2026-06-22T05:15:00.000Z",
  "airports": {
    "KPOC": {
      "name": "Brackett Field",
      "metar": "",
      "metarTime": "",
      "taf": "",
      "tafTime": ""
    },
    "KCCB": {
      "name": "Cable Airport",
      "metar": "METAR KCCB 220515Z AUTO 26006KT 10SM 18/13 A2992 RMK AO2",
      "metarTime": "2026-06-22T05:15:00.000Z",
      "taf": "",
      "tafTime": ""
    },
    "KRAL": {
      "name": "Riverside Municipal",
      "metar": "METAR KRAL 220453Z AUTO 27005KT 10SM CLR 19/13 A2990 RMK AO2 SLP113 T01890128",
      "metarTime": "2026-06-22T05:00:00.000Z",
      "taf": "",
      "tafTime": ""
    }
  }
}
