{
  "updated": "2026-07-19T10:35:00.000Z",
  "airports": {
    "KPOC": {
      "name": "Brackett Field",
      "metar": "",
      "metarTime": "",
      "taf": "",
      "tafTime": ""
    },
    "KCCB": {
      "name": "Cable Airport",
      "metar": "METAR KCCB 191035Z AUTO 30006KT 8SM 20/19 A3000 RMK AO2",
      "metarTime": "2026-07-19T10:35:00.000Z",
      "taf": "",
      "tafTime": ""
    },
    "KRAL": {
      "name": "Riverside Municipal",
      "metar": "METAR KRAL 190953Z AUTO 28003KT 10SM CLR 21/17 A2999 RMK AO2 SLP138 T02110172",
      "metarTime": "2026-07-19T10:00:00.000Z",
      "taf": "",
      "tafTime": ""
    }
  }
}
