{
  "updated": "2026-04-12T15:15:00.000Z",
  "airports": {
    "KPOC": {
      "name": "Brackett Field",
      "metar": "METAR KPOC 121447Z 08006KT 6SM BR OVC020 13/11 A2998",
      "metarTime": "2026-04-12T15:00:00.000Z",
      "taf": "",
      "tafTime": ""
    },
    "KCCB": {
      "name": "Cable Airport",
      "metar": "METAR KCCB 121515Z AUTO 00000KT 6SM BR FEW014 BKN020 OVC037 13/12 A2997 RMK AO2",
      "metarTime": "2026-04-12T15:15:00.000Z",
      "taf": "",
      "tafTime": ""
    },
    "KRAL": {
      "name": "Riverside Municipal",
      "metar": "METAR KRAL 121453Z 18006KT 10SM BKN043 OVC050 15/08 A2997 RMK AO2 SLP138 T01500083 53012",
      "metarTime": "2026-04-12T15:00:00.000Z",
      "taf": "",
      "tafTime": ""
    }
  }
}
