{
  "updated": "2026-02-05T18:15:00.000Z",
  "airports": {
    "KPOC": {
      "name": "Brackett Field",
      "metar": "METAR KPOC 051747Z 00000KT 10SM CLR 21/M02 A3012",
      "metarTime": "2026-02-05T18:00:00.000Z",
      "taf": "",
      "tafTime": ""
    },
    "KCCB": {
      "name": "Cable Airport",
      "metar": "METAR KCCB 051815Z AUTO 25003KT 10SM CLR 22/M08 A3011 RMK AO2",
      "metarTime": "2026-02-05T18:15:00.000Z",
      "taf": "",
      "tafTime": ""
    },
    "KRAL": {
      "name": "Riverside Municipal",
      "metar": "METAR KRAL 051753Z VRB06KT 10SM CLR 23/M02 A3010 RMK AO2 SLP177 T02281017 10228 20106 51005",
      "metarTime": "2026-02-05T18:00:00.000Z",
      "taf": "",
      "tafTime": ""
    }
  }
}
