{
  "updated": "2026-06-16T05:15:00.000Z",
  "airports": {
    "KPOC": {
      "name": "Brackett Field",
      "metar": "",
      "metarTime": "",
      "taf": "",
      "tafTime": ""
    },
    "KCCB": {
      "name": "Cable Airport",
      "metar": "METAR KCCB 160515Z AUTO 28005KT 10SM 20/14 A3001 RMK AO2",
      "metarTime": "2026-06-16T05:15:00.000Z",
      "taf": "",
      "tafTime": ""
    },
    "KRAL": {
      "name": "Riverside Municipal",
      "metar": "METAR KRAL 160453Z AUTO 28006KT 10SM CLR 23/13 A2999 RMK AO2 SLP139 T02280133",
      "metarTime": "2026-06-16T05:00:00.000Z",
      "taf": "",
      "tafTime": ""
    }
  }
}
