{
  "updated": "2026-05-13T08:23:00.000Z",
  "airports": {
    "KPOC": {
      "name": "Brackett Field",
      "metar": "",
      "metarTime": "",
      "taf": "",
      "tafTime": ""
    },
    "KCCB": {
      "name": "Cable Airport",
      "metar": "",
      "metarTime": "",
      "taf": "",
      "tafTime": ""
    },
    "KRAL": {
      "name": "Riverside Municipal",
      "metar": "SPECI KRAL 130823Z AUTO 27006KT 10SM OVC029 14/12 A3006 RMK AO2 T01440122",
      "metarTime": "2026-05-13T08:23:00.000Z",
      "taf": "",
      "tafTime": ""
    }
  }
}
