{
  "updated": "2026-06-05T10:35:00.000Z",
  "airports": {
    "KPOC": {
      "name": "Brackett Field",
      "metar": "",
      "metarTime": "",
      "taf": "",
      "tafTime": ""
    },
    "KCCB": {
      "name": "Cable Airport",
      "metar": "METAR KCCB 051035Z AUTO 00000KT 10SM CLR 16/14 A2986 RMK AO2",
      "metarTime": "2026-06-05T10:35:00.000Z",
      "taf": "",
      "tafTime": ""
    },
    "KRAL": {
      "name": "Riverside Municipal",
      "metar": "METAR KRAL 050953Z AUTO 27003KT 7SM CLR 16/14 A2986 RMK AO2 SLP096 T01560139",
      "metarTime": "2026-06-05T10:00:00.000Z",
      "taf": "",
      "tafTime": ""
    }
  }
}
