{
  "updated": "2026-05-10T19:15:00.000Z",
  "airports": {
    "KPOC": {
      "name": "Brackett Field",
      "metar": "METAR KPOC 101847Z 24007KT 7SM CLR 24/14 A2994",
      "metarTime": "2026-05-10T19:00:00.000Z",
      "taf": "",
      "tafTime": ""
    },
    "KCCB": {
      "name": "Cable Airport",
      "metar": "METAR KCCB 101915Z AUTO 25008KT 10SM CLR 26/13 A2994 RMK AO2",
      "metarTime": "2026-05-10T19:15:00.000Z",
      "taf": "",
      "tafTime": ""
    },
    "KRAL": {
      "name": "Riverside Municipal",
      "metar": "METAR KRAL 101853Z VRB04KT 10SM CLR 26/13 A2992 RMK AO2 SLP116 T02610128",
      "metarTime": "2026-05-10T19:00:00.000Z",
      "taf": "",
      "tafTime": ""
    }
  }
}
