{
  "updated": "2026-07-14T12:00:00.000Z",
  "airports": {
    "KPOC": {
      "name": "Brackett Field",
      "metar": "",
      "metarTime": "",
      "taf": "",
      "tafTime": ""
    },
    "KCCB": {
      "name": "Cable Airport",
      "metar": "METAR KCCB 141155Z AUTO 33003KT 10SM 21/16 A2999 RMK AO2",
      "metarTime": "2026-07-14T12:00:00.000Z",
      "taf": "",
      "tafTime": ""
    },
    "KRAL": {
      "name": "Riverside Municipal",
      "metar": "METAR KRAL 141153Z AUTO 27006KT 10SM CLR 19/15 A2998 RMK AO2 SLP135 T01940150 10222 20194 55002",
      "metarTime": "2026-07-14T12:00:00.000Z",
      "taf": "",
      "tafTime": ""
    }
  }
}
