{
  "updated": "2026-03-18T07:35:00.000Z",
  "airports": {
    "KPOC": {
      "name": "Brackett Field",
      "metar": "",
      "metarTime": "",
      "taf": "",
      "tafTime": ""
    },
    "KCCB": {
      "name": "Cable Airport",
      "metar": "METAR KCCB 180735Z AUTO 04005KT 10SM 25/05 A3002 RMK AO2",
      "metarTime": "2026-03-18T07:35:00.000Z",
      "taf": "",
      "tafTime": ""
    },
    "KRAL": {
      "name": "Riverside Municipal",
      "metar": "METAR KRAL 180653Z AUTO 04003KT 10SM CLR 22/07 A3000 RMK AO2 SLP141 T02220067",
      "metarTime": "2026-03-18T07:00:00.000Z",
      "taf": "",
      "tafTime": ""
    }
  }
}
