{
  "updated": "2026-02-10T09:35:00.000Z",
  "airports": {
    "KPOC": {
      "name": "Brackett Field",
      "metar": "",
      "metarTime": "",
      "taf": "",
      "tafTime": ""
    },
    "KCCB": {
      "name": "Cable Airport",
      "metar": "METAR KCCB 100935Z AUTO 27004KT 10SM CLR 14/04 A2994 RMK AO2",
      "metarTime": "2026-02-10T09:35:00.000Z",
      "taf": "",
      "tafTime": ""
    },
    "KRAL": {
      "name": "Riverside Municipal",
      "metar": "METAR KRAL 100853Z AUTO 00000KT 10SM CLR 14/05 A2993 RMK AO2 SLP121 T01390050 58003 $",
      "metarTime": "2026-02-10T09:00:00.000Z",
      "taf": "",
      "tafTime": ""
    }
  }
}
