{
  "updated": "2026-03-02T12:15:00.000Z",
  "airports": {
    "KPOC": {
      "name": "Brackett Field",
      "metar": "",
      "metarTime": "",
      "taf": "",
      "tafTime": ""
    },
    "KCCB": {
      "name": "Cable Airport",
      "metar": "METAR KCCB 021215Z AUTO 00000KT 10SM CLR 14/10 A2996 RMK AO2",
      "metarTime": "2026-03-02T12:15:00.000Z",
      "taf": "",
      "tafTime": ""
    },
    "KRAL": {
      "name": "Riverside Municipal",
      "metar": "METAR KRAL 021153Z AUTO 00000KT 10SM CLR 13/10 A2997 RMK AO2 SLP133 T01330100 10178 20133 56008",
      "metarTime": "2026-03-02T12:00:00.000Z",
      "taf": "",
      "tafTime": ""
    }
  }
}
