{
  "updated": "2026-04-09T20:00:00.000Z",
  "airports": {
    "KPOC": {
      "name": "Brackett Field",
      "metar": "METAR KPOC 091847Z 27007KT 8SM CLR 23/13 A2998",
      "metarTime": "2026-04-09T19:00:00.000Z",
      "taf": "",
      "tafTime": ""
    },
    "KCCB": {
      "name": "Cable Airport",
      "metar": "METAR KCCB 091935Z AUTO 22009G14KT 10SM CLR 23/11 A2996 RMK AO2",
      "metarTime": "2026-04-09T19:35:00.000Z",
      "taf": "",
      "tafTime": ""
    },
    "KRAL": {
      "name": "Riverside Municipal",
      "metar": "METAR KRAL 091953Z 30005KT 10SM CLR 26/11 A2994 RMK AO2 SLP124 T02610106",
      "metarTime": "2026-04-09T20:00:00.000Z",
      "taf": "",
      "tafTime": ""
    }
  }
}
