{
  "updated": "2026-02-07T16:00:00.000Z",
  "airports": {
    "KPOC": {
      "name": "Brackett Field",
      "metar": "METAR KPOC 071547Z 00000KT 3SM BR CLR 12/10 A3020",
      "metarTime": "2026-02-07T16:00:00.000Z",
      "taf": "",
      "tafTime": ""
    },
    "KCCB": {
      "name": "Cable Airport",
      "metar": "METAR KCCB 071555Z AUTO 00000KT 10SM CLR 13/10 A3019 RMK AO2",
      "metarTime": "2026-02-07T16:00:00.000Z",
      "taf": "",
      "tafTime": ""
    },
    "KRAL": {
      "name": "Riverside Municipal",
      "metar": "METAR KRAL 071553Z 00000KT 4SM BR CLR 11/09 A3020 RMK AO2 SLP216 T01110094",
      "metarTime": "2026-02-07T16:00:00.000Z",
      "taf": "",
      "tafTime": ""
    }
  }
}
