{
  "updated": "2026-04-18T16:35:00.000Z",
  "airports": {
    "KPOC": {
      "name": "Brackett Field",
      "metar": "METAR KPOC 181547Z 11005KT 10SM CLR 18/07 A2998",
      "metarTime": "2026-04-18T16:00:00.000Z",
      "taf": "",
      "tafTime": ""
    },
    "KCCB": {
      "name": "Cable Airport",
      "metar": "METAR KCCB 181635Z AUTO 23004KT 10SM CLR 19/03 A2998 RMK AO2",
      "metarTime": "2026-04-18T16:35:00.000Z",
      "taf": "",
      "tafTime": ""
    },
    "KRAL": {
      "name": "Riverside Municipal",
      "metar": "METAR KRAL 181553Z 08003KT 10SM CLR 19/M01 A2997 RMK AO2 SLP137 T01891011",
      "metarTime": "2026-04-18T16:00:00.000Z",
      "taf": "",
      "tafTime": ""
    }
  }
}
