{
  "updated": "2026-04-24T14:15:00.000Z",
  "airports": {
    "KPOC": {
      "name": "Brackett Field",
      "metar": "METAR KPOC 241347Z 00000KT 10SM CLR 12/06 A2994",
      "metarTime": "2026-04-24T14:00:00.000Z",
      "taf": "",
      "tafTime": ""
    },
    "KCCB": {
      "name": "Cable Airport",
      "metar": "METAR KCCB 241415Z AUTO 00000KT 10SM CLR 14/07 A2993 RMK AO2",
      "metarTime": "2026-04-24T14:15:00.000Z",
      "taf": "",
      "tafTime": ""
    },
    "KRAL": {
      "name": "Riverside Municipal",
      "metar": "METAR KRAL 241353Z AUTO 00000KT 10SM CLR 12/09 A2994 RMK AO2 SLP125 T01220094",
      "metarTime": "2026-04-24T14:00:00.000Z",
      "taf": "",
      "tafTime": ""
    }
  }
}
