{
  "updated": "2026-03-11T18:35:00.000Z",
  "airports": {
    "KPOC": {
      "name": "Brackett Field",
      "metar": "METAR KPOC 111747Z 00000KT 10SM CLR 18/11 A3027",
      "metarTime": "2026-03-11T18:00:00.000Z",
      "taf": "",
      "tafTime": ""
    },
    "KCCB": {
      "name": "Cable Airport",
      "metar": "METAR KCCB 111835Z AUTO VRB04KT 9SM CLR 19/10 A3025 RMK AO2",
      "metarTime": "2026-03-11T18:35:00.000Z",
      "taf": "",
      "tafTime": ""
    },
    "KRAL": {
      "name": "Riverside Municipal",
      "metar": "METAR KRAL 111753Z 00000KT 10SM CLR 18/11 A3025 RMK AO2 SLP233 T01830106 10189 20089 51005",
      "metarTime": "2026-03-11T18:00:00.000Z",
      "taf": "",
      "tafTime": ""
    }
  }
}
