{
  "updated": "2026-07-11T18:00:00.000Z",
  "airports": {
    "KPOC": {
      "name": "Brackett Field",
      "metar": "METAR KPOC 111747Z 26007KT 10SM CLR 25/16 A2997",
      "metarTime": "2026-07-11T18:00:00.000Z",
      "taf": "",
      "tafTime": ""
    },
    "KCCB": {
      "name": "Cable Airport",
      "metar": "METAR KCCB 111755Z AUTO 25007KT 9SM CLR 26/15 A2997 RMK AO2",
      "metarTime": "2026-07-11T18:00:00.000Z",
      "taf": "",
      "tafTime": ""
    },
    "KRAL": {
      "name": "Riverside Municipal",
      "metar": "METAR KRAL 111753Z 28008KT 10SM CLR 27/16 A2994 RMK AO2 SLP123 T02720156 10272 20167 50005",
      "metarTime": "2026-07-11T18:00:00.000Z",
      "taf": "",
      "tafTime": ""
    }
  }
}
