{
  "updated": "2026-05-04T13:15:00.000Z",
  "airports": {
    "KPOC": {
      "name": "Brackett Field",
      "metar": "",
      "metarTime": "",
      "taf": "",
      "tafTime": ""
    },
    "KCCB": {
      "name": "Cable Airport",
      "metar": "METAR KCCB 041315Z AUTO 26007KT 10SM OVC048 12/11 A2998 RMK AO2",
      "metarTime": "2026-05-04T13:15:00.000Z",
      "taf": "",
      "tafTime": ""
    },
    "KRAL": {
      "name": "Riverside Municipal",
      "metar": "METAR KRAL 041253Z AUTO 27003KT 10SM OVC055 13/08 A2997 RMK AO2 SLP137 T01280083",
      "metarTime": "2026-05-04T13:00:00.000Z",
      "taf": "",
      "tafTime": ""
    }
  }
}
