{
  "updated": "2026-03-12T14:35:00.000Z",
  "airports": {
    "KPOC": {
      "name": "Brackett Field",
      "metar": "METAR KPOC 121347Z VRB04KT 10SM CLR 14/08 A3021",
      "metarTime": "2026-03-12T14:00:00.000Z",
      "taf": "",
      "tafTime": ""
    },
    "KCCB": {
      "name": "Cable Airport",
      "metar": "METAR KCCB 121435Z AUTO 00000KT 10SM CLR 17/03 A3021 RMK AO2",
      "metarTime": "2026-03-12T14:35:00.000Z",
      "taf": "",
      "tafTime": ""
    },
    "KRAL": {
      "name": "Riverside Municipal",
      "metar": "METAR KRAL 121353Z 06004KT 10SM CLR 12/07 A3021 RMK AO2 SLP216 T01220067",
      "metarTime": "2026-03-12T14:00:00.000Z",
      "taf": "",
      "tafTime": ""
    }
  }
}
