{
  "updated": "2026-06-30T22:35:00.000Z",
  "airports": {
    "KPOC": {
      "name": "Brackett Field",
      "metar": "METAR KPOC 302147Z 25008KT 10SM OVC045 21/13 A2994",
      "metarTime": "2026-06-30T22:00:00.000Z",
      "taf": "",
      "tafTime": ""
    },
    "KCCB": {
      "name": "Cable Airport",
      "metar": "METAR KCCB 302235Z AUTO 26008KT 10SM SCT028 SCT032 21/13 A2993 RMK AO2",
      "metarTime": "2026-06-30T22:35:00.000Z",
      "taf": "",
      "tafTime": ""
    },
    "KRAL": {
      "name": "Riverside Municipal",
      "metar": "METAR KRAL 302153Z VRB04KT 10SM CLR 24/12 A2991 RMK AO2 SLP113 T02440117",
      "metarTime": "2026-06-30T22:00:00.000Z",
      "taf": "",
      "tafTime": ""
    }
  }
}
