{
  "updated": "2026-02-12T21:00:00.000Z",
  "airports": {
    "KPOC": {
      "name": "Brackett Field",
      "metar": "METAR KPOC 122047Z 24006KT 10SM CLR 17/06 A3010",
      "metarTime": "2026-02-12T21:00:00.000Z",
      "taf": "",
      "tafTime": ""
    },
    "KCCB": {
      "name": "Cable Airport",
      "metar": "METAR KCCB 122035Z AUTO 00000KT 10SM CLR 17/05 A3010 RMK AO2",
      "metarTime": "2026-02-12T20:35:00.000Z",
      "taf": "",
      "tafTime": ""
    },
    "KRAL": {
      "name": "Riverside Municipal",
      "metar": "METAR KRAL 122053Z VRB04KT 10SM CLR 18/04 A3009 RMK AO2 SLP179 T01780044 58026",
      "metarTime": "2026-02-12T21:00:00.000Z",
      "taf": "",
      "tafTime": ""
    }
  }
}
