{
  "updated": "2026-03-28T15:15:00.000Z",
  "airports": {
    "KPOC": {
      "name": "Brackett Field",
      "metar": "METAR KPOC 281447Z 00000KT 10SM CLR 15/07 A3001",
      "metarTime": "2026-03-28T15:00:00.000Z",
      "taf": "",
      "tafTime": ""
    },
    "KCCB": {
      "name": "Cable Airport",
      "metar": "METAR KCCB 281515Z AUTO 09005KT 10SM CLR 19/04 A3001 RMK AO2",
      "metarTime": "2026-03-28T15:15:00.000Z",
      "taf": "",
      "tafTime": ""
    },
    "KRAL": {
      "name": "Riverside Municipal",
      "metar": "METAR KRAL 281453Z 07003KT 10SM CLR 15/08 A3001 RMK AO2 SLP149 T01500083 53010",
      "metarTime": "2026-03-28T15:00:00.000Z",
      "taf": "",
      "tafTime": ""
    }
  }
}
