{
  "updated": "2026-03-04T20:00:00.000Z",
  "airports": {
    "KPOC": {
      "name": "Brackett Field",
      "metar": "METAR KPOC 041947Z 26006KT 10SM CLR 18/12 A3003",
      "metarTime": "2026-03-04T20:00:00.000Z",
      "taf": "",
      "tafTime": ""
    },
    "KCCB": {
      "name": "Cable Airport",
      "metar": "METAR KCCB 041935Z AUTO 24007KT 8SM CLR 18/12 A3002 RMK AO2",
      "metarTime": "2026-03-04T19:35:00.000Z",
      "taf": "",
      "tafTime": ""
    },
    "KRAL": {
      "name": "Riverside Municipal",
      "metar": "METAR KRAL 041853Z VRB04KT 10SM CLR 19/11 A3003 RMK AO2 SLP157 T01890106",
      "metarTime": "2026-03-04T19:00:00.000Z",
      "taf": "",
      "tafTime": ""
    }
  }
}
