{
  "updated": "2026-05-30T15:35:00.000Z",
  "airports": {
    "KPOC": {
      "name": "Brackett Field",
      "metar": "METAR KPOC 301447Z 00000KT 10SM CLR 15/09 A3004",
      "metarTime": "2026-05-30T15:00:00.000Z",
      "taf": "",
      "tafTime": ""
    },
    "KCCB": {
      "name": "Cable Airport",
      "metar": "METAR KCCB 301535Z AUTO 00000KT 10SM CLR 16/10 A3004 RMK AO2",
      "metarTime": "2026-05-30T15:35:00.000Z",
      "taf": "",
      "tafTime": ""
    },
    "KRAL": {
      "name": "Riverside Municipal",
      "metar": "METAR KRAL 301453Z 00000KT 10SM CLR 16/11 A3003 RMK AO2 SLP158 T01610106 51007",
      "metarTime": "2026-05-30T15:00:00.000Z",
      "taf": "",
      "tafTime": ""
    }
  }
}
