{
  "updated": "2026-04-12T11:00:00.000Z",
  "airports": {
    "KPOC": {
      "name": "Brackett Field",
      "metar": "",
      "metarTime": "",
      "taf": "",
      "tafTime": ""
    },
    "KCCB": {
      "name": "Cable Airport",
      "metar": "METAR KCCB 121055Z AUTO 00000KT 10SM FEW045 OVC055 13/12 A2994 RMK AO2",
      "metarTime": "2026-04-12T11:00:00.000Z",
      "taf": "",
      "tafTime": ""
    },
    "KRAL": {
      "name": "Riverside Municipal",
      "metar": "METAR KRAL 121053Z AUTO 10SM OVC055 13/08 A2994 RMK AO2 SLP127 T01330083",
      "metarTime": "2026-04-12T11:00:00.000Z",
      "taf": "",
      "tafTime": ""
    }
  }
}
