{
  "updated": "2026-06-30T06:31:00.000Z",
  "airports": {
    "KPOC": {
      "name": "Brackett Field",
      "metar": "",
      "metarTime": "",
      "taf": "",
      "tafTime": ""
    },
    "KCCB": {
      "name": "Cable Airport",
      "metar": "",
      "metarTime": "",
      "taf": "",
      "tafTime": ""
    },
    "KRAL": {
      "name": "Riverside Municipal",
      "metar": "SPECI KRAL 300631Z AUTO VRB03KT 10SM BKN020 BKN042 17/13 A2994 RMK AO2 T01670128",
      "metarTime": "2026-06-30T06:31:00.000Z",
      "taf": "",
      "tafTime": ""
    }
  }
}
