{
  "updated": "2026-03-11T17:35:00.000Z",
  "airports": {
    "KPOC": {
      "name": "Brackett Field",
      "metar": "METAR KPOC 111647Z 11005KT 10SM CLR 16/11 A3026",
      "metarTime": "2026-03-11T17:00:00.000Z",
      "taf": "",
      "tafTime": ""
    },
    "KCCB": {
      "name": "Cable Airport",
      "metar": "METAR KCCB 111735Z AUTO VRB03KT 9SM CLR 18/11 A3025 RMK AO2",
      "metarTime": "2026-03-11T17:35:00.000Z",
      "taf": "",
      "tafTime": ""
    },
    "KRAL": {
      "name": "Riverside Municipal",
      "metar": "METAR KRAL 111653Z 00000KT 10SM CLR 16/11 A3025 RMK AO2 SLP234 T01610106",
      "metarTime": "2026-03-11T17:00:00.000Z",
      "taf": "",
      "tafTime": ""
    }
  }
}
