{
  "updated": "2026-03-31T11:35:00.000Z",
  "airports": {
    "KPOC": {
      "name": "Brackett Field",
      "metar": "",
      "metarTime": "",
      "taf": "",
      "tafTime": ""
    },
    "KCCB": {
      "name": "Cable Airport",
      "metar": "METAR KCCB 311135Z AUTO 21006KT 7SM 15/15 A2997 RMK AO2",
      "metarTime": "2026-03-31T11:35:00.000Z",
      "taf": "",
      "tafTime": ""
    },
    "KRAL": {
      "name": "Riverside Municipal",
      "metar": "METAR KRAL 311053Z AUTO 00000KT 9SM OVC010 16/14 A2997 RMK AO2 SLP133 T01610139",
      "metarTime": "2026-03-31T11:00:00.000Z",
      "taf": "",
      "tafTime": ""
    }
  }
}
