{
  "updated": "2026-02-26T10:15:00.000Z",
  "airports": {
    "KPOC": {
      "name": "Brackett Field",
      "metar": "",
      "metarTime": "",
      "taf": "",
      "tafTime": ""
    },
    "KCCB": {
      "name": "Cable Airport",
      "metar": "METAR KCCB 261015Z AUTO 00000KT 10SM CLR 16/10 A3006 RMK AO2",
      "metarTime": "2026-02-26T10:15:00.000Z",
      "taf": "",
      "tafTime": ""
    },
    "KRAL": {
      "name": "Riverside Municipal",
      "metar": "METAR KRAL 260953Z AUTO 00000KT 10SM CLR 14/11 A3007 RMK AO2 SLP168 T01440111",
      "metarTime": "2026-02-26T10:00:00.000Z",
      "taf": "",
      "tafTime": ""
    }
  }
}
