{
  "updated": "2026-02-25T09:35:00.000Z",
  "airports": {
    "KPOC": {
      "name": "Brackett Field",
      "metar": "",
      "metarTime": "",
      "taf": "",
      "tafTime": ""
    },
    "KCCB": {
      "name": "Cable Airport",
      "metar": "METAR KCCB 250935Z AUTO 04005KT 10SM CLR 16/06 A3004 RMK AO2",
      "metarTime": "2026-02-25T09:35:00.000Z",
      "taf": "",
      "tafTime": ""
    },
    "KRAL": {
      "name": "Riverside Municipal",
      "metar": "METAR KRAL 250853Z AUTO 07004KT 10SM CLR 13/08 A3004 RMK AO2 SLP161 T01280078 58001",
      "metarTime": "2026-02-25T09:00:00.000Z",
      "taf": "",
      "tafTime": ""
    }
  }
}
