{
  "updated": "2026-03-04T10:00:00.000Z",
  "airports": {
    "KPOC": {
      "name": "Brackett Field",
      "metar": "",
      "metarTime": "",
      "taf": "",
      "tafTime": ""
    },
    "KCCB": {
      "name": "Cable Airport",
      "metar": "METAR KCCB 040935Z AUTO 00000KT 10SM 13/10 A3001 RMK AO2",
      "metarTime": "2026-03-04T09:35:00.000Z",
      "taf": "",
      "tafTime": ""
    },
    "KRAL": {
      "name": "Riverside Municipal",
      "metar": "METAR KRAL 040953Z AUTO 00000KT 10SM CLR 12/09 A3001 RMK AO2 SLP151 T01170089",
      "metarTime": "2026-03-04T10:00:00.000Z",
      "taf": "",
      "tafTime": ""
    }
  }
}
