{
  "updated": "2026-04-07T07:15:00.000Z",
  "airports": {
    "KPOC": {
      "name": "Brackett Field",
      "metar": "",
      "metarTime": "",
      "taf": "",
      "tafTime": ""
    },
    "KCCB": {
      "name": "Cable Airport",
      "metar": "METAR KCCB 070715Z AUTO 00000KT 10SM CLR 15/09 A3004 RMK AO2",
      "metarTime": "2026-04-07T07:15:00.000Z",
      "taf": "",
      "tafTime": ""
    },
    "KRAL": {
      "name": "Riverside Municipal",
      "metar": "METAR KRAL 070653Z AUTO 00000KT 10SM CLR 16/09 A3004 RMK AO2 SLP157 T01560089",
      "metarTime": "2026-04-07T07:00:00.000Z",
      "taf": "",
      "tafTime": ""
    }
  }
}
