{
  "updated": "2026-03-23T21:00:00.000Z",
  "airports": {
    "KPOC": {
      "name": "Brackett Field",
      "metar": "METAR KPOC 232047Z 24010KT 10SM CLR 26/13 A2993",
      "metarTime": "2026-03-23T21:00:00.000Z",
      "taf": "",
      "tafTime": ""
    },
    "KCCB": {
      "name": "Cable Airport",
      "metar": "METAR KCCB 232055Z AUTO 24009KT 9SM CLR 27/12 A2993 RMK AO2",
      "metarTime": "2026-03-23T21:00:00.000Z",
      "taf": "",
      "tafTime": ""
    },
    "KRAL": {
      "name": "Riverside Municipal",
      "metar": "METAR KRAL 232053Z VRB06G15KT 10SM CLR 31/08 A2990 RMK AO2 SLP109 T03060078 56016",
      "metarTime": "2026-03-23T21:00:00.000Z",
      "taf": "",
      "tafTime": ""
    }
  }
}
