{
  "updated": "2026-02-18T11:15:00.000Z",
  "airports": {
    "KPOC": {
      "name": "Brackett Field",
      "metar": "",
      "metarTime": "",
      "taf": "",
      "tafTime": ""
    },
    "KCCB": {
      "name": "Cable Airport",
      "metar": "METAR KCCB 181115Z AUTO 27019G28KT 7SM BKN033 OVC047 07/07 A2983 RMK AO2",
      "metarTime": "2026-02-18T11:15:00.000Z",
      "taf": "",
      "tafTime": ""
    },
    "KRAL": {
      "name": "Riverside Municipal",
      "metar": "SPECI KRAL 181110Z AUTO 24024G34KT 10SM -RA FEW015 BKN029 OVC055 10/07 A2984 RMK AO2 PK WND 24034/1110 LTG DSNT S P0001 T01000072",
      "metarTime": "2026-02-18T11:10:00.000Z",
      "taf": "",
      "tafTime": ""
    }
  }
}
