{
  "updated": "2026-04-12T00:00:00.000Z",
  "airports": {
    "KPOC": {
      "name": "Brackett Field",
      "metar": "METAR KPOC 112347Z 26011G15KT 10SM SCT050 22/08 A2994",
      "metarTime": "2026-04-12T00:00:00.000Z",
      "taf": "",
      "tafTime": ""
    },
    "KCCB": {
      "name": "Cable Airport",
      "metar": "METAR KCCB 112335Z AUTO 26015KT 10SM BKN050 21/06 A2994 RMK AO2",
      "metarTime": "2026-04-11T23:35:00.000Z",
      "taf": "",
      "tafTime": ""
    },
    "KRAL": {
      "name": "Riverside Municipal",
      "metar": "METAR KRAL 112353Z 25010G21KT 10SM CLR 22/08 A2992 RMK AO2 SLP120 60000 T02220078 10239 20189 56013",
      "metarTime": "2026-04-12T00:00:00.000Z",
      "taf": "",
      "tafTime": ""
    }
  }
}
