{
  "updated": "2026-05-09T12:37:00.000Z",
  "airports": {
    "KPOC": {
      "name": "Brackett Field",
      "metar": "",
      "metarTime": "",
      "taf": "",
      "tafTime": ""
    },
    "KCCB": {
      "name": "Cable Airport",
      "metar": "METAR KCCB 091235Z AUTO 00000KT 8SM CLR 14/14 A2992 RMK AO2",
      "metarTime": "2026-05-09T12:35:00.000Z",
      "taf": "",
      "tafTime": ""
    },
    "KRAL": {
      "name": "Riverside Municipal",
      "metar": "SPECI KRAL 091237Z AUTO 28003KT 4SM BR OVC003 14/13 A2993 RMK AO2 CIG 002V005 T01390133",
      "metarTime": "2026-05-09T12:37:00.000Z",
      "taf": "",
      "tafTime": ""
    }
  }
}
