{
  "updated": "2026-07-05T21:15:00.000Z",
  "airports": {
    "KPOC": {
      "name": "Brackett Field",
      "metar": "METAR KPOC 052047Z 25011KT 7SM CLR 29/15 A2998",
      "metarTime": "2026-07-05T21:00:00.000Z",
      "taf": "",
      "tafTime": ""
    },
    "KCCB": {
      "name": "Cable Airport",
      "metar": "METAR KCCB 052115Z AUTO 26010G16KT 10SM CLR 30/14 A2998 RMK AO2",
      "metarTime": "2026-07-05T21:15:00.000Z",
      "taf": "",
      "tafTime": ""
    },
    "KRAL": {
      "name": "Riverside Municipal",
      "metar": "METAR KRAL 052053Z 29007G20KT 10SM CLR 33/14 A2994 RMK AO2 SLP120 T03280144 58018",
      "metarTime": "2026-07-05T21:00:00.000Z",
      "taf": "",
      "tafTime": ""
    }
  }
}
