{
  "updated": "2026-04-10T02:00:00.000Z",
  "airports": {
    "KPOC": {
      "name": "Brackett Field",
      "metar": "METAR KPOC 100147Z 24006KT 8SM CLR 21/14 A2993",
      "metarTime": "2026-04-10T02:00:00.000Z",
      "taf": "",
      "tafTime": ""
    },
    "KCCB": {
      "name": "Cable Airport",
      "metar": "METAR KCCB 100150Z AUTO 26012KT 10SM CLR 21/13 A2993 RMK AO2",
      "metarTime": "2026-04-10T02:00:00.000Z",
      "taf": "",
      "tafTime": ""
    },
    "KRAL": {
      "name": "Riverside Municipal",
      "metar": "METAR KRAL 100153Z 27007KT 10SM CLR 22/13 A2992 RMK AO2 SLP118 T02220128",
      "metarTime": "2026-04-10T02:00:00.000Z",
      "taf": "",
      "tafTime": ""
    }
  }
}
