{
  "updated": "2026-02-16T04:00:00.000Z",
  "airports": {
    "KPOC": {
      "name": "Brackett Field",
      "metar": "METAR KPOC 160347Z 26005KT 10SM CLR 12/07 A2996",
      "metarTime": "2026-02-16T04:00:00.000Z",
      "taf": "",
      "tafTime": ""
    },
    "KCCB": {
      "name": "Cable Airport",
      "metar": "METAR KCCB 160355Z AUTO 26006KT 10SM CLR 12/09 A2994 RMK AO2",
      "metarTime": "2026-02-16T04:00:00.000Z",
      "taf": "",
      "tafTime": ""
    },
    "KRAL": {
      "name": "Riverside Municipal",
      "metar": "METAR KRAL 160353Z 00000KT 10SM OVC049 13/07 A2995 RMK AO2 SLP132 T01280072",
      "metarTime": "2026-02-16T04:00:00.000Z",
      "taf": "",
      "tafTime": ""
    }
  }
}
