{
  "updated": "2026-07-16T23:35:00.000Z",
  "airports": {
    "KPOC": {
      "name": "Brackett Field",
      "metar": "METAR KPOC 162247Z 26009KT 10SM CLR 34/17 A2981",
      "metarTime": "2026-07-16T23:00:00.000Z",
      "taf": "",
      "tafTime": ""
    },
    "KCCB": {
      "name": "Cable Airport",
      "metar": "METAR KCCB 162335Z AUTO 26014KT 10SM CLR 34/15 A2981 RMK AO2",
      "metarTime": "2026-07-16T23:35:00.000Z",
      "taf": "",
      "tafTime": ""
    },
    "KRAL": {
      "name": "Riverside Municipal",
      "metar": "METAR KRAL 162253Z 28015G22KT 10SM CLR 38/13 A2976 RMK AO2 SLP060 T03780128",
      "metarTime": "2026-07-16T23:00:00.000Z",
      "taf": "",
      "tafTime": ""
    }
  }
}
