{
  "updated": "2026-07-05T08:10:00.000Z",
  "airports": {
    "KPOC": {
      "name": "Brackett Field",
      "metar": "",
      "metarTime": "",
      "taf": "",
      "tafTime": ""
    },
    "KCCB": {
      "name": "Cable Airport",
      "metar": "METAR KCCB 050810Z AUTO 27003KT 3SM HZ 20/15 A3000 RMK AO2",
      "metarTime": "2026-07-05T08:10:00.000Z",
      "taf": "",
      "tafTime": ""
    },
    "KRAL": {
      "name": "Riverside Municipal",
      "metar": "METAR KRAL 050753Z AUTO 00000KT 10SM CLR 22/13 A2999 RMK AO2 SLP137 T02170133 403440167",
      "metarTime": "2026-07-05T08:00:00.000Z",
      "taf": "",
      "tafTime": ""
    }
  }
}
