{
  "updated": "2026-04-21T15:00:00.000Z",
  "airports": {
    "KPOC": {
      "name": "Brackett Field",
      "metar": "METAR KPOC 211447Z 00000KT 10SM CLR 13/08 A3004",
      "metarTime": "2026-04-21T15:00:00.000Z",
      "taf": "",
      "tafTime": ""
    },
    "KCCB": {
      "name": "Cable Airport",
      "metar": "METAR KCCB 211435Z AUTO 10003KT 10SM CLR 13/07 A3003 RMK AO2",
      "metarTime": "2026-04-21T14:35:00.000Z",
      "taf": "",
      "tafTime": ""
    },
    "KRAL": {
      "name": "Riverside Municipal",
      "metar": "METAR KRAL 211353Z 00000KT 10SM CLR 11/08 A3003 RMK AO2 SLP159 T01110083",
      "metarTime": "2026-04-21T14:00:00.000Z",
      "taf": "",
      "tafTime": ""
    }
  }
}
