{
  "updated": "2026-07-16T12:00:00.000Z",
  "airports": {
    "KPOC": {
      "name": "Brackett Field",
      "metar": "",
      "metarTime": "",
      "taf": "",
      "tafTime": ""
    },
    "KCCB": {
      "name": "Cable Airport",
      "metar": "METAR KCCB 161105Z AUTO 00000KT 10SM 24/14 A2984 RMK AO2",
      "metarTime": "2026-07-16T11:05:00.000Z",
      "taf": "",
      "tafTime": ""
    },
    "KRAL": {
      "name": "Riverside Municipal",
      "metar": "METAR KRAL 161153Z AUTO 00000KT 10SM CLR 22/14 A2983 RMK AO2 SLP081 T02220144 10278 20222 56001",
      "metarTime": "2026-07-16T12:00:00.000Z",
      "taf": "",
      "tafTime": ""
    }
  }
}
