{
  "updated": "2026-07-17T18:00:00.000Z",
  "airports": {
    "KPOC": {
      "name": "Brackett Field",
      "metar": "METAR KPOC 171747Z 27005KT 10SM CLR 27/17 A2997",
      "metarTime": "2026-07-17T18:00:00.000Z",
      "taf": "",
      "tafTime": ""
    },
    "KCCB": {
      "name": "Cable Airport",
      "metar": "METAR KCCB 171735Z AUTO 21005KT 10SM CLR 27/15 A2997 RMK AO2",
      "metarTime": "2026-07-17T17:35:00.000Z",
      "taf": "",
      "tafTime": ""
    },
    "KRAL": {
      "name": "Riverside Municipal",
      "metar": "METAR KRAL 171753Z VRB06KT 10SM CLR 30/17 A2994 RMK AO2 SLP121 T03000167 10300 20206 51000",
      "metarTime": "2026-07-17T18:00:00.000Z",
      "taf": "",
      "tafTime": ""
    }
  }
}
