{
  "updated": "2026-04-25T06:00:00.000Z",
  "airports": {
    "KPOC": {
      "name": "Brackett Field",
      "metar": "",
      "metarTime": "",
      "taf": "",
      "tafTime": ""
    },
    "KCCB": {
      "name": "Cable Airport",
      "metar": "METAR KCCB 250555Z AUTO 24008KT 10SM OVC017 14/12 A2991 RMK AO2",
      "metarTime": "2026-04-25T06:00:00.000Z",
      "taf": "",
      "tafTime": ""
    },
    "KRAL": {
      "name": "Riverside Municipal",
      "metar": "METAR KRAL 250553Z AUTO 05004KT 10SM CLR 14/09 A2991 RMK AO2 SLP116 T01440094 10239 20144 51021",
      "metarTime": "2026-04-25T06:00:00.000Z",
      "taf": "",
      "tafTime": ""
    }
  }
}
