{
  "updated": "2026-04-19T08:35:00.000Z",
  "airports": {
    "KPOC": {
      "name": "Brackett Field",
      "metar": "",
      "metarTime": "",
      "taf": "",
      "tafTime": ""
    },
    "KCCB": {
      "name": "Cable Airport",
      "metar": "METAR KCCB 190835Z AUTO 04003KT 10SM CLR 16/04 A2994 RMK AO2",
      "metarTime": "2026-04-19T08:35:00.000Z",
      "taf": "",
      "tafTime": ""
    },
    "KRAL": {
      "name": "Riverside Municipal",
      "metar": "METAR KRAL 190753Z AUTO 00000KT 10SM CLR 17/09 A2995 RMK AO2 SLP127 T01720094 403060078",
      "metarTime": "2026-04-19T08:00:00.000Z",
      "taf": "",
      "tafTime": ""
    }
  }
}
