{
  "updated": "2026-04-07T14:15:00.000Z",
  "airports": {
    "KPOC": {
      "name": "Brackett Field",
      "metar": "METAR KPOC 071347Z 00000KT 10SM CLR 12/11 A3002",
      "metarTime": "2026-04-07T14:00:00.000Z",
      "taf": "",
      "tafTime": ""
    },
    "KCCB": {
      "name": "Cable Airport",
      "metar": "METAR KCCB 071415Z AUTO 00000KT 10SM CLR 15/10 A3000 RMK AO2",
      "metarTime": "2026-04-07T14:15:00.000Z",
      "taf": "",
      "tafTime": ""
    },
    "KRAL": {
      "name": "Riverside Municipal",
      "metar": "METAR KRAL 071353Z 00000KT 10SM CLR 12/09 A3000 RMK AO2 SLP147 T01220089",
      "metarTime": "2026-04-07T14:00:00.000Z",
      "taf": "",
      "tafTime": ""
    }
  }
}
