{
  "updated": "2026-03-10T13:35:00.000Z",
  "airports": {
    "KPOC": {
      "name": "Brackett Field",
      "metar": "",
      "metarTime": "",
      "taf": "",
      "tafTime": ""
    },
    "KCCB": {
      "name": "Cable Airport",
      "metar": "METAR KCCB 101335Z AUTO 00000KT 6SM BR OVC007 12/12 A3001 RMK AO2",
      "metarTime": "2026-03-10T13:35:00.000Z",
      "taf": "",
      "tafTime": ""
    },
    "KRAL": {
      "name": "Riverside Municipal",
      "metar": "SPECI KRAL 101306Z AUTO 00000KT 10SM BKN012 11/08 A3002 RMK AO2 T01060083",
      "metarTime": "2026-03-10T13:06:00.000Z",
      "taf": "",
      "tafTime": ""
    }
  }
}
