{
  "updated": "2026-02-18T23:35:00.000Z",
  "airports": {
    "KPOC": {
      "name": "Brackett Field",
      "metar": "METAR KPOC 182247Z 25007KT 10SM SCT050 12/M01 A2998",
      "metarTime": "2026-02-18T23:00:00.000Z",
      "taf": "",
      "tafTime": ""
    },
    "KCCB": {
      "name": "Cable Airport",
      "metar": "METAR KCCB 182335Z AUTO 24012G19KT 10SM SCT050 BKN065 BKN075 12/M01 A2995 RMK AO2",
      "metarTime": "2026-02-18T23:35:00.000Z",
      "taf": "",
      "tafTime": ""
    },
    "KRAL": {
      "name": "Riverside Municipal",
      "metar": "METAR KRAL 182253Z 23008G20KT 10SM SCT060 13/00 A2997 RMK AO2 SLP141 T01280000 $",
      "metarTime": "2026-02-18T23:00:00.000Z",
      "taf": "",
      "tafTime": ""
    }
  }
}
