{
  "updated": "2026-05-23T08:00:00.000Z",
  "airports": {
    "KPOC": {
      "name": "Brackett Field",
      "metar": "",
      "metarTime": "",
      "taf": "",
      "tafTime": ""
    },
    "KCCB": {
      "name": "Cable Airport",
      "metar": "METAR KCCB 230755Z AUTO 25007KT 9SM OVC007 14/14 A2992 RMK AO2",
      "metarTime": "2026-05-23T08:00:00.000Z",
      "taf": "",
      "tafTime": ""
    },
    "KRAL": {
      "name": "Riverside Municipal",
      "metar": "METAR KRAL 230753Z AUTO 28003KT 10SM CLR 15/12 A2992 RMK AO2 SLP119 T01500122 402720133",
      "metarTime": "2026-05-23T08:00:00.000Z",
      "taf": "",
      "tafTime": ""
    }
  }
}
