{
  "updated": "2026-04-08T22:00:00.000Z",
  "airports": {
    "KPOC": {
      "name": "Brackett Field",
      "metar": "METAR KPOC 082147Z 27008KT 10SM CLR 26/12 A2990",
      "metarTime": "2026-04-08T22:00:00.000Z",
      "taf": "",
      "tafTime": ""
    },
    "KCCB": {
      "name": "Cable Airport",
      "metar": "METAR KCCB 082155Z AUTO 26008G14KT 10SM CLR 26/09 A2990 RMK AO2",
      "metarTime": "2026-04-08T22:00:00.000Z",
      "taf": "",
      "tafTime": ""
    },
    "KRAL": {
      "name": "Riverside Municipal",
      "metar": "METAR KRAL 082153Z 29009G18KT 10SM CLR 28/11 A2987 RMK AO2 SLP098 T02830111",
      "metarTime": "2026-04-08T22:00:00.000Z",
      "taf": "",
      "tafTime": ""
    }
  }
}
