{
  "updated": "2026-05-06T18:00:00.000Z",
  "airports": {
    "KPOC": {
      "name": "Brackett Field",
      "metar": "METAR KPOC 061747Z 00000KT 10SM CLR 18/08 A3008",
      "metarTime": "2026-05-06T18:00:00.000Z",
      "taf": "",
      "tafTime": ""
    },
    "KCCB": {
      "name": "Cable Airport",
      "metar": "METAR KCCB 061750Z AUTO 00000KT 10SM CLR 16/07 A3008 RMK AO2",
      "metarTime": "2026-05-06T18:00:00.000Z",
      "taf": "",
      "tafTime": ""
    },
    "KRAL": {
      "name": "Riverside Municipal",
      "metar": "METAR KRAL 061753Z 00000KT 10SM CLR 18/07 A3008 RMK AO2 SLP173 T01830072 10194 20094 58002",
      "metarTime": "2026-05-06T18:00:00.000Z",
      "taf": "",
      "tafTime": ""
    }
  }
}
