{
  "updated": "2026-03-07T13:00:00.000Z",
  "airports": {
    "KPOC": {
      "name": "Brackett Field",
      "metar": "",
      "metarTime": "",
      "taf": "",
      "tafTime": ""
    },
    "KCCB": {
      "name": "Cable Airport",
      "metar": "METAR KCCB 071255Z AUTO 04016G35KT 10SM CLR 16/M11 A3002 RMK AO2",
      "metarTime": "2026-03-07T13:00:00.000Z",
      "taf": "",
      "tafTime": ""
    },
    "KRAL": {
      "name": "Riverside Municipal",
      "metar": "METAR KRAL 071253Z AUTO 03010G22KT 10SM CLR 16/M08 A3001 RMK AO2 SLP150 T01561083",
      "metarTime": "2026-03-07T13:00:00.000Z",
      "taf": "",
      "tafTime": ""
    }
  }
}
