{
  "updated": "2026-03-07T20:00:00.000Z",
  "airports": {
    "KPOC": {
      "name": "Brackett Field",
      "metar": "METAR KPOC 071947Z 04008G19KT 10SM CLR 22/M08 A3006",
      "metarTime": "2026-03-07T20:00:00.000Z",
      "taf": "",
      "tafTime": ""
    },
    "KCCB": {
      "name": "Cable Airport",
      "metar": "METAR KCCB 071955Z AUTO 06019G32KT 10SM CLR 20/M11 A3006 RMK AO2",
      "metarTime": "2026-03-07T20:00:00.000Z",
      "taf": "",
      "tafTime": ""
    },
    "KRAL": {
      "name": "Riverside Municipal",
      "metar": "METAR KRAL 071953Z 02016G26KT 10SM CLR 22/M08 A3005 RMK AO2 PK WND 05031/1928 SLP162 T02171078",
      "metarTime": "2026-03-07T20:00:00.000Z",
      "taf": "",
      "tafTime": ""
    }
  }
}
