{
  "updated": "2026-05-26T10:15:00.000Z",
  "airports": {
    "KPOC": {
      "name": "Brackett Field",
      "metar": "",
      "metarTime": "",
      "taf": "",
      "tafTime": ""
    },
    "KCCB": {
      "name": "Cable Airport",
      "metar": "METAR KCCB 261015Z AUTO 27004KT 10SM OVC032 13/11 A2989 RMK AO2",
      "metarTime": "2026-05-26T10:15:00.000Z",
      "taf": "",
      "tafTime": ""
    },
    "KRAL": {
      "name": "Riverside Municipal",
      "metar": "METAR KRAL 260953Z AUTO 26003KT 10SM OVC035 13/11 A2989 RMK AO2 SLP108 T01330111",
      "metarTime": "2026-05-26T10:00:00.000Z",
      "taf": "",
      "tafTime": ""
    }
  }
}
