{
  "updated": "2026-07-13T11:15:00.000Z",
  "airports": {
    "KPOC": {
      "name": "Brackett Field",
      "metar": "",
      "metarTime": "",
      "taf": "",
      "tafTime": ""
    },
    "KCCB": {
      "name": "Cable Airport",
      "metar": "METAR KCCB 131115Z AUTO 00000KT 10SM 23/18 A2995 RMK AO2",
      "metarTime": "2026-07-13T11:15:00.000Z",
      "taf": "",
      "tafTime": ""
    },
    "KRAL": {
      "name": "Riverside Municipal",
      "metar": "METAR KRAL 131053Z AUTO 33004KT 10SM CLR 23/17 A2993 RMK AO2 SLP120 T02280172",
      "metarTime": "2026-07-13T11:00:00.000Z",
      "taf": "",
      "tafTime": ""
    }
  }
}
