{
  "updated": "2026-02-26T19:15:00.000Z",
  "airports": {
    "KPOC": {
      "name": "Brackett Field",
      "metar": "METAR KPOC 261847Z 00000KT 10SM CLR 23/12 A3009",
      "metarTime": "2026-02-26T19:00:00.000Z",
      "taf": "",
      "tafTime": ""
    },
    "KCCB": {
      "name": "Cable Airport",
      "metar": "METAR KCCB 261915Z AUTO VRB03KT 9SM CLR 24/10 A3008 RMK AO2",
      "metarTime": "2026-02-26T19:15:00.000Z",
      "taf": "",
      "tafTime": ""
    },
    "KRAL": {
      "name": "Riverside Municipal",
      "metar": "METAR KRAL 261853Z 16003KT 10SM CLR 24/13 A3007 RMK AO2 SLP169 T02390133",
      "metarTime": "2026-02-26T19:00:00.000Z",
      "taf": "",
      "tafTime": ""
    }
  }
}
