{
  "updated": "2026-04-17T09:00:00.000Z",
  "airports": {
    "KPOC": {
      "name": "Brackett Field",
      "metar": "",
      "metarTime": "",
      "taf": "",
      "tafTime": ""
    },
    "KCCB": {
      "name": "Cable Airport",
      "metar": "METAR KCCB 170835Z AUTO 00000KT 10SM OVC008 13/12 A2993 RMK AO2",
      "metarTime": "2026-04-17T08:35:00.000Z",
      "taf": "",
      "tafTime": ""
    },
    "KRAL": {
      "name": "Riverside Municipal",
      "metar": "METAR KRAL 170853Z AUTO 00000KT 10SM CLR 12/11 A2993 RMK AO2 SLP124 T01220111 53008",
      "metarTime": "2026-04-17T09:00:00.000Z",
      "taf": "",
      "tafTime": ""
    }
  }
}
