{
  "updated": "2026-03-23T08:00:00.000Z",
  "airports": {
    "KPOC": {
      "name": "Brackett Field",
      "metar": "",
      "metarTime": "",
      "taf": "",
      "tafTime": ""
    },
    "KCCB": {
      "name": "Cable Airport",
      "metar": "METAR KCCB 230735Z AUTO 00000KT 10SM 19/10 A2991 RMK AO2",
      "metarTime": "2026-03-23T07:35:00.000Z",
      "taf": "",
      "tafTime": ""
    },
    "KRAL": {
      "name": "Riverside Municipal",
      "metar": "METAR KRAL 230753Z AUTO 00000KT 10SM CLR 18/13 A2990 RMK AO2 SLP111 T01830128 403170144",
      "metarTime": "2026-03-23T08:00:00.000Z",
      "taf": "",
      "tafTime": ""
    }
  }
}
