{
  "updated": "2026-02-16T10:15:00.000Z",
  "airports": {
    "KPOC": {
      "name": "Brackett Field",
      "metar": "",
      "metarTime": "",
      "taf": "",
      "tafTime": ""
    },
    "KCCB": {
      "name": "Cable Airport",
      "metar": "METAR KCCB 161015Z AUTO 34004KT 10SM OVC043 10/08 A2991 RMK AO2",
      "metarTime": "2026-02-16T10:15:00.000Z",
      "taf": "",
      "tafTime": ""
    },
    "KRAL": {
      "name": "Riverside Municipal",
      "metar": "METAR KRAL 160953Z AUTO 01003KT 10SM CLR 11/08 A2992 RMK AO2 SLP121 T01060078",
      "metarTime": "2026-02-16T10:00:00.000Z",
      "taf": "",
      "tafTime": ""
    }
  }
}
