{
  "updated": "2026-03-11T03:15:00.000Z",
  "airports": {
    "KPOC": {
      "name": "Brackett Field",
      "metar": "METAR KPOC 110247Z 23007KT 10SM OVC030 16/11 A3015",
      "metarTime": "2026-03-11T03:00:00.000Z",
      "taf": "",
      "tafTime": ""
    },
    "KCCB": {
      "name": "Cable Airport",
      "metar": "METAR KCCB 110315Z AUTO 27011KT 10SM 15/11 A3013 RMK AO2",
      "metarTime": "2026-03-11T03:15:00.000Z",
      "taf": "",
      "tafTime": ""
    },
    "KRAL": {
      "name": "Riverside Municipal",
      "metar": "METAR KRAL 110253Z 27009KT 10SM FEW048 16/10 A3013 RMK AO2 SLP194 T01560100 53020",
      "metarTime": "2026-03-11T03:00:00.000Z",
      "taf": "",
      "tafTime": ""
    }
  }
}
