{
  "updated": "2026-07-19T20:15:00.000Z",
  "airports": {
    "KPOC": {
      "name": "Brackett Field",
      "metar": "METAR KPOC 191947Z 24008KT 10SM CLR 31/16 A2995",
      "metarTime": "2026-07-19T20:00:00.000Z",
      "taf": "",
      "tafTime": ""
    },
    "KCCB": {
      "name": "Cable Airport",
      "metar": "METAR KCCB 192015Z AUTO 26013KT 10SM CLR 32/13 A2995 RMK AO2",
      "metarTime": "2026-07-19T20:15:00.000Z",
      "taf": "",
      "tafTime": ""
    },
    "KRAL": {
      "name": "Riverside Municipal",
      "metar": "METAR KRAL 191953Z 29007G17KT 250V330 10SM CLR 35/13 A2991 RMK AO2 SLP111 T03500128",
      "metarTime": "2026-07-19T20:00:00.000Z",
      "taf": "",
      "tafTime": ""
    }
  }
}
