{
  "updated": "2026-02-03T10:00:00.000Z",
  "airports": {
    "KPOC": {
      "name": "Brackett Field",
      "metar": "",
      "metarTime": "",
      "taf": "",
      "tafTime": ""
    },
    "KCCB": {
      "name": "Cable Airport",
      "metar": "METAR KCCB 030955Z AUTO 07004KT 10SM CLR 14/01 A3018 RMK AO2",
      "metarTime": "2026-02-03T10:00:00.000Z",
      "taf": "",
      "tafTime": ""
    },
    "KRAL": {
      "name": "Riverside Municipal",
      "metar": "METAR KRAL 030953Z AUTO 00000KT 10SM CLR 10/07 A3018 RMK AO2 SLP209 T01000072",
      "metarTime": "2026-02-03T10:00:00.000Z",
      "taf": "",
      "tafTime": ""
    }
  }
}
