{
  "updated": "2026-05-26T21:15:00.000Z",
  "airports": {
    "KPOC": {
      "name": "Brackett Field",
      "metar": "METAR KPOC 262047Z 25006KT 10SM SCT045 BKN050 18/10 A2984",
      "metarTime": "2026-05-26T21:00:00.000Z",
      "taf": "",
      "tafTime": ""
    },
    "KCCB": {
      "name": "Cable Airport",
      "metar": "METAR KCCB 262115Z AUTO 24011KT 220V280 10SM FEW035 19/09 A2982 RMK AO2",
      "metarTime": "2026-05-26T21:15:00.000Z",
      "taf": "",
      "tafTime": ""
    },
    "KRAL": {
      "name": "Riverside Municipal",
      "metar": "METAR KRAL 262053Z 26014G20KT 10SM FEW038 SCT049 22/10 A2981 RMK AO2 SLP082 T02170100 58022",
      "metarTime": "2026-05-26T21:00:00.000Z",
      "taf": "",
      "tafTime": ""
    }
  }
}
