{
  "updated": "2026-06-11T15:00:00.000Z",
  "airports": {
    "KPOC": {
      "name": "Brackett Field",
      "metar": "METAR KPOC 111447Z 00000KT 7SM CLR 20/16 A2987",
      "metarTime": "2026-06-11T15:00:00.000Z",
      "taf": "",
      "tafTime": ""
    },
    "KCCB": {
      "name": "Cable Airport",
      "metar": "METAR KCCB 111455Z AUTO VRB04KT 8SM CLR 20/17 A2987 RMK AO2",
      "metarTime": "2026-06-11T15:00:00.000Z",
      "taf": "",
      "tafTime": ""
    },
    "KRAL": {
      "name": "Riverside Municipal",
      "metar": "METAR KRAL 111453Z 00000KT 10SM CLR 20/16 A2985 RMK AO2 SLP093 T02000156 53005",
      "metarTime": "2026-06-11T15:00:00.000Z",
      "taf": "",
      "tafTime": ""
    }
  }
}
