{
  "updated": "2026-07-18T05:35:00.000Z",
  "airports": {
    "KPOC": {
      "name": "Brackett Field",
      "metar": "",
      "metarTime": "",
      "taf": "",
      "tafTime": ""
    },
    "KCCB": {
      "name": "Cable Airport",
      "metar": "METAR KCCB 180535Z AUTO 28007KT 10SM 24/15 A3000 RMK AO2",
      "metarTime": "2026-07-18T05:35:00.000Z",
      "taf": "",
      "tafTime": ""
    },
    "KRAL": {
      "name": "Riverside Municipal",
      "metar": "METAR KRAL 180453Z AUTO 28004KT 10SM CLR 26/15 A2997 RMK AO2 SLP134 T02560150",
      "metarTime": "2026-07-18T05:00:00.000Z",
      "taf": "",
      "tafTime": ""
    }
  }
}
