{
  "updated": "2026-03-15T09:15:00.000Z",
  "airports": {
    "KPOC": {
      "name": "Brackett Field",
      "metar": "",
      "metarTime": "",
      "taf": "",
      "tafTime": ""
    },
    "KCCB": {
      "name": "Cable Airport",
      "metar": "METAR KCCB 150915Z AUTO 07003KT 10SM 16/06 A2997 RMK AO2",
      "metarTime": "2026-03-15T09:15:00.000Z",
      "taf": "",
      "tafTime": ""
    },
    "KRAL": {
      "name": "Riverside Municipal",
      "metar": "METAR KRAL 150853Z AUTO 00000KT 10SM CLR 15/06 A2997 RMK AO2 SLP135 T01500061 50002",
      "metarTime": "2026-03-15T09:00:00.000Z",
      "taf": "",
      "tafTime": ""
    }
  }
}
