{
  "updated": "2026-06-29T20:35:00.000Z",
  "airports": {
    "KPOC": {
      "name": "Brackett Field",
      "metar": "METAR KPOC 291947Z 28006KT 10SM BKN033 21/12 A2992",
      "metarTime": "2026-06-29T20:00:00.000Z",
      "taf": "",
      "tafTime": ""
    },
    "KCCB": {
      "name": "Cable Airport",
      "metar": "METAR KCCB 292035Z AUTO 25008KT 10SM CLR 21/12 A2991 RMK AO2",
      "metarTime": "2026-06-29T20:35:00.000Z",
      "taf": "",
      "tafTime": ""
    },
    "KRAL": {
      "name": "Riverside Municipal",
      "metar": "METAR KRAL 291953Z VRB05KT 10SM CLR 24/12 A2989 RMK AO2 SLP108 T02390117",
      "metarTime": "2026-06-29T20:00:00.000Z",
      "taf": "",
      "tafTime": ""
    }
  }
}
