{
  "updated": "2026-07-06T00:00:00.000Z",
  "airports": {
    "KPOC": {
      "name": "Brackett Field",
      "metar": "METAR KPOC 052347Z 26011KT 10SM CLR 30/14 A2993",
      "metarTime": "2026-07-06T00:00:00.000Z",
      "taf": "",
      "tafTime": ""
    },
    "KCCB": {
      "name": "Cable Airport",
      "metar": "METAR KCCB 052335Z AUTO 24013KT 10SM CLR 30/15 A2994 RMK AO2",
      "metarTime": "2026-07-05T23:35:00.000Z",
      "taf": "",
      "tafTime": ""
    },
    "KRAL": {
      "name": "Riverside Municipal",
      "metar": "METAR KRAL 052253Z 27014G23KT 10SM CLR 32/13 A2992 RMK AO2 SLP114 T03170133",
      "metarTime": "2026-07-05T23:00:00.000Z",
      "taf": "",
      "tafTime": ""
    }
  }
}
