{
  "updated": "2026-02-22T22:00:00.000Z",
  "airports": {
    "KPOC": {
      "name": "Brackett Field",
      "metar": "METAR KPOC 222147Z 20004KT 10SM CLR 23/M01 A3018",
      "metarTime": "2026-02-22T22:00:00.000Z",
      "taf": "",
      "tafTime": ""
    },
    "KCCB": {
      "name": "Cable Airport",
      "metar": "",
      "metarTime": "",
      "taf": "",
      "tafTime": ""
    },
    "KRAL": {
      "name": "Riverside Municipal",
      "metar": "METAR KRAL 222153Z VRB03KT 10SM CLR 25/M01 A3016 RMK AO2 SLP200 T02501006 $",
      "metarTime": "2026-02-22T22:00:00.000Z",
      "taf": "",
      "tafTime": ""
    }
  }
}
