{
  "updated": "2026-03-17T09:35:00.000Z",
  "airports": {
    "KPOC": {
      "name": "Brackett Field",
      "metar": "",
      "metarTime": "",
      "taf": "",
      "tafTime": ""
    },
    "KCCB": {
      "name": "Cable Airport",
      "metar": "METAR KCCB 170935Z AUTO 01005KT 10SM CLR 23/01 A2997 RMK AO2",
      "metarTime": "2026-03-17T09:35:00.000Z",
      "taf": "",
      "tafTime": ""
    },
    "KRAL": {
      "name": "Riverside Municipal",
      "metar": "METAR KRAL 170853Z AUTO 06003KT 10SM CLR 21/04 A2995 RMK AO2 SLP124 T02110039 58006",
      "metarTime": "2026-03-17T09:00:00.000Z",
      "taf": "",
      "tafTime": ""
    }
  }
}
