{
  "updated": "2026-06-07T13:00:00.000Z",
  "airports": {
    "KPOC": {
      "name": "Brackett Field",
      "metar": "",
      "metarTime": "",
      "taf": "",
      "tafTime": ""
    },
    "KCCB": {
      "name": "Cable Airport",
      "metar": "METAR KCCB 071255Z AUTO 00000KT 10SM OVC014 16/14 A2984 RMK AO2",
      "metarTime": "2026-06-07T13:00:00.000Z",
      "taf": "",
      "tafTime": ""
    },
    "KRAL": {
      "name": "Riverside Municipal",
      "metar": "METAR KRAL 071253Z AUTO 00000KT 10SM OVC016 17/13 A2983 RMK AO2 SLP087 T01720128",
      "metarTime": "2026-06-07T13:00:00.000Z",
      "taf": "",
      "tafTime": ""
    }
  }
}
