{
  "updated": "2026-04-11T22:00:00.000Z",
  "airports": {
    "KPOC": {
      "name": "Brackett Field",
      "metar": "METAR KPOC 112147Z 26606KT 10SM SCT046 21/08 A2997",
      "metarTime": "2026-04-11T22:00:00.000Z",
      "taf": "",
      "tafTime": ""
    },
    "KCCB": {
      "name": "Cable Airport",
      "metar": "METAR KCCB 112135Z AUTO 23010KT 10SM FEW050 20/07 A2997 RMK AO2",
      "metarTime": "2026-04-11T21:35:00.000Z",
      "taf": "",
      "tafTime": ""
    },
    "KRAL": {
      "name": "Riverside Municipal",
      "metar": "METAR KRAL 112053Z 27010G18KT 10SM FEW055 23/08 A2996 RMK AO2 SLP134 60000 T02280078 58021",
      "metarTime": "2026-04-11T21:00:00.000Z",
      "taf": "",
      "tafTime": ""
    }
  }
}
