{
  "updated": "2026-04-21T21:35:00.000Z",
  "airports": {
    "KPOC": {
      "name": "Brackett Field",
      "metar": "",
      "metarTime": "",
      "taf": "",
      "tafTime": ""
    },
    "KCCB": {
      "name": "Cable Airport",
      "metar": "METAR KCCB 212135Z AUTO 30010KT 6SM HZ BKN023 BKN027 15/12 A3006 RMK AO2",
      "metarTime": "2026-04-21T21:35:00.000Z",
      "taf": "",
      "tafTime": ""
    },
    "KRAL": {
      "name": "Riverside Municipal",
      "metar": "METAR KRAL 212053Z 29007G20KT 250V330 10SM BKN049 OVC060 21/10 A3002 RMK AO2 SLP155 T02060100 56008",
      "metarTime": "2026-04-21T21:00:00.000Z",
      "taf": "",
      "tafTime": ""
    }
  }
}
