{
  "updated": "2026-05-29T12:35:00.000Z",
  "airports": {
    "KPOC": {
      "name": "Brackett Field",
      "metar": "",
      "metarTime": "",
      "taf": "",
      "tafTime": ""
    },
    "KCCB": {
      "name": "Cable Airport",
      "metar": "METAR KCCB 291235Z AUTO 26005KT 10SM OVC041 13/11 A2996 RMK AO2",
      "metarTime": "2026-05-29T12:35:00.000Z",
      "taf": "",
      "tafTime": ""
    },
    "KRAL": {
      "name": "Riverside Municipal",
      "metar": "SPECI KRAL 291203Z AUTO 20005KT 10SM -RA SCT030 BKN038 OVC047 13/11 A2997 RMK AO2 P0000 T01280111",
      "metarTime": "2026-05-29T12:03:00.000Z",
      "taf": "",
      "tafTime": ""
    }
  }
}
