{
  "updated": "2026-04-24T09:00:00.000Z",
  "airports": {
    "KPOC": {
      "name": "Brackett Field",
      "metar": "",
      "metarTime": "",
      "taf": "",
      "tafTime": ""
    },
    "KCCB": {
      "name": "Cable Airport",
      "metar": "METAR KCCB 240835Z AUTO 00000KT 10SM 14/07 A2993 RMK AO2",
      "metarTime": "2026-04-24T08:35:00.000Z",
      "taf": "",
      "tafTime": ""
    },
    "KRAL": {
      "name": "Riverside Municipal",
      "metar": "METAR KRAL 240853Z AUTO 00000KT 10SM CLR 14/08 A2993 RMK AO2 SLP122 T01390083 58005",
      "metarTime": "2026-04-24T09:00:00.000Z",
      "taf": "",
      "tafTime": ""
    }
  }
}
