{
  "updated": "2026-03-22T23:35:00.000Z",
  "airports": {
    "KPOC": {
      "name": "Brackett Field",
      "metar": "METAR KPOC 222247Z 27008KT 10SM CLR 28/11 A2988",
      "metarTime": "2026-03-22T23:00:00.000Z",
      "taf": "",
      "tafTime": ""
    },
    "KCCB": {
      "name": "Cable Airport",
      "metar": "METAR KCCB 222335Z AUTO 27012KT 10SM CLR 27/07 A2988 RMK AO2",
      "metarTime": "2026-03-22T23:35:00.000Z",
      "taf": "",
      "tafTime": ""
    },
    "KRAL": {
      "name": "Riverside Municipal",
      "metar": "METAR KRAL 222253Z 27013G16KT 10SM CLR 30/09 A2985 RMK AO2 SLP092 T03000094",
      "metarTime": "2026-03-22T23:00:00.000Z",
      "taf": "",
      "tafTime": ""
    }
  }
}
