{
  "updated": "2026-04-09T08:00:00.000Z",
  "airports": {
    "KPOC": {
      "name": "Brackett Field",
      "metar": "",
      "metarTime": "",
      "taf": "",
      "tafTime": ""
    },
    "KCCB": {
      "name": "Cable Airport",
      "metar": "METAR KCCB 090735Z AUTO 28003KT 10SM BKN034 17/11 A2995 RMK AO2",
      "metarTime": "2026-04-09T07:35:00.000Z",
      "taf": "",
      "tafTime": ""
    },
    "KRAL": {
      "name": "Riverside Municipal",
      "metar": "METAR KRAL 090753Z AUTO 28004KT 10SM CLR 17/12 A2994 RMK AO2 SLP124 T01720117 402940133",
      "metarTime": "2026-04-09T08:00:00.000Z",
      "taf": "",
      "tafTime": ""
    }
  }
}
