{
  "updated": "2026-03-06T18:15:00.000Z",
  "airports": {
    "KPOC": {
      "name": "Brackett Field",
      "metar": "METAR KPOC 061747Z 14004KT 10SM CLR 19/M04 A3004",
      "metarTime": "2026-03-06T18:00:00.000Z",
      "taf": "",
      "tafTime": ""
    },
    "KCCB": {
      "name": "Cable Airport",
      "metar": "METAR KCCB 061815Z AUTO 24007KT 10SM CLR 18/M10 A3004 RMK AO2",
      "metarTime": "2026-03-06T18:15:00.000Z",
      "taf": "",
      "tafTime": ""
    },
    "KRAL": {
      "name": "Riverside Municipal",
      "metar": "METAR KRAL 061753Z 01010G23KT 10SM CLR 19/M07 A3005 RMK AO2 SLP164 T01891072 10189 20144 51007",
      "metarTime": "2026-03-06T18:00:00.000Z",
      "taf": "",
      "tafTime": ""
    }
  }
}
