{
  "updated": "2026-07-04T20:00:00.000Z",
  "airports": {
    "KPOC": {
      "name": "Brackett Field",
      "metar": "METAR KPOC 041947Z 26007KT 10SM CLR 28/14 A3004",
      "metarTime": "2026-07-04T20:00:00.000Z",
      "taf": "",
      "tafTime": ""
    },
    "KCCB": {
      "name": "Cable Airport",
      "metar": "METAR KCCB 041955Z AUTO 22005KT 10SM CLR 29/09 A3004 RMK AO2",
      "metarTime": "2026-07-04T20:00:00.000Z",
      "taf": "",
      "tafTime": ""
    },
    "KRAL": {
      "name": "Riverside Municipal",
      "metar": "METAR KRAL 041953Z VRB05KT 10SM CLR 33/05 A3000 RMK AO2 SLP142 T03330050",
      "metarTime": "2026-07-04T20:00:00.000Z",
      "taf": "",
      "tafTime": ""
    }
  }
}
