{
  "updated": "2026-04-01T23:00:00.000Z",
  "airports": {
    "KPOC": {
      "name": "Brackett Field",
      "metar": "METAR KPOC 012147Z 23009KT 10SM SCT060 21/08 A2997",
      "metarTime": "2026-04-01T22:00:00.000Z",
      "taf": "",
      "tafTime": ""
    },
    "KCCB": {
      "name": "Cable Airport",
      "metar": "METAR KCCB 012255Z AUTO 25012G17KT 10SM OVC048 20/08 A2995 RMK AO2",
      "metarTime": "2026-04-01T23:00:00.000Z",
      "taf": "",
      "tafTime": ""
    },
    "KRAL": {
      "name": "Riverside Municipal",
      "metar": "METAR KRAL 012253Z 25012G21KT 10SM CLR 23/05 A2994 RMK AO2 SLP125 T02280050",
      "metarTime": "2026-04-01T23:00:00.000Z",
      "taf": "",
      "tafTime": ""
    }
  }
}
