{
  "updated": "2026-02-09T22:00:00.000Z",
  "airports": {
    "KPOC": {
      "name": "Brackett Field",
      "metar": "METAR KPOC 092147Z 26006KT 10SM CLR 24/02 A2997",
      "metarTime": "2026-02-09T22:00:00.000Z",
      "taf": "",
      "tafTime": ""
    },
    "KCCB": {
      "name": "Cable Airport",
      "metar": "METAR KCCB 092155Z AUTO 26005KT 10SM CLR 24/M02 A2996 RMK AO2",
      "metarTime": "2026-02-09T22:00:00.000Z",
      "taf": "",
      "tafTime": ""
    },
    "KRAL": {
      "name": "Riverside Municipal",
      "metar": "METAR KRAL 092153Z 27008KT 10SM CLR 26/01 A2995 RMK AO2 SLP129 T02560006 $",
      "metarTime": "2026-02-09T22:00:00.000Z",
      "taf": "",
      "tafTime": ""
    }
  }
}
