{
  "updated": "2026-04-05T17:00:00.000Z",
  "airports": {
    "KPOC": {
      "name": "Brackett Field",
      "metar": "METAR KPOC 051647Z 00000KT 10SM CLR 23/M05 A3002",
      "metarTime": "2026-04-05T17:00:00.000Z",
      "taf": "",
      "tafTime": ""
    },
    "KCCB": {
      "name": "Cable Airport",
      "metar": "METAR KCCB 051655Z AUTO 25004KT 10SM CLR 23/M10 A3002 RMK AO2",
      "metarTime": "2026-04-05T17:00:00.000Z",
      "taf": "",
      "tafTime": ""
    },
    "KRAL": {
      "name": "Riverside Municipal",
      "metar": "METAR KRAL 051653Z 00000KT 10SM CLR 23/01 A3001 RMK AO2 SLP147 T02330011",
      "metarTime": "2026-04-05T17:00:00.000Z",
      "taf": "",
      "tafTime": ""
    }
  }
}
