{
  "updated": "2026-03-01T05:00:00.000Z",
  "airports": {
    "KPOC": {
      "name": "Brackett Field",
      "metar": "",
      "metarTime": "",
      "taf": "",
      "tafTime": ""
    },
    "KCCB": {
      "name": "Cable Airport",
      "metar": "METAR KCCB 010455Z AUTO 31006KT 10SM CLR 22/08 A2995 RMK AO2",
      "metarTime": "2026-03-01T05:00:00.000Z",
      "taf": "",
      "tafTime": ""
    },
    "KRAL": {
      "name": "Riverside Municipal",
      "metar": "METAR KRAL 010453Z AUTO 00000KT 10SM CLR 21/07 A2994 RMK AO2 SLP125 T02060067",
      "metarTime": "2026-03-01T05:00:00.000Z",
      "taf": "",
      "tafTime": ""
    }
  }
}
