{
  "updated": "2026-05-27T23:00:00.000Z",
  "airports": {
    "KPOC": {
      "name": "Brackett Field",
      "metar": "METAR KPOC 272247Z 22013G19KT 10SM BKN030 18/07 A2985",
      "metarTime": "2026-05-27T23:00:00.000Z",
      "taf": "",
      "tafTime": ""
    },
    "KCCB": {
      "name": "Cable Airport",
      "metar": "METAR KCCB 272255Z AUTO 23011G17KT 10SM FEW036 SCT044 BKN050 17/07 A2984 RMK AO2",
      "metarTime": "2026-05-27T23:00:00.000Z",
      "taf": "",
      "tafTime": ""
    },
    "KRAL": {
      "name": "Riverside Municipal",
      "metar": "METAR KRAL 272253Z 21006G16KT 10SM BKN060 19/04 A2982 RMK AO2 SLP085 T01940039",
      "metarTime": "2026-05-27T23:00:00.000Z",
      "taf": "",
      "tafTime": ""
    }
  }
}
