{
  "updated": "2026-07-21T11:35:00.000Z",
  "airports": {
    "KPOC": {
      "name": "Brackett Field",
      "metar": "",
      "metarTime": "",
      "taf": "",
      "tafTime": ""
    },
    "KCCB": {
      "name": "Cable Airport",
      "metar": "METAR KCCB 211135Z AUTO 27004KT 8SM 21/14 A2997 RMK AO2",
      "metarTime": "2026-07-21T11:35:00.000Z",
      "taf": "",
      "tafTime": ""
    },
    "KRAL": {
      "name": "Riverside Municipal",
      "metar": "METAR KRAL 211053Z AUTO 00000KT 10SM CLR 22/14 A2994 RMK AO2 SLP122 T02170144",
      "metarTime": "2026-07-21T11:00:00.000Z",
      "taf": "",
      "tafTime": ""
    }
  }
}
