{
  "updated": "2026-02-26T23:00:00.000Z",
  "airports": {
    "KPOC": {
      "name": "Brackett Field",
      "metar": "METAR KPOC 262247Z 24004KT 10SM CLR 28/13 A3000",
      "metarTime": "2026-02-26T23:00:00.000Z",
      "taf": "",
      "tafTime": ""
    },
    "KCCB": {
      "name": "Cable Airport",
      "metar": "METAR KCCB 262235Z AUTO 25004KT 7SM CLR 28/10 A3001 RMK AO2",
      "metarTime": "2026-02-26T22:35:00.000Z",
      "taf": "",
      "tafTime": ""
    },
    "KRAL": {
      "name": "Riverside Municipal",
      "metar": "METAR KRAL 262253Z 29006KT 10SM CLR 29/12 A2997 RMK AO2 SLP134 T02940122",
      "metarTime": "2026-02-26T23:00:00.000Z",
      "taf": "",
      "tafTime": ""
    }
  }
}
