{
  "updated": "2026-02-04T14:15:00.000Z",
  "airports": {
    "KPOC": {
      "name": "Brackett Field",
      "metar": "",
      "metarTime": "",
      "taf": "",
      "tafTime": ""
    },
    "KCCB": {
      "name": "Cable Airport",
      "metar": "METAR KCCB 041415Z AUTO 30004KT 10SM CLR 18/M08 A3017 RMK AO2",
      "metarTime": "2026-02-04T14:15:00.000Z",
      "taf": "",
      "tafTime": ""
    },
    "KRAL": {
      "name": "Riverside Municipal",
      "metar": "METAR KRAL 041353Z AUTO 05006KT 10SM CLR 21/M07 A3018 RMK AO2 SLP203 T02111072",
      "metarTime": "2026-02-04T14:00:00.000Z",
      "taf": "",
      "tafTime": ""
    }
  }
}
