{
  "updated": "2026-04-19T10:15:00.000Z",
  "airports": {
    "KPOC": {
      "name": "Brackett Field",
      "metar": "",
      "metarTime": "",
      "taf": "",
      "tafTime": ""
    },
    "KCCB": {
      "name": "Cable Airport",
      "metar": "METAR KCCB 191015Z AUTO 05004KT 10SM CLR 17/03 A2991 RMK AO2",
      "metarTime": "2026-04-19T10:15:00.000Z",
      "taf": "",
      "tafTime": ""
    },
    "KRAL": {
      "name": "Riverside Municipal",
      "metar": "METAR KRAL 190953Z AUTO 08003KT 10SM CLR 15/08 A2991 RMK AO2 SLP113 T01500078",
      "metarTime": "2026-04-19T10:00:00.000Z",
      "taf": "",
      "tafTime": ""
    }
  }
}
