{
  "updated": "2026-04-21T08:00:00.000Z",
  "airports": {
    "KPOC": {
      "name": "Brackett Field",
      "metar": "",
      "metarTime": "",
      "taf": "",
      "tafTime": ""
    },
    "KCCB": {
      "name": "Cable Airport",
      "metar": "METAR KCCB 210755Z AUTO 00000KT 10SM 13/08 A3003 RMK AO2",
      "metarTime": "2026-04-21T08:00:00.000Z",
      "taf": "",
      "tafTime": ""
    },
    "KRAL": {
      "name": "Riverside Municipal",
      "metar": "METAR KRAL 210753Z AUTO 00000KT 10SM CLR 14/10 A3004 RMK AO2 SLP157 T01440100 402720117",
      "metarTime": "2026-04-21T08:00:00.000Z",
      "taf": "",
      "tafTime": ""
    }
  }
}
