{
  "updated": "2026-05-09T01:35:00.000Z",
  "airports": {
    "KPOC": {
      "name": "Brackett Field",
      "metar": "METAR KPOC 090047Z 24010KT 10SM 26/14 A2992",
      "metarTime": "2026-05-09T01:00:00.000Z",
      "taf": "",
      "tafTime": ""
    },
    "KCCB": {
      "name": "Cable Airport",
      "metar": "METAR KCCB 090135Z AUTO 26010KT 10SM CLR 24/13 A2992 RMK AO2",
      "metarTime": "2026-05-09T01:35:00.000Z",
      "taf": "",
      "tafTime": ""
    },
    "KRAL": {
      "name": "Riverside Municipal",
      "metar": "METAR KRAL 090053Z 27012KT 10SM CLR 27/13 A2989 RMK AO2 SLP109 T02670133",
      "metarTime": "2026-05-09T01:00:00.000Z",
      "taf": "",
      "tafTime": ""
    }
  }
}
