{
  "updated": "2026-04-25T04:00:00.000Z",
  "airports": {
    "KPOC": {
      "name": "Brackett Field",
      "metar": "METAR KPOC 250347Z 25005KT 10SM CLR 15/12 A2990 RMK LAST",
      "metarTime": "2026-04-25T04:00:00.000Z",
      "taf": "",
      "tafTime": ""
    },
    "KCCB": {
      "name": "Cable Airport",
      "metar": "METAR KCCB 250355Z AUTO 25010KT 10SM 15/13 A2989 RMK AO2",
      "metarTime": "2026-04-25T04:00:00.000Z",
      "taf": "",
      "tafTime": ""
    },
    "KRAL": {
      "name": "Riverside Municipal",
      "metar": "METAR KRAL 250353Z VRB03KT 10SM CLR 15/11 A2988 RMK AO2 SLP107 T01500106",
      "metarTime": "2026-04-25T04:00:00.000Z",
      "taf": "",
      "tafTime": ""
    }
  }
}
