{
  "updated": "2026-05-12T23:15:00.000Z",
  "airports": {
    "KPOC": {
      "name": "Brackett Field",
      "metar": "METAR KPOC 122247Z 26010KT 10SM CLR 21/12 A3001",
      "metarTime": "2026-05-12T23:00:00.000Z",
      "taf": "",
      "tafTime": ""
    },
    "KCCB": {
      "name": "Cable Airport",
      "metar": "METAR KCCB 122315Z AUTO 26012G19KT 10SM CLR 21/12 A3000 RMK AO2",
      "metarTime": "2026-05-12T23:15:00.000Z",
      "taf": "",
      "tafTime": ""
    },
    "KRAL": {
      "name": "Riverside Municipal",
      "metar": "METAR KRAL 122253Z 28011G23KT 10SM CLR 23/13 A2998 RMK AO2 SLP139 T02330128",
      "metarTime": "2026-05-12T23:00:00.000Z",
      "taf": "",
      "tafTime": ""
    }
  }
}
