{
  "updated": "2026-02-23T21:15:00.000Z",
  "airports": {
    "KPOC": {
      "name": "Brackett Field",
      "metar": "",
      "metarTime": "",
      "taf": "",
      "tafTime": ""
    },
    "KCCB": {
      "name": "Cable Airport",
      "metar": "METAR KCCB 232115Z AUTO 22004KT 10SM CLR 25/M06 A3015 RMK AO2",
      "metarTime": "2026-02-23T21:15:00.000Z",
      "taf": "",
      "tafTime": ""
    },
    "KRAL": {
      "name": "Riverside Municipal",
      "metar": "METAR KRAL 232053Z VRB04KT 10SM CLR 26/03 A3013 RMK AO2 SLP192 T02610033 58015",
      "metarTime": "2026-02-23T21:00:00.000Z",
      "taf": "",
      "tafTime": ""
    }
  }
}
