{
  "updated": "2026-03-27T21:00:00.000Z",
  "airports": {
    "KPOC": {
      "name": "Brackett Field",
      "metar": "METAR KPOC 272047Z 26009KT 6SM HZ CLR 27/13 A2995",
      "metarTime": "2026-03-27T21:00:00.000Z",
      "taf": "",
      "tafTime": ""
    },
    "KCCB": {
      "name": "Cable Airport",
      "metar": "METAR KCCB 272055Z AUTO 26011KT 7SM CLR 28/11 A2996 RMK AO2",
      "metarTime": "2026-03-27T21:00:00.000Z",
      "taf": "",
      "tafTime": ""
    },
    "KRAL": {
      "name": "Riverside Municipal",
      "metar": "METAR KRAL 272053Z 19006KT 10SM CLR 31/12 A2991 RMK AO2 SLP114 T03110122 56018",
      "metarTime": "2026-03-27T21:00:00.000Z",
      "taf": "",
      "tafTime": ""
    }
  }
}
