{
  "updated": "2026-05-07T01:35:00.000Z",
  "airports": {
    "KPOC": {
      "name": "Brackett Field",
      "metar": "METAR KPOC 070047Z 27008KT 10SM CLR 22/11 A3000",
      "metarTime": "2026-05-07T01:00:00.000Z",
      "taf": "",
      "tafTime": ""
    },
    "KCCB": {
      "name": "Cable Airport",
      "metar": "METAR KCCB 070135Z AUTO 25011KT 10SM CLR 21/11 A3000 RMK AO2",
      "metarTime": "2026-05-07T01:35:00.000Z",
      "taf": "",
      "tafTime": ""
    },
    "KRAL": {
      "name": "Riverside Municipal",
      "metar": "METAR KRAL 070053Z 26013G20KT 10SM CLR 23/10 A2998 RMK AO2 SLP139 T02330100",
      "metarTime": "2026-05-07T01:00:00.000Z",
      "taf": "",
      "tafTime": ""
    }
  }
}
