{
  "updated": "2026-06-29T00:00:00.000Z",
  "airports": {
    "KPOC": {
      "name": "Brackett Field",
      "metar": "METAR KPOC 282247Z 26010G15KT 10SM SCT045 22/12 A2988",
      "metarTime": "2026-06-28T23:00:00.000Z",
      "taf": "",
      "tafTime": ""
    },
    "KCCB": {
      "name": "Cable Airport",
      "metar": "METAR KCCB 282335Z AUTO 29010KT 7SM FEW035 22/11 A2986 RMK AO2",
      "metarTime": "2026-06-28T23:35:00.000Z",
      "taf": "",
      "tafTime": ""
    },
    "KRAL": {
      "name": "Riverside Municipal",
      "metar": "METAR KRAL 282353Z 27010G19KT 10SM CLR 24/11 A2983 RMK AO2 SLP087 T02440111 10261 20211 56016",
      "metarTime": "2026-06-29T00:00:00.000Z",
      "taf": "",
      "tafTime": ""
    }
  }
}
