{
  "updated": "2026-05-01T22:35:00.000Z",
  "airports": {
    "KPOC": {
      "name": "Brackett Field",
      "metar": "METAR KPOC 012147Z 24008KT 10SM CLR 23/12 A2992",
      "metarTime": "2026-05-01T22:00:00.000Z",
      "taf": "",
      "tafTime": ""
    },
    "KCCB": {
      "name": "Cable Airport",
      "metar": "METAR KCCB 012235Z AUTO 27012G17KT 10SM CLR 25/10 A2989 RMK AO2",
      "metarTime": "2026-05-01T22:35:00.000Z",
      "taf": "",
      "tafTime": ""
    },
    "KRAL": {
      "name": "Riverside Municipal",
      "metar": "METAR KRAL 012153Z 28005KT 10SM CLR 27/13 A2989 RMK AO2 SLP106 T02670128",
      "metarTime": "2026-05-01T22:00:00.000Z",
      "taf": "",
      "tafTime": ""
    }
  }
}
