{
  "updated": "2026-02-22T22:35:00.000Z",
  "airports": {
    "KPOC": {
      "name": "Brackett Field",
      "metar": "",
      "metarTime": "",
      "taf": "",
      "tafTime": ""
    },
    "KCCB": {
      "name": "Cable Airport",
      "metar": "METAR KCCB 222235Z AUTO 11006KT 10SM CLR 24/M05 A3017 RMK AO2",
      "metarTime": "2026-02-22T22:35:00.000Z",
      "taf": "",
      "tafTime": ""
    },
    "KRAL": {
      "name": "Riverside Municipal",
      "metar": "",
      "metarTime": "",
      "taf": "",
      "tafTime": ""
    }
  }
}
