{
  "updated": "2026-06-10T21:15:00.000Z",
  "airports": {
    "KPOC": {
      "name": "Brackett Field",
      "metar": "METAR KPOC 102047Z 27009G14KT 10SM CLR 31/15 A2983",
      "metarTime": "2026-06-10T21:00:00.000Z",
      "taf": "",
      "tafTime": ""
    },
    "KCCB": {
      "name": "Cable Airport",
      "metar": "METAR KCCB 102115Z AUTO 28013KT 9SM CLR 31/13 A2983 RMK AO2",
      "metarTime": "2026-06-10T21:15:00.000Z",
      "taf": "",
      "tafTime": ""
    },
    "KRAL": {
      "name": "Riverside Municipal",
      "metar": "METAR KRAL 102053Z 28011G18KT 10SM CLR 33/15 A2979 RMK AO2 SLP071 T03330150 58015",
      "metarTime": "2026-06-10T21:00:00.000Z",
      "taf": "",
      "tafTime": ""
    }
  }
}
