{
  "updated": "2026-03-31T14:15:00.000Z",
  "airports": {
    "KPOC": {
      "name": "Brackett Field",
      "metar": "METAR KPOC 311347Z 00000KT 03SM OVC013 17/16 A2997 BR",
      "metarTime": "2026-03-31T14:00:00.000Z",
      "taf": "",
      "tafTime": ""
    },
    "KCCB": {
      "name": "Cable Airport",
      "metar": "METAR KCCB 311415Z AUTO 05004KT 7SM BKN009 16/16 A2996 RMK AO2",
      "metarTime": "2026-03-31T14:15:00.000Z",
      "taf": "",
      "tafTime": ""
    },
    "KRAL": {
      "name": "Riverside Municipal",
      "metar": "METAR KRAL 311353Z AUTO 00000KT 10SM OVC013 17/14 A2998 RMK AO2 SLP139 T01670144",
      "metarTime": "2026-03-31T14:00:00.000Z",
      "taf": "",
      "tafTime": ""
    }
  }
}
