{
  "updated": "2026-02-28T10:00:00.000Z",
  "airports": {
    "KPOC": {
      "name": "Brackett Field",
      "metar": "",
      "metarTime": "",
      "taf": "",
      "tafTime": ""
    },
    "KCCB": {
      "name": "Cable Airport",
      "metar": "METAR KCCB 280955Z AUTO 00000KT 10SM CLR 21/04 A2993 RMK AO2",
      "metarTime": "2026-02-28T10:00:00.000Z",
      "taf": "",
      "tafTime": ""
    },
    "KRAL": {
      "name": "Riverside Municipal",
      "metar": "METAR KRAL 280953Z AUTO 05004KT 10SM CLR 18/09 A2992 RMK AO2 SLP115 T01830089",
      "metarTime": "2026-02-28T10:00:00.000Z",
      "taf": "",
      "tafTime": ""
    }
  }
}
