{
  "updated": "2026-03-09T23:00:00.000Z",
  "airports": {
    "KPOC": {
      "name": "Brackett Field",
      "metar": "METAR KPOC 092247Z 26005KT 10SM CLR 23/07 A2986",
      "metarTime": "2026-03-09T23:00:00.000Z",
      "taf": "",
      "tafTime": ""
    },
    "KCCB": {
      "name": "Cable Airport",
      "metar": "METAR KCCB 092255Z AUTO 26010KT 10SM CLR 22/05 A2985 RMK AO2",
      "metarTime": "2026-03-09T23:00:00.000Z",
      "taf": "",
      "tafTime": ""
    },
    "KRAL": {
      "name": "Riverside Municipal",
      "metar": "METAR KRAL 092253Z 20004KT 10SM CLR 24/06 A2984 RMK AO2 SLP091 T02390056",
      "metarTime": "2026-03-09T23:00:00.000Z",
      "taf": "",
      "tafTime": ""
    }
  }
}
