{
  "updated": "2026-04-01T12:35:00.000Z",
  "airports": {
    "KPOC": {
      "name": "Brackett Field",
      "metar": "",
      "metarTime": "",
      "taf": "",
      "tafTime": ""
    },
    "KCCB": {
      "name": "Cable Airport",
      "metar": "METAR KCCB 011235Z AUTO 27008KT 10SM SCT018 SCT023 BKN050 13/13 A2993 RMK AO2",
      "metarTime": "2026-04-01T12:35:00.000Z",
      "taf": "",
      "tafTime": ""
    },
    "KRAL": {
      "name": "Riverside Municipal",
      "metar": "SPECI KRAL 011229Z AUTO 23003KT 10SM FEW010 BKN022 OVC029 15/14 A2994 RMK AO2 T01500139",
      "metarTime": "2026-04-01T12:29:00.000Z",
      "taf": "",
      "tafTime": ""
    }
  }
}
