{
  "updated": "2026-03-19T01:00:00.000Z",
  "airports": {
    "KPOC": {
      "name": "Brackett Field",
      "metar": "METAR KPOC 190047Z 24009KT 10SM CLR 33/09 A3000",
      "metarTime": "2026-03-19T01:00:00.000Z",
      "taf": "",
      "tafTime": ""
    },
    "KCCB": {
      "name": "Cable Airport",
      "metar": "METAR KCCB 190055Z AUTO 25009KT 10SM CLR 33/07 A3000 RMK AO2",
      "metarTime": "2026-03-19T01:00:00.000Z",
      "taf": "",
      "tafTime": ""
    },
    "KRAL": {
      "name": "Riverside Municipal",
      "metar": "METAR KRAL 190053Z 26009KT 10SM CLR 33/11 A2997 RMK AO2 SLP132 T03330111",
      "metarTime": "2026-03-19T01:00:00.000Z",
      "taf": "",
      "tafTime": ""
    }
  }
}
