{
  "updated": "2026-02-15T12:15:00.000Z",
  "airports": {
    "KPOC": {
      "name": "Brackett Field",
      "metar": "",
      "metarTime": "",
      "taf": "",
      "tafTime": ""
    },
    "KCCB": {
      "name": "Cable Airport",
      "metar": "METAR KCCB 151215Z AUTO 30005KT 10SM 11/11 A3002 RMK AO2",
      "metarTime": "2026-02-15T12:15:00.000Z",
      "taf": "",
      "tafTime": ""
    },
    "KRAL": {
      "name": "Riverside Municipal",
      "metar": "METAR KRAL 151153Z AUTO 00000KT 10SM OVC014 11/09 A3003 RMK AO2 SLP157 T01110094 10128 20094 58009",
      "metarTime": "2026-02-15T12:00:00.000Z",
      "taf": "",
      "tafTime": ""
    }
  }
}
