{
  "updated": "2026-05-24T09:00:00.000Z",
  "airports": {
    "KPOC": {
      "name": "Brackett Field",
      "metar": "",
      "metarTime": "",
      "taf": "",
      "tafTime": ""
    },
    "KCCB": {
      "name": "Cable Airport",
      "metar": "METAR KCCB 240855Z AUTO 27003KT 8SM OVC009 14/14 A3000 RMK AO2",
      "metarTime": "2026-05-24T09:00:00.000Z",
      "taf": "",
      "tafTime": ""
    },
    "KRAL": {
      "name": "Riverside Municipal",
      "metar": "METAR KRAL 240853Z AUTO VRB03KT 10SM OVC015 16/12 A3000 RMK AO2 SLP146 T01610122 58004",
      "metarTime": "2026-05-24T09:00:00.000Z",
      "taf": "",
      "tafTime": ""
    }
  }
}
