{
  "updated": "2026-02-20T09:00:00.000Z",
  "airports": {
    "KPOC": {
      "name": "Brackett Field",
      "metar": "",
      "metarTime": "",
      "taf": "",
      "tafTime": ""
    },
    "KCCB": {
      "name": "Cable Airport",
      "metar": "METAR KCCB 200855Z AUTO 01003KT 10SM CLR 05/05 A2991 RMK AO2",
      "metarTime": "2026-02-20T09:00:00.000Z",
      "taf": "",
      "tafTime": ""
    },
    "KRAL": {
      "name": "Riverside Municipal",
      "metar": "METAR KRAL 200853Z AUTO 22003KT 10SM CLR 07/03 A2994 RMK AO2 SLP130 T00720033 53014",
      "metarTime": "2026-02-20T09:00:00.000Z",
      "taf": "",
      "tafTime": ""
    }
  }
}
