{
  "updated": "2026-03-22T15:35:00.000Z",
  "airports": {
    "KPOC": {
      "name": "Brackett Field",
      "metar": "METAR KPOC 221447Z 27005KT 10SM CLR 15/14 A2993",
      "metarTime": "2026-03-22T15:00:00.000Z",
      "taf": "",
      "tafTime": ""
    },
    "KCCB": {
      "name": "Cable Airport",
      "metar": "METAR KCCB 221535Z AUTO 00000KT 10SM CLR 20/10 A2994 RMK AO2",
      "metarTime": "2026-03-22T15:35:00.000Z",
      "taf": "",
      "tafTime": ""
    },
    "KRAL": {
      "name": "Riverside Municipal",
      "metar": "METAR KRAL 221453Z 00000KT 10SM CLR 16/10 A2991 RMK AO2 SLP116 T01560100 53012",
      "metarTime": "2026-03-22T15:00:00.000Z",
      "taf": "",
      "tafTime": ""
    }
  }
}
