{
  "updated": "2026-02-20T21:00:00.000Z",
  "airports": {
    "KPOC": {
      "name": "Brackett Field",
      "metar": "METAR KPOC 202047Z VRB05KT 10SM CLR 12/02 A3002",
      "metarTime": "2026-02-20T21:00:00.000Z",
      "taf": "",
      "tafTime": ""
    },
    "KCCB": {
      "name": "Cable Airport",
      "metar": "METAR KCCB 202055Z AUTO VRB05G12KT 10SM FEW039 12/01 A3000 RMK AO2",
      "metarTime": "2026-02-20T21:00:00.000Z",
      "taf": "",
      "tafTime": ""
    },
    "KRAL": {
      "name": "Riverside Municipal",
      "metar": "METAR KRAL 202053Z 13006KT 10SM CLR 13/00 A3001 RMK AO2 SLP156 T01330000 58004",
      "metarTime": "2026-02-20T21:00:00.000Z",
      "taf": "",
      "tafTime": ""
    }
  }
}
