{
  "updated": "2026-04-02T17:35:00.000Z",
  "airports": {
    "KPOC": {
      "name": "Brackett Field",
      "metar": "METAR KPOC 021647Z 25005KT 10SM BKN035 15/11 A3001",
      "metarTime": "2026-04-02T17:00:00.000Z",
      "taf": "",
      "tafTime": ""
    },
    "KCCB": {
      "name": "Cable Airport",
      "metar": "METAR KCCB 021735Z AUTO 27006KT 10SM SCT023 BKN035 OVC041 14/12 A3001 RMK AO2",
      "metarTime": "2026-04-02T17:35:00.000Z",
      "taf": "",
      "tafTime": ""
    },
    "KRAL": {
      "name": "Riverside Municipal",
      "metar": "METAR KRAL 021653Z 22004KT 10SM FEW019 16/11 A3001 RMK AO2 SLP150 T01610106",
      "metarTime": "2026-04-02T17:00:00.000Z",
      "taf": "",
      "tafTime": ""
    }
  }
}
