{
  "updated": "2026-07-21T17:00:00.000Z",
  "airports": {
    "KPOC": {
      "name": "Brackett Field",
      "metar": "METAR KPOC 211647Z 29003KT 10SM CLR 26/12 A3003",
      "metarTime": "2026-07-21T17:00:00.000Z",
      "taf": "",
      "tafTime": ""
    },
    "KCCB": {
      "name": "Cable Airport",
      "metar": "METAR KCCB 211635Z AUTO 00000KT 9SM CLR 24/11 A3003 RMK AO2",
      "metarTime": "2026-07-21T16:35:00.000Z",
      "taf": "",
      "tafTime": ""
    },
    "KRAL": {
      "name": "Riverside Municipal",
      "metar": "METAR KRAL 211553Z 26003KT 10SM CLR 24/14 A3002 RMK AO2 SLP149 T02390144",
      "metarTime": "2026-07-21T16:00:00.000Z",
      "taf": "",
      "tafTime": ""
    }
  }
}
