{
  "updated": "2026-03-22T20:00:00.000Z",
  "airports": {
    "KPOC": {
      "name": "Brackett Field",
      "metar": "METAR KPOC 221847Z VRB03KT 10SM CLR 26/10 A2993",
      "metarTime": "2026-03-22T19:00:00.000Z",
      "taf": "",
      "tafTime": ""
    },
    "KCCB": {
      "name": "Cable Airport",
      "metar": "METAR KCCB 221955Z AUTO VRB06KT 10SM CLR 27/08 A2992 RMK AO2",
      "metarTime": "2026-03-22T20:00:00.000Z",
      "taf": "",
      "tafTime": ""
    },
    "KRAL": {
      "name": "Riverside Municipal",
      "metar": "METAR KRAL 221953Z 28006KT 10SM CLR 29/09 A2989 RMK AO2 SLP107 T02940089",
      "metarTime": "2026-03-22T20:00:00.000Z",
      "taf": "",
      "tafTime": ""
    }
  }
}
