{
  "updated": "2026-03-13T19:00:00.000Z",
  "airports": {
    "KPOC": {
      "name": "Brackett Field",
      "metar": "METAR KPOC 131847Z 00000KT 10SM CLR 29/01 A3003",
      "metarTime": "2026-03-13T19:00:00.000Z",
      "taf": "",
      "tafTime": ""
    },
    "KCCB": {
      "name": "Cable Airport",
      "metar": "METAR KCCB 131855Z AUTO 25005KT 10SM CLR 29/M03 A3003 RMK AO2",
      "metarTime": "2026-03-13T19:00:00.000Z",
      "taf": "",
      "tafTime": ""
    },
    "KRAL": {
      "name": "Riverside Municipal",
      "metar": "METAR KRAL 131853Z 00000KT 10SM CLR 32/M02 A3000 RMK AO2 SLP142 T03171017",
      "metarTime": "2026-03-13T19:00:00.000Z",
      "taf": "",
      "tafTime": ""
    }
  }
}
