{
  "updated": "2026-04-15T20:00:00.000Z",
  "airports": {
    "KPOC": {
      "name": "Brackett Field",
      "metar": "METAR KPOC 151947Z 27010G16KT 10SM CLR 22/08 A3003",
      "metarTime": "2026-04-15T20:00:00.000Z",
      "taf": "",
      "tafTime": ""
    },
    "KCCB": {
      "name": "Cable Airport",
      "metar": "METAR KCCB 151935Z AUTO 23007KT 10SM CLR 21/07 A3003 RMK AO2",
      "metarTime": "2026-04-15T19:35:00.000Z",
      "taf": "",
      "tafTime": ""
    },
    "KRAL": {
      "name": "Riverside Municipal",
      "metar": "METAR KRAL 151953Z VRB06KT 10SM CLR 24/06 A3001 RMK AO2 SLP148 T02390056",
      "metarTime": "2026-04-15T20:00:00.000Z",
      "taf": "",
      "tafTime": ""
    }
  }
}
