{
  "updated": "2026-05-16T20:15:00.000Z",
  "airports": {
    "KPOC": {
      "name": "Brackett Field",
      "metar": "METAR KPOC 161947Z 00000KT 10SM OVC040 20/12 A2991",
      "metarTime": "2026-05-16T20:00:00.000Z",
      "taf": "",
      "tafTime": ""
    },
    "KCCB": {
      "name": "Cable Airport",
      "metar": "METAR KCCB 162015Z AUTO 26008G13KT 10SM OVC036 20/11 A2990 RMK AO2",
      "metarTime": "2026-05-16T20:15:00.000Z",
      "taf": "",
      "tafTime": ""
    },
    "KRAL": {
      "name": "Riverside Municipal",
      "metar": "METAR KRAL 161953Z 29007KT 270V330 10SM FEW038 BKN047 22/11 A2989 RMK AO2 SLP109 T02220106",
      "metarTime": "2026-05-16T20:00:00.000Z",
      "taf": "",
      "tafTime": ""
    }
  }
}
