{
  "updated": "2026-04-04T03:35:00.000Z",
  "airports": {
    "KPOC": {
      "name": "Brackett Field",
      "metar": "METAR KPOC 040247Z 36006KT 10SM CLR 23/M09 A3002",
      "metarTime": "2026-04-04T03:00:00.000Z",
      "taf": "",
      "tafTime": ""
    },
    "KCCB": {
      "name": "Cable Airport",
      "metar": "METAR KCCB 040335Z AUTO VRB05KT 10SM CLR 22/M13 A3003 RMK AO2",
      "metarTime": "2026-04-04T03:35:00.000Z",
      "taf": "",
      "tafTime": ""
    },
    "KRAL": {
      "name": "Riverside Municipal",
      "metar": "METAR KRAL 040253Z 02010G20KT 10SM CLR 22/M14 A3003 RMK AO2 SLP155 T02221144 53016",
      "metarTime": "2026-04-04T03:00:00.000Z",
      "taf": "",
      "tafTime": ""
    }
  }
}
