{
  "updated": "2026-02-07T21:00:00.000Z",
  "airports": {
    "KPOC": {
      "name": "Brackett Field",
      "metar": "METAR KPOC 072047Z 27007KT 10SM CLR 22/09 A3015",
      "metarTime": "2026-02-07T21:00:00.000Z",
      "taf": "",
      "tafTime": ""
    },
    "KCCB": {
      "name": "Cable Airport",
      "metar": "METAR KCCB 072055Z AUTO 25009KT 10SM CLR 22/06 A3014 RMK AO2",
      "metarTime": "2026-02-07T21:00:00.000Z",
      "taf": "",
      "tafTime": ""
    },
    "KRAL": {
      "name": "Riverside Municipal",
      "metar": "METAR KRAL 072053Z VRB05G17KT 10SM CLR 27/03 A3011 RMK AO2 SLP183 T02670028 58030",
      "metarTime": "2026-02-07T21:00:00.000Z",
      "taf": "",
      "tafTime": ""
    }
  }
}
