{
  "updated": "2026-04-03T18:00:00.000Z",
  "airports": {
    "KPOC": {
      "name": "Brackett Field",
      "metar": "METAR KPOC 031647Z 24003KT 10SM CLR 17/11 A3003",
      "metarTime": "2026-04-03T17:00:00.000Z",
      "taf": "",
      "tafTime": ""
    },
    "KCCB": {
      "name": "Cable Airport",
      "metar": "METAR KCCB 031735Z AUTO 29004G11KT 10SM CLR 18/09 A3003 RMK AO2",
      "metarTime": "2026-04-03T17:35:00.000Z",
      "taf": "",
      "tafTime": ""
    },
    "KRAL": {
      "name": "Riverside Municipal",
      "metar": "METAR KRAL 031753Z 02017G34KT 10SM CLR 22/M06 A3003 RMK AO2 PK WND 02036/1737 SLP156 T02221061 10228 20106 52012",
      "metarTime": "2026-04-03T18:00:00.000Z",
      "taf": "",
      "tafTime": ""
    }
  }
}
