{
  "updated": "2026-03-18T04:00:00.000Z",
  "airports": {
    "KPOC": {
      "name": "Brackett Field",
      "metar": "METAR KPOC 180247Z 26005KT 10SM CLR 28/07 A2995",
      "metarTime": "2026-03-18T03:00:00.000Z",
      "taf": "",
      "tafTime": ""
    },
    "KCCB": {
      "name": "Cable Airport",
      "metar": "METAR KCCB 180335Z AUTO 30006KT 10SM 28/01 A2997 RMK AO2",
      "metarTime": "2026-03-18T03:35:00.000Z",
      "taf": "",
      "tafTime": ""
    },
    "KRAL": {
      "name": "Riverside Municipal",
      "metar": "METAR KRAL 180353Z 28006KT 10SM CLR 27/06 A2995 RMK AO2 SLP125 T02720056",
      "metarTime": "2026-03-18T04:00:00.000Z",
      "taf": "",
      "tafTime": ""
    }
  }
}
