{
  "updated": "2026-04-06T20:15:00.000Z",
  "airports": {
    "KPOC": {
      "name": "Brackett Field",
      "metar": "METAR KPOC 061947Z 27007KT 10SM CLR 24/08 A3002",
      "metarTime": "2026-04-06T20:00:00.000Z",
      "taf": "",
      "tafTime": ""
    },
    "KCCB": {
      "name": "Cable Airport",
      "metar": "METAR KCCB 062015Z AUTO 23009KT 10SM CLR 24/05 A3002 RMK AO2",
      "metarTime": "2026-04-06T20:15:00.000Z",
      "taf": "",
      "tafTime": ""
    },
    "KRAL": {
      "name": "Riverside Municipal",
      "metar": "METAR KRAL 061953Z COR 30007KT 10SM CLR 26/02 A3001 RMK AO2 SLP146 T02610017",
      "metarTime": "2026-04-06T20:00:00.000Z",
      "taf": "",
      "tafTime": ""
    }
  }
}
