{
  "updated": "2026-04-17T18:35:00.000Z",
  "airports": {
    "KPOC": {
      "name": "Brackett Field",
      "metar": "METAR KPOC 171747Z 27006KT 10SM CLR 17/09 A3003",
      "metarTime": "2026-04-17T18:00:00.000Z",
      "taf": "",
      "tafTime": ""
    },
    "KCCB": {
      "name": "Cable Airport",
      "metar": "METAR KCCB 171835Z AUTO VRB06KT 10SM CLR 18/08 A3001 RMK AO2",
      "metarTime": "2026-04-17T18:35:00.000Z",
      "taf": "",
      "tafTime": ""
    },
    "KRAL": {
      "name": "Riverside Municipal",
      "metar": "METAR KRAL 171753Z 02009G20KT 10SM CLR 23/M08 A3000 RMK AO2 SLP148 T02281083 10228 20117 51004",
      "metarTime": "2026-04-17T18:00:00.000Z",
      "taf": "",
      "tafTime": ""
    }
  }
}
