{
  "updated": "2026-06-07T02:00:00.000Z",
  "airports": {
    "KPOC": {
      "name": "Brackett Field",
      "metar": "METAR KPOC 070147Z 22011KT 10SM CLR 22/13 A2982",
      "metarTime": "2026-06-07T02:00:00.000Z",
      "taf": "",
      "tafTime": ""
    },
    "KCCB": {
      "name": "Cable Airport",
      "metar": "METAR KCCB 070155Z AUTO 25011KT 10SM CLR 22/13 A2982 RMK AO2",
      "metarTime": "2026-06-07T02:00:00.000Z",
      "taf": "",
      "tafTime": ""
    },
    "KRAL": {
      "name": "Riverside Municipal",
      "metar": "METAR KRAL 070153Z 28010KT 10SM CLR 23/13 A2980 RMK AO2 SLP076 T02330133",
      "metarTime": "2026-06-07T02:00:00.000Z",
      "taf": "",
      "tafTime": ""
    }
  }
}
