{
  "updated": "2026-03-02T20:00:00.000Z",
  "airports": {
    "KPOC": {
      "name": "Brackett Field",
      "metar": "",
      "metarTime": "",
      "taf": "",
      "tafTime": ""
    },
    "KCCB": {
      "name": "Cable Airport",
      "metar": "METAR KCCB 021935Z AUTO 24007KT 10SM CLR 21/09 A3000 RMK AO2",
      "metarTime": "2026-03-02T19:35:00.000Z",
      "taf": "",
      "tafTime": ""
    },
    "KRAL": {
      "name": "Riverside Municipal",
      "metar": "METAR KRAL 021953Z VRB05KT 10SM CLR 22/11 A2998 RMK AO2 SLP139 T02220106",
      "metarTime": "2026-03-02T20:00:00.000Z",
      "taf": "",
      "tafTime": ""
    }
  }
}
