{
  "updated": "2026-05-21T18:35:00.000Z",
  "airports": {
    "KPOC": {
      "name": "Brackett Field",
      "metar": "METAR KPOC 211747Z 27006KT 10SM CLR 23/10 A2991",
      "metarTime": "2026-05-21T18:00:00.000Z",
      "taf": "",
      "tafTime": ""
    },
    "KCCB": {
      "name": "Cable Airport",
      "metar": "METAR KCCB 211835Z AUTO 27007KT 230V310 9SM CLR 25/07 A2991 RMK AO2",
      "metarTime": "2026-05-21T18:35:00.000Z",
      "taf": "",
      "tafTime": ""
    },
    "KRAL": {
      "name": "Riverside Municipal",
      "metar": "METAR KRAL 211753Z VRB05KT 10SM CLR 26/06 A2988 RMK AO2 SLP104 T02560061 10256 20144 58005",
      "metarTime": "2026-05-21T18:00:00.000Z",
      "taf": "",
      "tafTime": ""
    }
  }
}
