{
  "updated": "2026-06-26T20:00:00.000Z",
  "airports": {
    "KPOC": {
      "name": "Brackett Field",
      "metar": "METAR KPOC 261947Z 24005KT 10SM CLR 26/13 A2995",
      "metarTime": "2026-06-26T20:00:00.000Z",
      "taf": "",
      "tafTime": ""
    },
    "KCCB": {
      "name": "Cable Airport",
      "metar": "METAR KCCB 261955Z AUTO VRB06KT 10SM CLR 25/10 A2995 RMK AO2",
      "metarTime": "2026-06-26T20:00:00.000Z",
      "taf": "",
      "tafTime": ""
    },
    "KRAL": {
      "name": "Riverside Municipal",
      "metar": "METAR KRAL 261953Z 00000KT 10SM CLR 26/13 A2993 RMK AO2 SLP119 T02610128",
      "metarTime": "2026-06-26T20:00:00.000Z",
      "taf": "",
      "tafTime": ""
    }
  }
}
