{
  "updated": "2026-03-27T00:00:00.000Z",
  "airports": {
    "KPOC": {
      "name": "Brackett Field",
      "metar": "METAR KPOC 262347Z 26008KT 7SM CLR 29/12 A2987",
      "metarTime": "2026-03-27T00:00:00.000Z",
      "taf": "",
      "tafTime": ""
    },
    "KCCB": {
      "name": "Cable Airport",
      "metar": "METAR KCCB 262335Z AUTO 22007G12KT 180V250 10SM CLR 30/06 A2988 RMK AO2",
      "metarTime": "2026-03-26T23:35:00.000Z",
      "taf": "",
      "tafTime": ""
    },
    "KRAL": {
      "name": "Riverside Municipal",
      "metar": "METAR KRAL 262253Z 28008G15KT 10SM CLR 32/10 A2986 RMK AO2 SLP094 T03170100",
      "metarTime": "2026-03-26T23:00:00.000Z",
      "taf": "",
      "tafTime": ""
    }
  }
}
