{
  "updated": "2026-02-25T06:15:00.000Z",
  "airports": {
    "KPOC": {
      "name": "Brackett Field",
      "metar": "",
      "metarTime": "",
      "taf": "",
      "tafTime": ""
    },
    "KCCB": {
      "name": "Cable Airport",
      "metar": "METAR KCCB 250615Z AUTO 04003KT 10SM SCT022 17/06 A3005 RMK AO2",
      "metarTime": "2026-02-25T06:15:00.000Z",
      "taf": "",
      "tafTime": ""
    },
    "KRAL": {
      "name": "Riverside Municipal",
      "metar": "METAR KRAL 250553Z AUTO 00000KT 10SM CLR 16/07 A3005 RMK AO2 SLP162 T01610072 10244 20161 53010",
      "metarTime": "2026-02-25T06:00:00.000Z",
      "taf": "",
      "tafTime": ""
    }
  }
}
