{
  "updated": "2026-05-24T17:35:00.000Z",
  "airports": {
    "KPOC": {
      "name": "Brackett Field",
      "metar": "METAR KPOC 241647Z 26006KT 4SM BR OVC015 16/12 A3005",
      "metarTime": "2026-05-24T17:00:00.000Z",
      "taf": "",
      "tafTime": ""
    },
    "KCCB": {
      "name": "Cable Airport",
      "metar": "METAR KCCB 241735Z AUTO 29004KT 5SM BR SCT013 15/14 A3005 RMK AO2",
      "metarTime": "2026-05-24T17:35:00.000Z",
      "taf": "",
      "tafTime": ""
    },
    "KRAL": {
      "name": "Riverside Municipal",
      "metar": "METAR KRAL 241653Z 27006KT 10SM OVC017 17/12 A3004 RMK AO2 SLP160 T01720122",
      "metarTime": "2026-05-24T17:00:00.000Z",
      "taf": "",
      "tafTime": ""
    }
  }
}
