{
  "updated": "2026-06-06T12:35:00.000Z",
  "airports": {
    "KPOC": {
      "name": "Brackett Field",
      "metar": "",
      "metarTime": "",
      "taf": "",
      "tafTime": ""
    },
    "KCCB": {
      "name": "Cable Airport",
      "metar": "METAR KCCB 061235Z AUTO 29004KT 3SM BR BKN003 14/14 A2985 RMK AO2",
      "metarTime": "2026-06-06T12:35:00.000Z",
      "taf": "",
      "tafTime": ""
    },
    "KRAL": {
      "name": "Riverside Municipal",
      "metar": "SPECI KRAL 061225Z AUTO 00000KT 10SM BKN018 15/13 A2984 RMK AO2 T01500133",
      "metarTime": "2026-06-06T12:25:00.000Z",
      "taf": "",
      "tafTime": ""
    }
  }
}
