{
  "updated": "2026-07-11T21:15:00.000Z",
  "airports": {
    "KPOC": {
      "name": "Brackett Field",
      "metar": "METAR KPOC 112047Z 27007KT 10SM CLR 29/14 A2994",
      "metarTime": "2026-07-11T21:00:00.000Z",
      "taf": "",
      "tafTime": ""
    },
    "KCCB": {
      "name": "Cable Airport",
      "metar": "METAR KCCB 112115Z AUTO 29010KT 10SM CLR 30/13 A2994 RMK AO2",
      "metarTime": "2026-07-11T21:15:00.000Z",
      "taf": "",
      "tafTime": ""
    },
    "KRAL": {
      "name": "Riverside Municipal",
      "metar": "METAR KRAL 112053Z 28008G18KT 10SM CLR 33/13 A2990 RMK AO2 SLP110 T03280128 58013",
      "metarTime": "2026-07-11T21:00:00.000Z",
      "taf": "",
      "tafTime": ""
    }
  }
}
