{
  "updated": "2026-07-19T17:15:00.000Z",
  "airports": {
    "KPOC": {
      "name": "Brackett Field",
      "metar": "METAR KPOC 191647Z 29004KT 10SM CLR 26/17 A2998",
      "metarTime": "2026-07-19T17:00:00.000Z",
      "taf": "",
      "tafTime": ""
    },
    "KCCB": {
      "name": "Cable Airport",
      "metar": "METAR KCCB 191715Z AUTO 25004KT 10SM CLR 27/16 A2997 RMK AO2",
      "metarTime": "2026-07-19T17:15:00.000Z",
      "taf": "",
      "tafTime": ""
    },
    "KRAL": {
      "name": "Riverside Municipal",
      "metar": "METAR KRAL 191653Z VRB03KT 10SM CLR 28/17 A2995 RMK AO2 SLP126 T02780167",
      "metarTime": "2026-07-19T17:00:00.000Z",
      "taf": "",
      "tafTime": ""
    }
  }
}
