{
  "updated": "2026-06-26T18:15:00.000Z",
  "airports": {
    "KPOC": {
      "name": "Brackett Field",
      "metar": "METAR KPOC 261747Z 00000KT 6SM HZ CLR 21/14 A2998",
      "metarTime": "2026-06-26T18:00:00.000Z",
      "taf": "",
      "tafTime": ""
    },
    "KCCB": {
      "name": "Cable Airport",
      "metar": "METAR KCCB 261815Z AUTO 24005KT 7SM CLR 21/14 A2997 RMK AO2",
      "metarTime": "2026-06-26T18:15:00.000Z",
      "taf": "",
      "tafTime": ""
    },
    "KRAL": {
      "name": "Riverside Municipal",
      "metar": "METAR KRAL 261753Z 26005KT 10SM CLR 22/13 A2997 RMK AO2 SLP133 T02170128 10222 20161 51005",
      "metarTime": "2026-06-26T18:00:00.000Z",
      "taf": "",
      "tafTime": ""
    }
  }
}
