{
  "updated": "2026-04-02T22:15:00.000Z",
  "airports": {
    "KPOC": {
      "name": "Brackett Field",
      "metar": "METAR KPOC 022147Z 25007KT 10SM BKN060 19/09 A2994",
      "metarTime": "2026-04-02T22:00:00.000Z",
      "taf": "",
      "tafTime": ""
    },
    "KCCB": {
      "name": "Cable Airport",
      "metar": "METAR KCCB 022215Z AUTO 26008G14KT 10SM BKN047 19/09 A2992 RMK AO2",
      "metarTime": "2026-04-02T22:15:00.000Z",
      "taf": "",
      "tafTime": ""
    },
    "KRAL": {
      "name": "Riverside Municipal",
      "metar": "METAR KRAL 022153Z 29005KT 10SM BKN055 21/09 A2992 RMK AO2 SLP120 T02110094",
      "metarTime": "2026-04-02T22:00:00.000Z",
      "taf": "",
      "tafTime": ""
    }
  }
}
