{
  "updated": "2026-03-13T07:00:00.000Z",
  "airports": {
    "KPOC": {
      "name": "Brackett Field",
      "metar": "",
      "metarTime": "",
      "taf": "",
      "tafTime": ""
    },
    "KCCB": {
      "name": "Cable Airport",
      "metar": "METAR KCCB 130655Z AUTO 03006KT 10SM CLR 24/M07 A3006 RMK AO2",
      "metarTime": "2026-03-13T07:00:00.000Z",
      "taf": "",
      "tafTime": ""
    },
    "KRAL": {
      "name": "Riverside Municipal",
      "metar": "METAR KRAL 130653Z AUTO 14004KT 10SM CLR 19/02 A3005 RMK AO2 SLP158 T01890017",
      "metarTime": "2026-03-13T07:00:00.000Z",
      "taf": "",
      "tafTime": ""
    }
  }
}
