{
  "updated": "2026-02-17T07:15:00.000Z",
  "airports": {
    "KPOC": {
      "name": "Brackett Field",
      "metar": "",
      "metarTime": "",
      "taf": "",
      "tafTime": ""
    },
    "KCCB": {
      "name": "Cable Airport",
      "metar": "METAR KCCB 170715Z AUTO 28005KT 6SM BR BKN038 OVC044 09/09 A2991 RMK AO2",
      "metarTime": "2026-02-17T07:15:00.000Z",
      "taf": "",
      "tafTime": ""
    },
    "KRAL": {
      "name": "Riverside Municipal",
      "metar": "METAR KRAL 170653Z AUTO 00000KT 10SM -RA BKN038 OVC048 10/08 A2992 RMK AO2 RAB50 SLP123 P0000 T01000083",
      "metarTime": "2026-02-17T07:00:00.000Z",
      "taf": "",
      "tafTime": ""
    }
  }
}
