{
  "updated": "2026-06-17T12:00:00.000Z",
  "airports": {
    "KPOC": {
      "name": "Brackett Field",
      "metar": "",
      "metarTime": "",
      "taf": "",
      "tafTime": ""
    },
    "KCCB": {
      "name": "Cable Airport",
      "metar": "METAR KCCB 171155Z AUTO 00000KT 6SM BR 15/15 A2992 RMK AO2",
      "metarTime": "2026-06-17T12:00:00.000Z",
      "taf": "",
      "tafTime": ""
    },
    "KRAL": {
      "name": "Riverside Municipal",
      "metar": "METAR KRAL 171153Z AUTO VRB03KT 9SM CLR 16/14 A2992 RMK AO2 SLP117 T01560139 10206 20156 53001",
      "metarTime": "2026-06-17T12:00:00.000Z",
      "taf": "",
      "tafTime": ""
    }
  }
}
