{
  "updated": "2026-03-15T21:00:00.000Z",
  "airports": {
    "KPOC": {
      "name": "Brackett Field",
      "metar": "METAR KPOC 152047Z 24008KT 10SM CLR 25/08 A2999",
      "metarTime": "2026-03-15T21:00:00.000Z",
      "taf": "",
      "tafTime": ""
    },
    "KCCB": {
      "name": "Cable Airport",
      "metar": "METAR KCCB 152055Z AUTO 25009KT 10SM CLR 26/06 A2999 RMK AO2",
      "metarTime": "2026-03-15T21:00:00.000Z",
      "taf": "",
      "tafTime": ""
    },
    "KRAL": {
      "name": "Riverside Municipal",
      "metar": "METAR KRAL 152053Z VRB04KT 10SM CLR 31/06 A2995 RMK AO2 SLP126 T03110061 58022",
      "metarTime": "2026-03-15T21:00:00.000Z",
      "taf": "",
      "tafTime": ""
    }
  }
}
