{
  "updated": "2026-03-14T01:00:00.000Z",
  "airports": {
    "KPOC": {
      "name": "Brackett Field",
      "metar": "METAR KPOC 132347Z 24008KT 10SM CLR 32/02 A2992",
      "metarTime": "2026-03-14T00:00:00.000Z",
      "taf": "",
      "tafTime": ""
    },
    "KCCB": {
      "name": "Cable Airport",
      "metar": "METAR KCCB 140055Z AUTO 25008KT 10SM CLR 30/M00 A2991 RMK AO2",
      "metarTime": "2026-03-14T01:00:00.000Z",
      "taf": "",
      "tafTime": ""
    },
    "KRAL": {
      "name": "Riverside Municipal",
      "metar": "METAR KRAL 140053Z 28007KT 10SM CLR 30/02 A2988 RMK AO2 SLP104 T03000022",
      "metarTime": "2026-03-14T01:00:00.000Z",
      "taf": "",
      "tafTime": ""
    }
  }
}
