{
  "updated": "2026-05-06T17:00:00.000Z",
  "airports": {
    "KPOC": {
      "name": "Brackett Field",
      "metar": "METAR KPOC 061647Z 00000KT 10SM CLR 16/08 A3009",
      "metarTime": "2026-05-06T17:00:00.000Z",
      "taf": "",
      "tafTime": ""
    },
    "KCCB": {
      "name": "Cable Airport",
      "metar": "METAR KCCB 061635Z AUTO 00000KT 10SM CLR 15/08 A3008 RMK AO2",
      "metarTime": "2026-05-06T16:35:00.000Z",
      "taf": "",
      "tafTime": ""
    },
    "KRAL": {
      "name": "Riverside Municipal",
      "metar": "METAR KRAL 061653Z 00000KT 10SM CLR 17/08 A3008 RMK AO2 SLP174 T01670078",
      "metarTime": "2026-05-06T17:00:00.000Z",
      "taf": "",
      "tafTime": ""
    }
  }
}
