{
  "updated": "2026-04-26T08:00:00.000Z",
  "airports": {
    "KPOC": {
      "name": "Brackett Field",
      "metar": "",
      "metarTime": "",
      "taf": "",
      "tafTime": ""
    },
    "KCCB": {
      "name": "Cable Airport",
      "metar": "METAR KCCB 260735Z AUTO 26009G14KT 8SM FEW010 BKN044 OVC060 11/11 A2988 RMK AO2",
      "metarTime": "2026-04-26T07:35:00.000Z",
      "taf": "",
      "tafTime": ""
    },
    "KRAL": {
      "name": "Riverside Municipal",
      "metar": "METAR KRAL 260753Z AUTO 23009KT 10SM OVC050 13/08 A2989 RMK AO2 SLP109 T01330083 402220128",
      "metarTime": "2026-04-26T08:00:00.000Z",
      "taf": "",
      "tafTime": ""
    }
  }
}
