{
  "updated": "2026-07-15T12:35:00.000Z",
  "airports": {
    "KPOC": {
      "name": "Brackett Field",
      "metar": "",
      "metarTime": "",
      "taf": "",
      "tafTime": ""
    },
    "KCCB": {
      "name": "Cable Airport",
      "metar": "METAR KCCB 151235Z AUTO 00000KT 10SM 24/14 A2991 RMK AO2",
      "metarTime": "2026-07-15T12:35:00.000Z",
      "taf": "",
      "tafTime": ""
    },
    "KRAL": {
      "name": "Riverside Municipal",
      "metar": "METAR KRAL 151153Z AUTO 00000KT 10SM CLR 23/14 A2989 RMK AO2 SLP103 T02280139 10250 20222 56010",
      "metarTime": "2026-07-15T12:00:00.000Z",
      "taf": "",
      "tafTime": ""
    }
  }
}
