{
  "updated": "2026-05-31T06:15:00.000Z",
  "airports": {
    "KPOC": {
      "name": "Brackett Field",
      "metar": "",
      "metarTime": "",
      "taf": "",
      "tafTime": ""
    },
    "KCCB": {
      "name": "Cable Airport",
      "metar": "METAR KCCB 310615Z AUTO 31003KT 10SM 18/11 A2996 RMK AO2",
      "metarTime": "2026-05-31T06:15:00.000Z",
      "taf": "",
      "tafTime": ""
    },
    "KRAL": {
      "name": "Riverside Municipal",
      "metar": "METAR KRAL 310553Z AUTO 26004KT 10SM CLR 18/11 A2996 RMK AO2 SLP130 T01830111 10272 20183 51010",
      "metarTime": "2026-05-31T06:00:00.000Z",
      "taf": "",
      "tafTime": ""
    }
  }
}
