{
  "updated": "2026-04-24T04:15:00.000Z",
  "airports": {
    "KPOC": {
      "name": "Brackett Field",
      "metar": "METAR KPOC 240347Z 23006KT 10SM CLR 18/07 A2993 RMK LAST",
      "metarTime": "2026-04-24T04:00:00.000Z",
      "taf": "",
      "tafTime": ""
    },
    "KCCB": {
      "name": "Cable Airport",
      "metar": "METAR KCCB 240415Z AUTO 26008KT 10SM 17/05 A2993 RMK AO2",
      "metarTime": "2026-04-24T04:15:00.000Z",
      "taf": "",
      "tafTime": ""
    },
    "KRAL": {
      "name": "Riverside Municipal",
      "metar": "METAR KRAL 240353Z AUTO 27009KT 10SM CLR 17/09 A2992 RMK AO2 SLP119 T01720089",
      "metarTime": "2026-04-24T04:00:00.000Z",
      "taf": "",
      "tafTime": ""
    }
  }
}
