{
  "updated": "2026-04-18T08:15:00.000Z",
  "airports": {
    "KPOC": {
      "name": "Brackett Field",
      "metar": "",
      "metarTime": "",
      "taf": "",
      "tafTime": ""
    },
    "KCCB": {
      "name": "Cable Airport",
      "metar": "METAR KCCB 180815Z AUTO 00000KT 10SM 16/03 A2999 RMK AO2",
      "metarTime": "2026-04-18T08:15:00.000Z",
      "taf": "",
      "tafTime": ""
    },
    "KRAL": {
      "name": "Riverside Municipal",
      "metar": "METAR KRAL 180753Z AUTO 07004KT 10SM CLR 17/M10 A2998 RMK AO2 SLP137 T01671100 402780111",
      "metarTime": "2026-04-18T08:00:00.000Z",
      "taf": "",
      "tafTime": ""
    }
  }
}
