{
  "updated": "2026-07-11T06:00:00.000Z",
  "airports": {
    "KPOC": {
      "name": "Brackett Field",
      "metar": "",
      "metarTime": "",
      "taf": "",
      "tafTime": ""
    },
    "KCCB": {
      "name": "Cable Airport",
      "metar": "METAR KCCB 110555Z AUTO 28008KT 10SM 21/16 A2989 RMK AO2",
      "metarTime": "2026-07-11T06:00:00.000Z",
      "taf": "",
      "tafTime": ""
    },
    "KRAL": {
      "name": "Riverside Municipal",
      "metar": "METAR KRAL 110553Z AUTO 27004KT 10SM CLR 23/14 A2988 RMK AO2 SLP103 T02280139 10317 20228 50015",
      "metarTime": "2026-07-11T06:00:00.000Z",
      "taf": "",
      "tafTime": ""
    }
  }
}
