{
  "updated": "2026-05-05T11:00:00.000Z",
  "airports": {
    "KPOC": {
      "name": "Brackett Field",
      "metar": "",
      "metarTime": "",
      "taf": "",
      "tafTime": ""
    },
    "KCCB": {
      "name": "Cable Airport",
      "metar": "METAR KCCB 051035Z AUTO 29004KT 10SM BKN028 OVC035 11/11 A2992 RMK AO2",
      "metarTime": "2026-05-05T10:35:00.000Z",
      "taf": "",
      "tafTime": ""
    },
    "KRAL": {
      "name": "Riverside Municipal",
      "metar": "METAR KRAL 051053Z AUTO 27003KT 8SM -RA BKN009 OVC016 12/11 A2992 RMK AO2 RAB11 CIG 007V014 SLP121 P0000 T01220111",
      "metarTime": "2026-05-05T11:00:00.000Z",
      "taf": "",
      "tafTime": ""
    }
  }
}
