{
  "updated": "2026-02-25T05:00:00.000Z",
  "airports": {
    "KPOC": {
      "name": "Brackett Field",
      "metar": "METAR KPOC 250447Z 00000KT 10SM CLR 17/09 A3005 RMK LAST",
      "metarTime": "2026-02-25T05:00:00.000Z",
      "taf": "",
      "tafTime": ""
    },
    "KCCB": {
      "name": "Cable Airport",
      "metar": "METAR KCCB 250455Z AUTO 36005KT 10SM CLR 18/07 A3004 RMK AO2",
      "metarTime": "2026-02-25T05:00:00.000Z",
      "taf": "",
      "tafTime": ""
    },
    "KRAL": {
      "name": "Riverside Municipal",
      "metar": "METAR KRAL 250453Z AUTO 13003KT 10SM CLR 17/07 A3004 RMK AO2 SLP160 T01720072",
      "metarTime": "2026-02-25T05:00:00.000Z",
      "taf": "",
      "tafTime": ""
    }
  }
}
