{
  "updated": "2026-05-05T20:35:00.000Z",
  "airports": {
    "KPOC": {
      "name": "Brackett Field",
      "metar": "METAR KPOC 051947Z 21009KT 10SM BKN042 16/08 A2998",
      "metarTime": "2026-05-05T20:00:00.000Z",
      "taf": "",
      "tafTime": ""
    },
    "KCCB": {
      "name": "Cable Airport",
      "metar": "METAR KCCB 052035Z AUTO 26007KT 10SM SCT033 BKN038 OVC065 16/07 A2996 RMK AO2",
      "metarTime": "2026-05-05T20:35:00.000Z",
      "taf": "",
      "tafTime": ""
    },
    "KRAL": {
      "name": "Riverside Municipal",
      "metar": "METAR KRAL 051953Z 22008KT 10SM SCT050 OVC075 18/05 A2996 RMK AO2 SLP133 T01830050",
      "metarTime": "2026-05-05T20:00:00.000Z",
      "taf": "",
      "tafTime": ""
    }
  }
}
