{
  "updated": "2026-03-19T08:00:00.000Z",
  "airports": {
    "KPOC": {
      "name": "Brackett Field",
      "metar": "",
      "metarTime": "",
      "taf": "",
      "tafTime": ""
    },
    "KCCB": {
      "name": "Cable Airport",
      "metar": "METAR KCCB 190735Z AUTO 07004KT 10SM CLR 24/07 A3008 RMK AO2",
      "metarTime": "2026-03-19T07:35:00.000Z",
      "taf": "",
      "tafTime": ""
    },
    "KRAL": {
      "name": "Riverside Municipal",
      "metar": "METAR KRAL 190753Z AUTO 00000KT 10SM CLR 21/10 A3007 RMK AO2 SLP164 T02060100 403670161",
      "metarTime": "2026-03-19T08:00:00.000Z",
      "taf": "",
      "tafTime": ""
    }
  }
}
