{
  "updated": "2026-03-07T10:00:00.000Z",
  "airports": {
    "KPOC": {
      "name": "Brackett Field",
      "metar": "",
      "metarTime": "",
      "taf": "",
      "tafTime": ""
    },
    "KCCB": {
      "name": "Cable Airport",
      "metar": "METAR KCCB 070955Z AUTO 04015G21KT 10SM 17/M13 A3001 RMK AO2",
      "metarTime": "2026-03-07T10:00:00.000Z",
      "taf": "",
      "tafTime": ""
    },
    "KRAL": {
      "name": "Riverside Municipal",
      "metar": "METAR KRAL 070953Z AUTO 03008G21KT 10SM CLR 17/M10 A3001 RMK AO2 SLP150 T01671100",
      "metarTime": "2026-03-07T10:00:00.000Z",
      "taf": "",
      "tafTime": ""
    }
  }
}
