{
  "updated": "2026-06-05T13:35:00.000Z",
  "airports": {
    "KPOC": {
      "name": "Brackett Field",
      "metar": "",
      "metarTime": "",
      "taf": "",
      "tafTime": ""
    },
    "KCCB": {
      "name": "Cable Airport",
      "metar": "METAR KCCB 051335Z AUTO 00000KT 9SM CLR 16/14 A2986 RMK AO2",
      "metarTime": "2026-06-05T13:35:00.000Z",
      "taf": "",
      "tafTime": ""
    },
    "KRAL": {
      "name": "Riverside Municipal",
      "metar": "METAR KRAL 051253Z AUTO 00000KT 5SM BR CLR 15/14 A2985 RMK AO2 SLP094 T01500139",
      "metarTime": "2026-06-05T13:00:00.000Z",
      "taf": "",
      "tafTime": ""
    }
  }
}
