{
  "updated": "2026-02-06T07:15:00.000Z",
  "airports": {
    "KPOC": {
      "name": "Brackett Field",
      "metar": "",
      "metarTime": "",
      "taf": "",
      "tafTime": ""
    },
    "KCCB": {
      "name": "Cable Airport",
      "metar": "METAR KCCB 060715Z AUTO 24007KT 10SM OVC110 17/03 A3010 RMK AO2",
      "metarTime": "2026-02-06T07:15:00.000Z",
      "taf": "",
      "tafTime": ""
    },
    "KRAL": {
      "name": "Riverside Municipal",
      "metar": "METAR KRAL 060653Z AUTO 00000KT 10SM BKN110 17/05 A3010 RMK AO2 SLP178 T01720050",
      "metarTime": "2026-02-06T07:00:00.000Z",
      "taf": "",
      "tafTime": ""
    }
  }
}
