{
  "updated": "2026-03-01T15:00:00.000Z",
  "airports": {
    "KPOC": {
      "name": "Brackett Field",
      "metar": "METAR KPOC 011447Z 00000KT 10SM CLR 15/08 A3000",
      "metarTime": "2026-03-01T15:00:00.000Z",
      "taf": "",
      "tafTime": ""
    },
    "KCCB": {
      "name": "Cable Airport",
      "metar": "METAR KCCB 011455Z AUTO 00000KT 10SM CLR 17/06 A3000 RMK AO2",
      "metarTime": "2026-03-01T15:00:00.000Z",
      "taf": "",
      "tafTime": ""
    },
    "KRAL": {
      "name": "Riverside Municipal",
      "metar": "METAR KRAL 011453Z AUTO 04003KT 10SM CLR 14/08 A2999 RMK AO2 SLP143 T01390083 53012",
      "metarTime": "2026-03-01T15:00:00.000Z",
      "taf": "",
      "tafTime": ""
    }
  }
}
