{
  "updated": "2026-03-15T04:00:00.000Z",
  "airports": {
    "KPOC": {
      "name": "Brackett Field",
      "metar": "METAR KPOC 150247Z VRB05KT 10SM CLR 20/09 A2993",
      "metarTime": "2026-03-15T03:00:00.000Z",
      "taf": "",
      "tafTime": ""
    },
    "KCCB": {
      "name": "Cable Airport",
      "metar": "METAR KCCB 150355Z AUTO 29003KT 10SM 19/08 A2994 RMK AO2",
      "metarTime": "2026-03-15T04:00:00.000Z",
      "taf": "",
      "tafTime": ""
    },
    "KRAL": {
      "name": "Riverside Municipal",
      "metar": "METAR KRAL 150353Z AUTO 00000KT 10SM CLR 20/06 A2993 RMK AO2 SLP123 T02000061",
      "metarTime": "2026-03-15T04:00:00.000Z",
      "taf": "",
      "tafTime": ""
    }
  }
}
