{
  "updated": "2026-07-01T10:35:00.000Z",
  "airports": {
    "KPOC": {
      "name": "Brackett Field",
      "metar": "",
      "metarTime": "",
      "taf": "",
      "tafTime": ""
    },
    "KCCB": {
      "name": "Cable Airport",
      "metar": "METAR KCCB 011035Z AUTO 27006KT 10SM 16/15 A2991 RMK AO2",
      "metarTime": "2026-07-01T10:35:00.000Z",
      "taf": "",
      "tafTime": ""
    },
    "KRAL": {
      "name": "Riverside Municipal",
      "metar": "SPECI KRAL 011022Z AUTO 27005KT 10SM BKN025 OVC034 17/13 A2990 RMK AO2 T01720133",
      "metarTime": "2026-07-01T10:22:00.000Z",
      "taf": "",
      "tafTime": ""
    }
  }
}
