{
  "updated": "2026-07-04T18:00:00.000Z",
  "airports": {
    "KPOC": {
      "name": "Brackett Field",
      "metar": "METAR KPOC 041747Z 15008KT 10SM CLR 27/10 A3005",
      "metarTime": "2026-07-04T18:00:00.000Z",
      "taf": "",
      "tafTime": ""
    },
    "KCCB": {
      "name": "Cable Airport",
      "metar": "METAR KCCB 041735Z AUTO VRB03KT 10SM CLR 27/05 A3005 RMK AO2",
      "metarTime": "2026-07-04T17:35:00.000Z",
      "taf": "",
      "tafTime": ""
    },
    "KRAL": {
      "name": "Riverside Municipal",
      "metar": "METAR KRAL 041653Z VRB03KT 10SM CLR 28/09 A3002 RMK AO2 SLP150 T02780094",
      "metarTime": "2026-07-04T17:00:00.000Z",
      "taf": "",
      "tafTime": ""
    }
  }
}
