{
  "updated": "2026-04-13T23:00:00.000Z",
  "airports": {
    "KPOC": {
      "name": "Brackett Field",
      "metar": "METAR KPOC 132247Z 32010G21KT 10SM SCT048 BKN055 13/09 A3002",
      "metarTime": "2026-04-13T23:00:00.000Z",
      "taf": "",
      "tafTime": ""
    },
    "KCCB": {
      "name": "Cable Airport",
      "metar": "METAR KCCB 132255Z AUTO 29013G22KT 8SM FEW036 BKN043 OVC060 13/07 A3000 RMK AO2",
      "metarTime": "2026-04-13T23:00:00.000Z",
      "taf": "",
      "tafTime": ""
    },
    "KRAL": {
      "name": "Riverside Municipal",
      "metar": "METAR KRAL 132253Z 25012G21KT 10SM SCT060 18/04 A2999 RMK AO2 SLP144 T01830044",
      "metarTime": "2026-04-13T23:00:00.000Z",
      "taf": "",
      "tafTime": ""
    }
  }
}
