{
  "updated": "2026-04-16T15:00:00.000Z",
  "airports": {
    "KPOC": {
      "name": "Brackett Field",
      "metar": "METAR KPOC 161447Z 00000KT 10SM CLR 13/09 A2995",
      "metarTime": "2026-04-16T15:00:00.000Z",
      "taf": "",
      "tafTime": ""
    },
    "KCCB": {
      "name": "Cable Airport",
      "metar": "METAR KCCB 161455Z AUTO 00000KT 10SM CLR 14/07 A2994 RMK AO2",
      "metarTime": "2026-04-16T15:00:00.000Z",
      "taf": "",
      "tafTime": ""
    },
    "KRAL": {
      "name": "Riverside Municipal",
      "metar": "METAR KRAL 161453Z 00000KT 10SM CLR 13/09 A2995 RMK AO2 SLP130 T01330094 53014",
      "metarTime": "2026-04-16T15:00:00.000Z",
      "taf": "",
      "tafTime": ""
    }
  }
}
