{
  "updated": "2026-06-25T00:00:00.000Z",
  "airports": {
    "KPOC": {
      "name": "Brackett Field",
      "metar": "METAR KPOC 242347Z 25012KT 10SM CLR 28/13 A2995",
      "metarTime": "2026-06-25T00:00:00.000Z",
      "taf": "",
      "tafTime": ""
    },
    "KCCB": {
      "name": "Cable Airport",
      "metar": "METAR KCCB 242335Z AUTO 26013G18KT 10SM CLR 29/11 A2995 RMK AO2",
      "metarTime": "2026-06-24T23:35:00.000Z",
      "taf": "",
      "tafTime": ""
    },
    "KRAL": {
      "name": "Riverside Municipal",
      "metar": "METAR KRAL 242353Z 27012G19KT 10SM CLR 29/14 A2991 RMK AO2 SLP114 T02890144 10328 20267 56009",
      "metarTime": "2026-06-25T00:00:00.000Z",
      "taf": "",
      "tafTime": ""
    }
  }
}
