{
  "updated": "2026-03-23T07:00:00.000Z",
  "airports": {
    "KPOC": {
      "name": "Brackett Field",
      "metar": "",
      "metarTime": "",
      "taf": "",
      "tafTime": ""
    },
    "KCCB": {
      "name": "Cable Airport",
      "metar": "METAR KCCB 230635Z AUTO 00000KT 10SM 20/10 A2992 RMK AO2",
      "metarTime": "2026-03-23T06:35:00.000Z",
      "taf": "",
      "tafTime": ""
    },
    "KRAL": {
      "name": "Riverside Municipal",
      "metar": "METAR KRAL 230653Z AUTO 00000KT 10SM CLR 19/13 A2991 RMK AO2 SLP114 T01890128",
      "metarTime": "2026-03-23T07:00:00.000Z",
      "taf": "",
      "tafTime": ""
    }
  }
}
