{
  "updated": "2026-07-22T15:00:00.000Z",
  "airports": {
    "KPOC": {
      "name": "Brackett Field",
      "metar": "METAR KPOC 221447Z 26005KT 10SM CLR 21/18 A3003",
      "metarTime": "2026-07-22T15:00:00.000Z",
      "taf": "",
      "tafTime": ""
    },
    "KCCB": {
      "name": "Cable Airport",
      "metar": "METAR KCCB 221435Z AUTO 00000KT 8SM CLR 22/14 A3003 RMK AO2",
      "metarTime": "2026-07-22T14:35:00.000Z",
      "taf": "",
      "tafTime": ""
    },
    "KRAL": {
      "name": "Riverside Municipal",
      "metar": "METAR KRAL 221353Z 26003KT 10SM CLR 22/16 A3001 RMK AO2 SLP146 T02170156",
      "metarTime": "2026-07-22T14:00:00.000Z",
      "taf": "",
      "tafTime": ""
    }
  }
}
