{
  "updated": "2026-02-25T20:15:00.000Z",
  "airports": {
    "KPOC": {
      "name": "Brackett Field",
      "metar": "METAR KPOC 251947Z 00000KT 10SM CLR 23/07 A3007",
      "metarTime": "2026-02-25T20:00:00.000Z",
      "taf": "",
      "tafTime": ""
    },
    "KCCB": {
      "name": "Cable Airport",
      "metar": "METAR KCCB 252015Z AUTO VRB06KT 8SM CLR 24/05 A3005 RMK AO2",
      "metarTime": "2026-02-25T20:15:00.000Z",
      "taf": "",
      "tafTime": ""
    },
    "KRAL": {
      "name": "Riverside Municipal",
      "metar": "METAR KRAL 251953Z VRB03KT 10SM CLR 24/08 A3005 RMK AO2 SLP161 T02390078",
      "metarTime": "2026-02-25T20:00:00.000Z",
      "taf": "",
      "tafTime": ""
    }
  }
}
