{
  "updated": "2026-02-03T07:00:00.000Z",
  "airports": {
    "KPOC": {
      "name": "Brackett Field",
      "metar": "",
      "metarTime": "",
      "taf": "",
      "tafTime": ""
    },
    "KCCB": {
      "name": "Cable Airport",
      "metar": "METAR KCCB 030655Z AUTO 33003KT 10SM CLR 14/03 A3018 RMK AO2",
      "metarTime": "2026-02-03T07:00:00.000Z",
      "taf": "",
      "tafTime": ""
    },
    "KRAL": {
      "name": "Riverside Municipal",
      "metar": "METAR KRAL 030653Z AUTO 00000KT 10SM CLR 13/07 A3018 RMK AO2 SLP208 T01280067",
      "metarTime": "2026-02-03T07:00:00.000Z",
      "taf": "",
      "tafTime": ""
    }
  }
}
