{
  "updated": "2026-02-19T18:00:00.000Z",
  "airports": {
    "KPOC": {
      "name": "Brackett Field",
      "metar": "METAR KPOC 191747Z VRB03KT 2SM BR OVC025 08/04 A3000",
      "metarTime": "2026-02-19T18:00:00.000Z",
      "taf": "",
      "tafTime": ""
    },
    "KCCB": {
      "name": "Cable Airport",
      "metar": "METAR KCCB 191750Z AUTO 07004KT 2SM BR FEW020 BKN032 08/06 A2998 RMK AO2",
      "metarTime": "2026-02-19T18:00:00.000Z",
      "taf": "",
      "tafTime": ""
    },
    "KRAL": {
      "name": "Riverside Municipal",
      "metar": "METAR KRAL 191753Z 14009KT 10SM OVC040 11/03 A2998 RMK AO2 SLP143 T01110028 10111 20056 58010",
      "metarTime": "2026-02-19T18:00:00.000Z",
      "taf": "",
      "tafTime": ""
    }
  }
}
