{
  "updated": "2026-06-02T11:25:00.000Z",
  "airports": {
    "KPOC": {
      "name": "Brackett Field",
      "metar": "",
      "metarTime": "",
      "taf": "",
      "tafTime": ""
    },
    "KCCB": {
      "name": "Cable Airport",
      "metar": "METAR KCCB 021125Z AUTO 34003KT 6SM BR OVC007 14/14 A2999 RMK AO2",
      "metarTime": "2026-06-02T11:25:00.000Z",
      "taf": "",
      "tafTime": ""
    },
    "KRAL": {
      "name": "Riverside Municipal",
      "metar": "METAR KRAL 021053Z AUTO 26003KT 8SM OVC008 15/13 A2999 RMK AO2 SLP139 T01500133",
      "metarTime": "2026-06-02T11:00:00.000Z",
      "taf": "",
      "tafTime": ""
    }
  }
}
