{
  "updated": "2026-05-23T05:35:00.000Z",
  "airports": {
    "KPOC": {
      "name": "Brackett Field",
      "metar": "",
      "metarTime": "",
      "taf": "",
      "tafTime": ""
    },
    "KCCB": {
      "name": "Cable Airport",
      "metar": "METAR KCCB 230535Z AUTO 25007KT 10SM CLR 15/13 A2991 RMK AO2",
      "metarTime": "2026-05-23T05:35:00.000Z",
      "taf": "",
      "tafTime": ""
    },
    "KRAL": {
      "name": "Riverside Municipal",
      "metar": "METAR KRAL 230453Z AUTO 27006KT 10SM CLR 16/12 A2990 RMK AO2 SLP113 T01610117",
      "metarTime": "2026-05-23T05:00:00.000Z",
      "taf": "",
      "tafTime": ""
    }
  }
}
