{
  "updated": "2026-04-13T01:15:00.000Z",
  "airports": {
    "KPOC": {
      "name": "Brackett Field",
      "metar": "METAR KPOC 130047Z 24008KT 10SM BKN075 17/05 A2999",
      "metarTime": "2026-04-13T01:00:00.000Z",
      "taf": "",
      "tafTime": ""
    },
    "KCCB": {
      "name": "Cable Airport",
      "metar": "METAR KCCB 130115Z AUTO 23008KT 10SM FEW046 OVC060 15/06 A2999 RMK AO2",
      "metarTime": "2026-04-13T01:15:00.000Z",
      "taf": "",
      "tafTime": ""
    },
    "KRAL": {
      "name": "Riverside Municipal",
      "metar": "METAR KRAL 130053Z 23009KT 10SM FEW033 OVC048 14/09 A3000 RMK AO2 RAE39 SLP148 P0000 T01440094",
      "metarTime": "2026-04-13T01:00:00.000Z",
      "taf": "",
      "tafTime": ""
    }
  }
}
