{
  "updated": "2026-02-09T18:35:00.000Z",
  "airports": {
    "KPOC": {
      "name": "Brackett Field",
      "metar": "METAR KPOC 091747Z VRB04KT 10SM CLR 19/03 A3007",
      "metarTime": "2026-02-09T18:00:00.000Z",
      "taf": "",
      "tafTime": ""
    },
    "KCCB": {
      "name": "Cable Airport",
      "metar": "METAR KCCB 091835Z AUTO 17004KT 10SM CLR 21/M02 A3006 RMK AO2",
      "metarTime": "2026-02-09T18:35:00.000Z",
      "taf": "",
      "tafTime": ""
    },
    "KRAL": {
      "name": "Riverside Municipal",
      "metar": "METAR KRAL 091753Z 00000KT 10SM CLR 20/03 A3005 RMK AO2 SLP164 T02000028 10200 20094 58005 $",
      "metarTime": "2026-02-09T18:00:00.000Z",
      "taf": "",
      "tafTime": ""
    }
  }
}
