{
  "updated": "2026-04-24T10:00:00.000Z",
  "airports": {
    "KPOC": {
      "name": "Brackett Field",
      "metar": "",
      "metarTime": "",
      "taf": "",
      "tafTime": ""
    },
    "KCCB": {
      "name": "Cable Airport",
      "metar": "METAR KCCB 240955Z AUTO 36004KT 10SM CLR 13/07 A2992 RMK AO2",
      "metarTime": "2026-04-24T10:00:00.000Z",
      "taf": "",
      "tafTime": ""
    },
    "KRAL": {
      "name": "Riverside Municipal",
      "metar": "METAR KRAL 240953Z AUTO 00000KT 10SM CLR 13/10 A2992 RMK AO2 SLP118 T01330100",
      "metarTime": "2026-04-24T10:00:00.000Z",
      "taf": "",
      "tafTime": ""
    }
  }
}
