{
  "updated": "2026-04-04T16:00:00.000Z",
  "airports": {
    "KPOC": {
      "name": "Brackett Field",
      "metar": "METAR KPOC 041547Z 10003KT 10SM CLR 21/M04 A3006",
      "metarTime": "2026-04-04T16:00:00.000Z",
      "taf": "",
      "tafTime": ""
    },
    "KCCB": {
      "name": "Cable Airport",
      "metar": "METAR KCCB 041535Z AUTO 00000KT 10SM CLR 20/M06 A3006 RMK AO2",
      "metarTime": "2026-04-04T15:35:00.000Z",
      "taf": "",
      "tafTime": ""
    },
    "KRAL": {
      "name": "Riverside Municipal",
      "metar": "METAR KRAL 041453Z 03006G15KT 10SM CLR 21/M09 A3005 RMK AO2 SLP163 T02061089 53012",
      "metarTime": "2026-04-04T15:00:00.000Z",
      "taf": "",
      "tafTime": ""
    }
  }
}
