{
  "updated": "2026-03-26T07:35:00.000Z",
  "airports": {
    "KPOC": {
      "name": "Brackett Field",
      "metar": "",
      "metarTime": "",
      "taf": "",
      "tafTime": ""
    },
    "KCCB": {
      "name": "Cable Airport",
      "metar": "METAR KCCB 260735Z AUTO 36005KT 9SM 16/12 A2997 RMK AO2",
      "metarTime": "2026-03-26T07:35:00.000Z",
      "taf": "",
      "tafTime": ""
    },
    "KRAL": {
      "name": "Riverside Municipal",
      "metar": "METAR KRAL 260653Z AUTO 28005KT 10SM CLR 17/13 A2998 RMK AO2 SLP137 T01720133",
      "metarTime": "2026-03-26T07:00:00.000Z",
      "taf": "",
      "tafTime": ""
    }
  }
}
