{
  "updated": "2026-03-20T06:00:00.000Z",
  "airports": {
    "KPOC": {
      "name": "Brackett Field",
      "metar": "",
      "metarTime": "",
      "taf": "",
      "tafTime": ""
    },
    "KCCB": {
      "name": "Cable Airport",
      "metar": "METAR KCCB 200555Z AUTO 00000KT 10SM 25/05 A3003 RMK AO2",
      "metarTime": "2026-03-20T06:00:00.000Z",
      "taf": "",
      "tafTime": ""
    },
    "KRAL": {
      "name": "Riverside Municipal",
      "metar": "METAR KRAL 200553Z AUTO 19003KT 10SM CLR 24/14 A3001 RMK AO2 SLP145 T02440139 10372 20244 51016",
      "metarTime": "2026-03-20T06:00:00.000Z",
      "taf": "",
      "tafTime": ""
    }
  }
}
