{
  "updated": "2026-04-13T07:00:00.000Z",
  "airports": {
    "KPOC": {
      "name": "Brackett Field",
      "metar": "",
      "metarTime": "",
      "taf": "",
      "tafTime": ""
    },
    "KCCB": {
      "name": "Cable Airport",
      "metar": "METAR KCCB 130655Z AUTO 30004KT 10SM CLR 11/09 A3004 RMK AO2",
      "metarTime": "2026-04-13T07:00:00.000Z",
      "taf": "",
      "tafTime": ""
    },
    "KRAL": {
      "name": "Riverside Municipal",
      "metar": "METAR KRAL 130653Z AUTO 00000KT 10SM CLR 12/09 A3004 RMK AO2 SLP164 T01220089",
      "metarTime": "2026-04-13T07:00:00.000Z",
      "taf": "",
      "tafTime": ""
    }
  }
}
