{
  "updated": "2026-04-22T12:00:00.000Z",
  "airports": {
    "KPOC": {
      "name": "Brackett Field",
      "metar": "",
      "metarTime": "",
      "taf": "",
      "tafTime": ""
    },
    "KCCB": {
      "name": "Cable Airport",
      "metar": "METAR KCCB 221155Z AUTO 00000KT 10SM 11/08 A3009 RMK AO2",
      "metarTime": "2026-04-22T12:00:00.000Z",
      "taf": "",
      "tafTime": ""
    },
    "KRAL": {
      "name": "Riverside Municipal",
      "metar": "METAR KRAL 221153Z AUTO 00000KT 10SM FEW028 11/09 A3011 RMK AO2 SLP184 T01060089 10139 20106 55001",
      "metarTime": "2026-04-22T12:00:00.000Z",
      "taf": "",
      "tafTime": ""
    }
  }
}
