{
  "updated": "2026-02-11T15:15:00.000Z",
  "airports": {
    "KPOC": {
      "name": "Brackett Field",
      "metar": "METAR KPOC 111447Z 00000KT 2 1/2SM OVC023 12/11 A3007",
      "metarTime": "2026-02-11T15:00:00.000Z",
      "taf": "",
      "tafTime": ""
    },
    "KCCB": {
      "name": "Cable Airport",
      "metar": "METAR KCCB 111515Z AUTO 00000KT 1 1/2SM -RA SCT004 BKN028 OVC033 11/11 A3006 RMK AO2",
      "metarTime": "2026-02-11T15:15:00.000Z",
      "taf": "",
      "tafTime": ""
    },
    "KRAL": {
      "name": "Riverside Municipal",
      "metar": "SPECI KRAL 111512Z 24004KT 3SM -RA BR BKN007 BKN012 OVC027 12/11 A3009 RMK AO2 P0007 T01170111 $",
      "metarTime": "2026-02-11T15:12:00.000Z",
      "taf": "",
      "tafTime": ""
    }
  }
}
