{
  "updated": "2026-05-28T19:15:00.000Z",
  "airports": {
    "KPOC": {
      "name": "Brackett Field",
      "metar": "METAR KPOC 281847Z 20006KT 10SM SCT030 18/05 A2997",
      "metarTime": "2026-05-28T19:00:00.000Z",
      "taf": "",
      "tafTime": ""
    },
    "KCCB": {
      "name": "Cable Airport",
      "metar": "METAR KCCB 281915Z AUTO 25012KT 10SM FEW049 18/04 A2994 RMK AO2",
      "metarTime": "2026-05-28T19:15:00.000Z",
      "taf": "",
      "tafTime": ""
    },
    "KRAL": {
      "name": "Riverside Municipal",
      "metar": "METAR KRAL 281853Z VRB04KT 10SM SCT050 19/04 A2994 RMK AO2 SLP126 T01940044",
      "metarTime": "2026-05-28T19:00:00.000Z",
      "taf": "",
      "tafTime": ""
    }
  }
}
