{
  "updated": "2026-03-12T16:35:00.000Z",
  "airports": {
    "KPOC": {
      "name": "Brackett Field",
      "metar": "METAR KPOC 121547Z 11003KT 10SM CLR 19/07 A3022",
      "metarTime": "2026-03-12T16:00:00.000Z",
      "taf": "",
      "tafTime": ""
    },
    "KCCB": {
      "name": "Cable Airport",
      "metar": "METAR KCCB 121635Z AUTO 00000KT 10SM CLR 23/05 A3022 RMK AO2",
      "metarTime": "2026-03-12T16:35:00.000Z",
      "taf": "",
      "tafTime": ""
    },
    "KRAL": {
      "name": "Riverside Municipal",
      "metar": "METAR KRAL 121553Z 08004KT 10SM CLR 18/07 A3022 RMK AO2 SLP218 T01830072",
      "metarTime": "2026-03-12T16:00:00.000Z",
      "taf": "",
      "tafTime": ""
    }
  }
}
