{
  "updated": "2026-02-03T09:15:00.000Z",
  "airports": {
    "KPOC": {
      "name": "Brackett Field",
      "metar": "",
      "metarTime": "",
      "taf": "",
      "tafTime": ""
    },
    "KCCB": {
      "name": "Cable Airport",
      "metar": "METAR KCCB 030915Z AUTO 00000KT 10SM CLR 14/01 A3017 RMK AO2",
      "metarTime": "2026-02-03T09:15:00.000Z",
      "taf": "",
      "tafTime": ""
    },
    "KRAL": {
      "name": "Riverside Municipal",
      "metar": "METAR KRAL 030853Z AUTO 00000KT 10SM CLR 11/07 A3017 RMK AO2 SLP204 T01110072 50002",
      "metarTime": "2026-02-03T09:00:00.000Z",
      "taf": "",
      "tafTime": ""
    }
  }
}
