{
  "updated": "2026-06-26T14:00:00.000Z",
  "airports": {
    "KPOC": {
      "name": "Brackett Field",
      "metar": "METAR KPOC 261347Z 00000KT 5SM OVC010 17/13 A2994 BR",
      "metarTime": "2026-06-26T14:00:00.000Z",
      "taf": "",
      "tafTime": ""
    },
    "KCCB": {
      "name": "Cable Airport",
      "metar": "METAR KCCB 261355Z AUTO 00000KT 3SM BR FEW008 16/15 A2994 RMK AO2",
      "metarTime": "2026-06-26T14:00:00.000Z",
      "taf": "",
      "tafTime": ""
    },
    "KRAL": {
      "name": "Riverside Municipal",
      "metar": "METAR KRAL 261353Z AUTO 00000KT 7SM OVC011 17/14 A2994 RMK AO2 SLP123 T01670139",
      "metarTime": "2026-06-26T14:00:00.000Z",
      "taf": "",
      "tafTime": ""
    }
  }
}
