{
  "updated": "2026-04-04T22:00:00.000Z",
  "airports": {
    "KPOC": {
      "name": "Brackett Field",
      "metar": "METAR KPOC 042147Z VRB04KT 10SM CLR 30/M13 A2998",
      "metarTime": "2026-04-04T22:00:00.000Z",
      "taf": "",
      "tafTime": ""
    },
    "KCCB": {
      "name": "Cable Airport",
      "metar": "METAR KCCB 042155Z AUTO 24007G12KT 10SM CLR 29/M19 A2999 RMK AO2",
      "metarTime": "2026-04-04T22:00:00.000Z",
      "taf": "",
      "tafTime": ""
    },
    "KRAL": {
      "name": "Riverside Municipal",
      "metar": "METAR KRAL 042153Z 06009G18KT 010V090 10SM CLR 31/M09 A2997 RMK AO2 SLP134 T03111094",
      "metarTime": "2026-04-04T22:00:00.000Z",
      "taf": "",
      "tafTime": ""
    }
  }
}
