{
  "updated": "2026-05-27T10:35:00.000Z",
  "airports": {
    "KPOC": {
      "name": "Brackett Field",
      "metar": "",
      "metarTime": "",
      "taf": "",
      "tafTime": ""
    },
    "KCCB": {
      "name": "Cable Airport",
      "metar": "METAR KCCB 271035Z AUTO 24004KT 9SM BKN023 OVC039 12/12 A2980 RMK AO2",
      "metarTime": "2026-05-27T10:35:00.000Z",
      "taf": "",
      "tafTime": ""
    },
    "KRAL": {
      "name": "Riverside Municipal",
      "metar": "METAR KRAL 270953Z AUTO 27003KT 10SM BKN042 BKN049 OVC060 13/09 A2980 RMK AO2 SLP078 T01330094",
      "metarTime": "2026-05-27T10:00:00.000Z",
      "taf": "",
      "tafTime": ""
    }
  }
}
