{
  "updated": "2026-03-25T01:00:00.000Z",
  "airports": {
    "KPOC": {
      "name": "Brackett Field",
      "metar": "METAR KPOC 250047Z 24010KT 10SM CLR 27/14 A2996",
      "metarTime": "2026-03-25T01:00:00.000Z",
      "taf": "",
      "tafTime": ""
    },
    "KCCB": {
      "name": "Cable Airport",
      "metar": "METAR KCCB 250055Z AUTO 26010G15KT 9SM CLR 27/13 A2996 RMK AO2",
      "metarTime": "2026-03-25T01:00:00.000Z",
      "taf": "",
      "tafTime": ""
    },
    "KRAL": {
      "name": "Riverside Municipal",
      "metar": "METAR KRAL 250053Z 27012G16KT 10SM CLR 27/14 A2994 RMK AO2 SLP124 T02720144",
      "metarTime": "2026-03-25T01:00:00.000Z",
      "taf": "",
      "tafTime": ""
    }
  }
}
