{
  "updated": "2026-07-07T19:15:00.000Z",
  "airports": {
    "KPOC": {
      "name": "Brackett Field",
      "metar": "METAR KPOC 071847Z 26006KT 10SM CLR 29/14 A2997",
      "metarTime": "2026-07-07T19:00:00.000Z",
      "taf": "",
      "tafTime": ""
    },
    "KCCB": {
      "name": "Cable Airport",
      "metar": "METAR KCCB 071915Z AUTO 24009KT 10SM CLR 30/12 A2997 RMK AO2",
      "metarTime": "2026-07-07T19:15:00.000Z",
      "taf": "",
      "tafTime": ""
    },
    "KRAL": {
      "name": "Riverside Municipal",
      "metar": "METAR KRAL 071853Z VRB05KT 10SM CLR 31/10 A2994 RMK AO2 SLP123 T03110100",
      "metarTime": "2026-07-07T19:00:00.000Z",
      "taf": "",
      "tafTime": ""
    }
  }
}
