{
  "updated": "2026-03-05T11:35:00.000Z",
  "airports": {
    "KPOC": {
      "name": "Brackett Field",
      "metar": "",
      "metarTime": "",
      "taf": "",
      "tafTime": ""
    },
    "KCCB": {
      "name": "Cable Airport",
      "metar": "METAR KCCB 051135Z AUTO 00000KT 2SM BR OVC004 12/12 A2990 RMK AO2",
      "metarTime": "2026-03-05T11:35:00.000Z",
      "taf": "",
      "tafTime": ""
    },
    "KRAL": {
      "name": "Riverside Municipal",
      "metar": "METAR KRAL 051053Z AUTO 26003KT 5SM BR OVC005 12/11 A2990 RMK AO2 SLP114 T01220111",
      "metarTime": "2026-03-05T11:00:00.000Z",
      "taf": "",
      "tafTime": ""
    }
  }
}
