{
  "updated": "2026-04-14T13:00:00.000Z",
  "airports": {
    "KPOC": {
      "name": "Brackett Field",
      "metar": "",
      "metarTime": "",
      "taf": "",
      "tafTime": ""
    },
    "KCCB": {
      "name": "Cable Airport",
      "metar": "METAR KCCB 141235Z AUTO 00000KT 10SM CLR 10/05 A3007 RMK AO2",
      "metarTime": "2026-04-14T12:35:00.000Z",
      "taf": "",
      "tafTime": ""
    },
    "KRAL": {
      "name": "Riverside Municipal",
      "metar": "METAR KRAL 141253Z AUTO 00000KT 10SM CLR 08/07 A3008 RMK AO2 SLP178 T00830067",
      "metarTime": "2026-04-14T13:00:00.000Z",
      "taf": "",
      "tafTime": ""
    }
  }
}
