{
  "updated": "2026-07-13T22:35:00.000Z",
  "airports": {
    "KPOC": {
      "name": "Brackett Field",
      "metar": "METAR KPOC 132147Z 26006KT 10SM CLR 28/17 A2998",
      "metarTime": "2026-07-13T22:00:00.000Z",
      "taf": "",
      "tafTime": ""
    },
    "KCCB": {
      "name": "Cable Airport",
      "metar": "METAR KCCB 132235Z AUTO 26005KT 10SM CLR 29/18 A2997 RMK AO2",
      "metarTime": "2026-07-13T22:35:00.000Z",
      "taf": "",
      "tafTime": ""
    },
    "KRAL": {
      "name": "Riverside Municipal",
      "metar": "METAR KRAL 132153Z 27005KT 10SM CLR 29/18 A2996 RMK AO2 SLP129 T02890178",
      "metarTime": "2026-07-13T22:00:00.000Z",
      "taf": "",
      "tafTime": ""
    }
  }
}
