{
  "updated": "2026-02-18T15:00:00.000Z",
  "airports": {
    "KPOC": {
      "name": "Brackett Field",
      "metar": "METAR KPOC 181447Z 28012G21KT 10SM FEW035 07/06 A2993",
      "metarTime": "2026-02-18T15:00:00.000Z",
      "taf": "",
      "tafTime": ""
    },
    "KCCB": {
      "name": "Cable Airport",
      "metar": "METAR KCCB 181455Z AUTO 27007KT 10SM SCT017 SCT022 SCT075 07/06 A2992 RMK AO2",
      "metarTime": "2026-02-18T15:00:00.000Z",
      "taf": "",
      "tafTime": ""
    },
    "KRAL": {
      "name": "Riverside Municipal",
      "metar": "METAR KRAL 181453Z 25007KT 10SM BKN080 08/04 A2994 RMK AO2 SLP132 60003 T00830039 53024",
      "metarTime": "2026-02-18T15:00:00.000Z",
      "taf": "",
      "tafTime": ""
    }
  }
}
