{
  "updated": "2026-04-19T20:15:00.000Z",
  "airports": {
    "KPOC": {
      "name": "Brackett Field",
      "metar": "METAR KPOC 191947Z 27005KT 10SM CLR 24/08 A2994",
      "metarTime": "2026-04-19T20:00:00.000Z",
      "taf": "",
      "tafTime": ""
    },
    "KCCB": {
      "name": "Cable Airport",
      "metar": "METAR KCCB 192015Z AUTO 27009KT 10SM CLR 24/05 A2993 RMK AO2",
      "metarTime": "2026-04-19T20:15:00.000Z",
      "taf": "",
      "tafTime": ""
    },
    "KRAL": {
      "name": "Riverside Municipal",
      "metar": "METAR KRAL 191953Z VRB04KT 10SM CLR 27/06 A2991 RMK AO2 SLP113 T02720056",
      "metarTime": "2026-04-19T20:00:00.000Z",
      "taf": "",
      "tafTime": ""
    }
  }
}
