{
  "updated": "2026-04-05T22:00:00.000Z",
  "airports": {
    "KPOC": {
      "name": "Brackett Field",
      "metar": "METAR KPOC 052147Z 24007KT 10SM CLR 29/M06 A2999",
      "metarTime": "2026-04-05T22:00:00.000Z",
      "taf": "",
      "tafTime": ""
    },
    "KCCB": {
      "name": "Cable Airport",
      "metar": "METAR KCCB 052135Z AUTO 28006G11KT 10SM CLR 29/M12 A2999 RMK AO2",
      "metarTime": "2026-04-05T21:35:00.000Z",
      "taf": "",
      "tafTime": ""
    },
    "KRAL": {
      "name": "Riverside Municipal",
      "metar": "METAR KRAL 052053Z 27010KT 10SM CLR 31/M08 A2997 RMK AO2 SLP133 T03111083 $",
      "metarTime": "2026-04-05T21:00:00.000Z",
      "taf": "",
      "tafTime": ""
    }
  }
}
