{
  "updated": "2026-07-11T19:15:00.000Z",
  "airports": {
    "KPOC": {
      "name": "Brackett Field",
      "metar": "METAR KPOC 111847Z 25010KT 10SM CLR 26/16 A2996",
      "metarTime": "2026-07-11T19:00:00.000Z",
      "taf": "",
      "tafTime": ""
    },
    "KCCB": {
      "name": "Cable Airport",
      "metar": "METAR KCCB 111915Z AUTO 26008KT 10SM CLR 28/14 A2996 RMK AO2",
      "metarTime": "2026-07-11T19:15:00.000Z",
      "taf": "",
      "tafTime": ""
    },
    "KRAL": {
      "name": "Riverside Municipal",
      "metar": "METAR KRAL 111853Z 26006KT 10SM CLR 29/15 A2993 RMK AO2 SLP120 T02940150",
      "metarTime": "2026-07-11T19:00:00.000Z",
      "taf": "",
      "tafTime": ""
    }
  }
}
