{
  "updated": "2026-05-13T20:00:00.000Z",
  "airports": {
    "KPOC": {
      "name": "Brackett Field",
      "metar": "METAR KPOC 131947Z 25009KT 8SM SCT020 21/12 A3009",
      "metarTime": "2026-05-13T20:00:00.000Z",
      "taf": "",
      "tafTime": ""
    },
    "KCCB": {
      "name": "Cable Airport",
      "metar": "METAR KCCB 131955Z AUTO 25010KT 10SM CLR 20/11 A3008 RMK AO2",
      "metarTime": "2026-05-13T20:00:00.000Z",
      "taf": "",
      "tafTime": ""
    },
    "KRAL": {
      "name": "Riverside Municipal",
      "metar": "METAR KRAL 131953Z VRB04G16KT 10SM CLR 23/11 A3006 RMK AO2 SLP167 T02280111",
      "metarTime": "2026-05-13T20:00:00.000Z",
      "taf": "",
      "tafTime": ""
    }
  }
}
