{
  "updated": "2026-07-20T08:15:00.000Z",
  "airports": {
    "KPOC": {
      "name": "Brackett Field",
      "metar": "",
      "metarTime": "",
      "taf": "",
      "tafTime": ""
    },
    "KCCB": {
      "name": "Cable Airport",
      "metar": "METAR KCCB 200815Z AUTO 00000KT 10SM CLR 22/15 A2995 RMK AO2",
      "metarTime": "2026-07-20T08:15:00.000Z",
      "taf": "",
      "tafTime": ""
    },
    "KRAL": {
      "name": "Riverside Municipal",
      "metar": "METAR KRAL 200753Z AUTO 26004KT 10SM CLR 22/16 A2994 RMK AO2 SLP122 T02220161 403610200",
      "metarTime": "2026-07-20T08:00:00.000Z",
      "taf": "",
      "tafTime": ""
    }
  }
}
