{
  "updated": "2026-03-03T15:15:00.000Z",
  "airports": {
    "KPOC": {
      "name": "Brackett Field",
      "metar": "METAR KPOC 031447Z 00000KT 10SM CLR 09/06 A3003",
      "metarTime": "2026-03-03T15:00:00.000Z",
      "taf": "",
      "tafTime": ""
    },
    "KCCB": {
      "name": "Cable Airport",
      "metar": "METAR KCCB 031515Z AUTO 00000KT 10SM CLR 12/07 A3002 RMK AO2",
      "metarTime": "2026-03-03T15:15:00.000Z",
      "taf": "",
      "tafTime": ""
    },
    "KRAL": {
      "name": "Riverside Municipal",
      "metar": "METAR KRAL 031453Z 00000KT 10SM CLR 09/07 A3002 RMK AO2 SLP157 T00890067 53009",
      "metarTime": "2026-03-03T15:00:00.000Z",
      "taf": "",
      "tafTime": ""
    }
  }
}
