{
  "updated": "2026-03-01T13:00:00.000Z",
  "airports": {
    "KPOC": {
      "name": "Brackett Field",
      "metar": "",
      "metarTime": "",
      "taf": "",
      "tafTime": ""
    },
    "KCCB": {
      "name": "Cable Airport",
      "metar": "METAR KCCB 011250Z AUTO 03003KT 10SM CLR 17/06 A2997 RMK AO2",
      "metarTime": "2026-03-01T13:00:00.000Z",
      "taf": "",
      "tafTime": ""
    },
    "KRAL": {
      "name": "Riverside Municipal",
      "metar": "METAR KRAL 011253Z AUTO 08004KT 10SM CLR 13/08 A2997 RMK AO2 SLP132 T01330083",
      "metarTime": "2026-03-01T13:00:00.000Z",
      "taf": "",
      "tafTime": ""
    }
  }
}
