{
  "updated": "2026-04-20T11:00:00.000Z",
  "airports": {
    "KPOC": {
      "name": "Brackett Field",
      "metar": "",
      "metarTime": "",
      "taf": "",
      "tafTime": ""
    },
    "KCCB": {
      "name": "Cable Airport",
      "metar": "METAR KCCB 201055Z AUTO 00000KT 10SM CLR 14/09 A2996 RMK AO2",
      "metarTime": "2026-04-20T11:00:00.000Z",
      "taf": "",
      "tafTime": ""
    },
    "KRAL": {
      "name": "Riverside Municipal",
      "metar": "METAR KRAL 201053Z AUTO 00000KT 10SM CLR 13/08 A2996 RMK AO2 SLP132 T01280078",
      "metarTime": "2026-04-20T11:00:00.000Z",
      "taf": "",
      "tafTime": ""
    }
  }
}
