{
  "updated": "2026-03-24T14:00:00.000Z",
  "airports": {
    "KPOC": {
      "name": "Brackett Field",
      "metar": "METAR KPOC 241347Z 00000KT 2SM BR CLR 14/13 A2999",
      "metarTime": "2026-03-24T14:00:00.000Z",
      "taf": "",
      "tafTime": ""
    },
    "KCCB": {
      "name": "Cable Airport",
      "metar": "METAR KCCB 241355Z AUTO 00000KT 9SM 16/14 A2998 RMK AO2",
      "metarTime": "2026-03-24T14:00:00.000Z",
      "taf": "",
      "tafTime": ""
    },
    "KRAL": {
      "name": "Riverside Municipal",
      "metar": "METAR KRAL 241353Z 00000KT 8SM CLR 14/13 A2998 RMK AO2 SLP139 T01440128",
      "metarTime": "2026-03-24T14:00:00.000Z",
      "taf": "",
      "tafTime": ""
    }
  }
}
