{
  "updated": "2026-05-05T07:00:00.000Z",
  "airports": {
    "KPOC": {
      "name": "Brackett Field",
      "metar": "",
      "metarTime": "",
      "taf": "",
      "tafTime": ""
    },
    "KCCB": {
      "name": "Cable Airport",
      "metar": "METAR KCCB 050655Z AUTO 28005KT 9SM FEW028 BKN032 OVC055 13/12 A2996 RMK AO2",
      "metarTime": "2026-05-05T07:00:00.000Z",
      "taf": "",
      "tafTime": ""
    },
    "KRAL": {
      "name": "Riverside Municipal",
      "metar": "METAR KRAL 050653Z AUTO 28005KT 10SM BKN060 OVC080 13/09 A2997 RMK AO2 SLP135 T01330094",
      "metarTime": "2026-05-05T07:00:00.000Z",
      "taf": "",
      "tafTime": ""
    }
  }
}
