{
  "updated": "2026-03-05T09:15:00.000Z",
  "airports": {
    "KPOC": {
      "name": "Brackett Field",
      "metar": "",
      "metarTime": "",
      "taf": "",
      "tafTime": ""
    },
    "KCCB": {
      "name": "Cable Airport",
      "metar": "METAR KCCB 050915Z AUTO 28005KT 1 1/2SM BR 12/12 A2991 RMK AO2",
      "metarTime": "2026-03-05T09:15:00.000Z",
      "taf": "",
      "tafTime": ""
    },
    "KRAL": {
      "name": "Riverside Municipal",
      "metar": "SPECI KRAL 050910Z AUTO 26003KT 5SM BR OVC005 12/12 A2993 RMK AO2 T01220117",
      "metarTime": "2026-03-05T09:10:00.000Z",
      "taf": "",
      "tafTime": ""
    }
  }
}
