{
  "updated": "2026-05-15T19:00:00.000Z",
  "airports": {
    "KPOC": {
      "name": "Brackett Field",
      "metar": "METAR KPOC 151847Z 00000KT 04SM OVC012 16/13 A3002 BR",
      "metarTime": "2026-05-15T19:00:00.000Z",
      "taf": "",
      "tafTime": ""
    },
    "KCCB": {
      "name": "Cable Airport",
      "metar": "METAR KCCB 151855Z AUTO 26004KT 10SM OVC013 15/14 A3001 RMK AO2",
      "metarTime": "2026-05-15T19:00:00.000Z",
      "taf": "",
      "tafTime": ""
    },
    "KRAL": {
      "name": "Riverside Municipal",
      "metar": "METAR KRAL 151853Z 00000KT 10SM OVC030 19/12 A3000 RMK AO2 SLP147 T01890117",
      "metarTime": "2026-05-15T19:00:00.000Z",
      "taf": "",
      "tafTime": ""
    }
  }
}
