{
  "updated": "2026-02-07T20:35:00.000Z",
  "airports": {
    "KPOC": {
      "name": "Brackett Field",
      "metar": "METAR KPOC 071947Z 28005KT 10SM CLR 21/10 A3017",
      "metarTime": "2026-02-07T20:00:00.000Z",
      "taf": "",
      "tafTime": ""
    },
    "KCCB": {
      "name": "Cable Airport",
      "metar": "METAR KCCB 072035Z AUTO 27009KT 10SM CLR 22/07 A3015 RMK AO2",
      "metarTime": "2026-02-07T20:35:00.000Z",
      "taf": "",
      "tafTime": ""
    },
    "KRAL": {
      "name": "Riverside Municipal",
      "metar": "METAR KRAL 071953Z 00000KT 10SM CLR 22/09 A3015 RMK AO2 SLP197 T02220089",
      "metarTime": "2026-02-07T20:00:00.000Z",
      "taf": "",
      "tafTime": ""
    }
  }
}
