{
  "updated": "2026-07-11T12:35:00.000Z",
  "airports": {
    "KPOC": {
      "name": "Brackett Field",
      "metar": "",
      "metarTime": "",
      "taf": "",
      "tafTime": ""
    },
    "KCCB": {
      "name": "Cable Airport",
      "metar": "METAR KCCB 111235Z AUTO VRB04KT 10SM CLR 18/16 A2995 RMK AO2",
      "metarTime": "2026-07-11T12:35:00.000Z",
      "taf": "",
      "tafTime": ""
    },
    "KRAL": {
      "name": "Riverside Municipal",
      "metar": "METAR KRAL 111153Z AUTO 26003KT 10SM CLR 17/14 A2992 RMK AO2 SLP116 T01670144 10228 20167 52005",
      "metarTime": "2026-07-11T12:00:00.000Z",
      "taf": "",
      "tafTime": ""
    }
  }
}
