{
  "updated": "2026-02-24T19:35:00.000Z",
  "airports": {
    "KPOC": {
      "name": "Brackett Field",
      "metar": "METAR KPOC 241847Z VRB05KT 10SM CLR 23/04 A3009",
      "metarTime": "2026-02-24T19:00:00.000Z",
      "taf": "",
      "tafTime": ""
    },
    "KCCB": {
      "name": "Cable Airport",
      "metar": "METAR KCCB 241935Z AUTO VRB03KT 10SM CLR 24/01 A3007 RMK AO2",
      "metarTime": "2026-02-24T19:35:00.000Z",
      "taf": "",
      "tafTime": ""
    },
    "KRAL": {
      "name": "Riverside Municipal",
      "metar": "SPECI KRAL 241921Z 00000KT 10SM CLR 24/06 A3006 RMK AO2 T02390056",
      "metarTime": "2026-02-24T19:21:00.000Z",
      "taf": "",
      "tafTime": ""
    }
  }
}
