{
  "updated": "2026-03-01T07:00:00.000Z",
  "airports": {
    "KPOC": {
      "name": "Brackett Field",
      "metar": "",
      "metarTime": "",
      "taf": "",
      "tafTime": ""
    },
    "KCCB": {
      "name": "Cable Airport",
      "metar": "METAR KCCB 010655Z AUTO 05004KT 10SM CLR 21/06 A2997 RMK AO2",
      "metarTime": "2026-03-01T07:00:00.000Z",
      "taf": "",
      "tafTime": ""
    },
    "KRAL": {
      "name": "Riverside Municipal",
      "metar": "METAR KRAL 010653Z AUTO 00000KT 10SM CLR 18/08 A2995 RMK AO2 SLP128 T01780083",
      "metarTime": "2026-03-01T07:00:00.000Z",
      "taf": "",
      "tafTime": ""
    }
  }
}
