{
  "updated": "2026-03-16T04:00:00.000Z",
  "airports": {
    "KPOC": {
      "name": "Brackett Field",
      "metar": "METAR KPOC 160347Z 28004KT 10SM CLR 21/12 A2999",
      "metarTime": "2026-03-16T04:00:00.000Z",
      "taf": "",
      "tafTime": ""
    },
    "KCCB": {
      "name": "Cable Airport",
      "metar": "METAR KCCB 160355Z AUTO 29007KT 10SM 22/10 A2998 RMK AO2",
      "metarTime": "2026-03-16T04:00:00.000Z",
      "taf": "",
      "tafTime": ""
    },
    "KRAL": {
      "name": "Riverside Municipal",
      "metar": "METAR KRAL 160353Z AUTO 10SM CLR 22/12 A2997 RMK AO2 SLP136 T02220122",
      "metarTime": "2026-03-16T04:00:00.000Z",
      "taf": "",
      "tafTime": ""
    }
  }
}
