{
  "updated": "2026-04-04T12:15:00.000Z",
  "airports": {
    "KPOC": {
      "name": "Brackett Field",
      "metar": "",
      "metarTime": "",
      "taf": "",
      "tafTime": ""
    },
    "KCCB": {
      "name": "Cable Airport",
      "metar": "METAR KCCB 041215Z AUTO 33006KT 10SM CLR 16/M10 A3000 RMK AO2",
      "metarTime": "2026-04-04T12:15:00.000Z",
      "taf": "",
      "tafTime": ""
    },
    "KRAL": {
      "name": "Riverside Municipal",
      "metar": "METAR KRAL 041153Z AUTO 07005KT 10SM CLR 16/M09 A3002 RMK AO2 SLP151 T01561089 10211 20122 58015",
      "metarTime": "2026-04-04T12:00:00.000Z",
      "taf": "",
      "tafTime": ""
    }
  }
}
