{
  "updated": "2026-04-05T07:00:00.000Z",
  "airports": {
    "KPOC": {
      "name": "Brackett Field",
      "metar": "",
      "metarTime": "",
      "taf": "",
      "tafTime": ""
    },
    "KCCB": {
      "name": "Cable Airport",
      "metar": "METAR KCCB 050635Z AUTO 03004KT 10SM CLR 19/M05 A3003 RMK AO2",
      "metarTime": "2026-04-05T06:35:00.000Z",
      "taf": "",
      "tafTime": ""
    },
    "KRAL": {
      "name": "Riverside Municipal",
      "metar": "METAR KRAL 050653Z AUTO 10003KT 10SM CLR 17/01 A3003 RMK AO2 SLP152 T01720011",
      "metarTime": "2026-04-05T07:00:00.000Z",
      "taf": "",
      "tafTime": ""
    }
  }
}
