{
  "updated": "2026-04-23T18:00:00.000Z",
  "airports": {
    "KPOC": {
      "name": "Brackett Field",
      "metar": "METAR KPOC 231747Z 26005KT 10SM CLR 18/08 A3001",
      "metarTime": "2026-04-23T18:00:00.000Z",
      "taf": "",
      "tafTime": ""
    },
    "KCCB": {
      "name": "Cable Airport",
      "metar": "METAR KCCB 231755Z AUTO VRB04KT 10SM CLR 17/07 A3000 RMK AO2",
      "metarTime": "2026-04-23T18:00:00.000Z",
      "taf": "",
      "tafTime": ""
    },
    "KRAL": {
      "name": "Riverside Municipal",
      "metar": "METAR KRAL 231753Z VRB04KT 10SM CLR 18/07 A3001 RMK AO2 SLP150 T01830072 10183 20089 56009",
      "metarTime": "2026-04-23T18:00:00.000Z",
      "taf": "",
      "tafTime": ""
    }
  }
}
