{
  "updated": "2026-03-11T21:00:00.000Z",
  "airports": {
    "KPOC": {
      "name": "Brackett Field",
      "metar": "METAR KPOC 112047Z 25005KT 10SM CLR 23/10 A3023",
      "metarTime": "2026-03-11T21:00:00.000Z",
      "taf": "",
      "tafTime": ""
    },
    "KCCB": {
      "name": "Cable Airport",
      "metar": "METAR KCCB 112035Z AUTO 24005KT 9SM CLR 23/10 A3024 RMK AO2",
      "metarTime": "2026-03-11T20:35:00.000Z",
      "taf": "",
      "tafTime": ""
    },
    "KRAL": {
      "name": "Riverside Municipal",
      "metar": "METAR KRAL 111953Z VRB03KT 10SM CLR 24/09 A3024 RMK AO2 SLP226 T02390094",
      "metarTime": "2026-03-11T20:00:00.000Z",
      "taf": "",
      "tafTime": ""
    }
  }
}
