{
  "updated": "2026-04-22T17:15:00.000Z",
  "airports": {
    "KPOC": {
      "name": "Brackett Field",
      "metar": "",
      "metarTime": "",
      "taf": "",
      "tafTime": ""
    },
    "KCCB": {
      "name": "Cable Airport",
      "metar": "METAR KCCB 221715Z AUTO VRB04KT 10SM FEW031 15/06 A3015 RMK AO2",
      "metarTime": "2026-04-22T17:15:00.000Z",
      "taf": "",
      "tafTime": ""
    },
    "KRAL": {
      "name": "Riverside Municipal",
      "metar": "METAR KRAL 221653Z VRB04KT 10SM FEW033 17/07 A3015 RMK AO2 SLP197 T01720067",
      "metarTime": "2026-04-22T17:00:00.000Z",
      "taf": "",
      "tafTime": ""
    }
  }
}
