{
  "updated": "2026-02-15T10:35:00.000Z",
  "airports": {
    "KPOC": {
      "name": "Brackett Field",
      "metar": "",
      "metarTime": "",
      "taf": "",
      "tafTime": ""
    },
    "KCCB": {
      "name": "Cable Airport",
      "metar": "METAR KCCB 151035Z AUTO 28003KT 7SM OVC011 11/11 A3003 RMK AO2",
      "metarTime": "2026-02-15T10:35:00.000Z",
      "taf": "",
      "tafTime": ""
    },
    "KRAL": {
      "name": "Riverside Municipal",
      "metar": "SPECI KRAL 151017Z AUTO 00000KT 9SM SCT008 OVC022 09/08 A3004 RMK AO2 T00940083",
      "metarTime": "2026-02-15T10:17:00.000Z",
      "taf": "",
      "tafTime": ""
    }
  }
}
