{
  "updated": "2026-02-06T18:00:00.000Z",
  "airports": {
    "KPOC": {
      "name": "Brackett Field",
      "metar": "METAR KPOC 061747Z 00000KT 10SM CLR 16/10 A3017",
      "metarTime": "2026-02-06T18:00:00.000Z",
      "taf": "",
      "tafTime": ""
    },
    "KCCB": {
      "name": "Cable Airport",
      "metar": "METAR KCCB 061755Z AUTO 19004KT 10SM CLR 16/10 A3015 RMK AO2",
      "metarTime": "2026-02-06T18:00:00.000Z",
      "taf": "",
      "tafTime": ""
    },
    "KRAL": {
      "name": "Riverside Municipal",
      "metar": "METAR KRAL 061753Z 00000KT 10SM CLR 17/09 A3016 RMK AO2 SLP199 T01720089 10172 20100 51001",
      "metarTime": "2026-02-06T18:00:00.000Z",
      "taf": "",
      "tafTime": ""
    }
  }
}
