{
  "updated": "2026-02-17T05:00:00.000Z",
  "airports": {
    "KPOC": {
      "name": "Brackett Field",
      "metar": "METAR KPOC 170347Z 27005KT 2SM OVC015 10/09 A2985 BR",
      "metarTime": "2026-02-17T04:00:00.000Z",
      "taf": "",
      "tafTime": ""
    },
    "KCCB": {
      "name": "Cable Airport",
      "metar": "METAR KCCB 170455Z AUTO 27005KT 10SM FEW008 BKN011 OVC055 09/09 A2987 RMK AO2",
      "metarTime": "2026-02-17T05:00:00.000Z",
      "taf": "",
      "tafTime": ""
    },
    "KRAL": {
      "name": "Riverside Municipal",
      "metar": "METAR KRAL 170453Z AUTO 23007KT 10SM FEW027 SCT044 BKN065 11/09 A2988 RMK AO2 SLP110 T01060089",
      "metarTime": "2026-02-17T05:00:00.000Z",
      "taf": "",
      "tafTime": ""
    }
  }
}
