{
  "updated": "2026-06-20T20:00:00.000Z",
  "airports": {
    "KPOC": {
      "name": "Brackett Field",
      "metar": "METAR KPOC 201947Z 29006KT 10SM CLR 24/12 A2998",
      "metarTime": "2026-06-20T20:00:00.000Z",
      "taf": "",
      "tafTime": ""
    },
    "KCCB": {
      "name": "Cable Airport",
      "metar": "METAR KCCB 201955Z AUTO VRB06G13KT 10SM CLR 23/11 A2998 RMK AO2",
      "metarTime": "2026-06-20T20:00:00.000Z",
      "taf": "",
      "tafTime": ""
    },
    "KRAL": {
      "name": "Riverside Municipal",
      "metar": "METAR KRAL 201953Z VRB04KT 10SM CLR 26/12 A2996 RMK AO2 SLP130 T02610117",
      "metarTime": "2026-06-20T20:00:00.000Z",
      "taf": "",
      "tafTime": ""
    }
  }
}
