{
  "updated": "2026-03-01T17:00:00.000Z",
  "airports": {
    "KPOC": {
      "name": "Brackett Field",
      "metar": "METAR KPOC 011647Z VRB05KT 10SM CLR 21/09 A3002",
      "metarTime": "2026-03-01T17:00:00.000Z",
      "taf": "",
      "tafTime": ""
    },
    "KCCB": {
      "name": "Cable Airport",
      "metar": "METAR KCCB 011655Z AUTO 00000KT 10SM CLR 22/07 A3002 RMK AO2",
      "metarTime": "2026-03-01T17:00:00.000Z",
      "taf": "",
      "tafTime": ""
    },
    "KRAL": {
      "name": "Riverside Municipal",
      "metar": "METAR KRAL 011653Z 00000KT 10SM CLR 19/09 A3001 RMK AO2 SLP149 T01940089",
      "metarTime": "2026-03-01T17:00:00.000Z",
      "taf": "",
      "tafTime": ""
    }
  }
}
