{
  "updated": "2026-03-18T23:15:00.000Z",
  "airports": {
    "KPOC": {
      "name": "Brackett Field",
      "metar": "METAR KPOC 182247Z 26009KT 10SM CLR 35/06 A3001",
      "metarTime": "2026-03-18T23:00:00.000Z",
      "taf": "",
      "tafTime": ""
    },
    "KCCB": {
      "name": "Cable Airport",
      "metar": "METAR KCCB 182315Z AUTO 26011KT 10SM CLR 35/03 A3001 RMK AO2",
      "metarTime": "2026-03-18T23:15:00.000Z",
      "taf": "",
      "tafTime": ""
    },
    "KRAL": {
      "name": "Riverside Municipal",
      "metar": "METAR KRAL 182253Z 28011G19KT 10SM CLR 36/07 A2997 RMK AO2 SLP132 T03610072",
      "metarTime": "2026-03-18T23:00:00.000Z",
      "taf": "",
      "tafTime": ""
    }
  }
}
