{
  "updated": "2026-07-06T21:00:00.000Z",
  "airports": {
    "KPOC": {
      "name": "Brackett Field",
      "metar": "METAR KPOC 062047Z 25012G17KT 10SM CLR 31/14 A2994",
      "metarTime": "2026-07-06T21:00:00.000Z",
      "taf": "",
      "tafTime": ""
    },
    "KCCB": {
      "name": "Cable Airport",
      "metar": "METAR KCCB 062055Z AUTO 26011KT 10SM CLR 31/12 A2995 RMK AO2",
      "metarTime": "2026-07-06T21:00:00.000Z",
      "taf": "",
      "tafTime": ""
    },
    "KRAL": {
      "name": "Riverside Municipal",
      "metar": "METAR KRAL 062053Z 27012G17KT 10SM CLR 34/14 A2991 RMK AO2 SLP110 T03390139 58012",
      "metarTime": "2026-07-06T21:00:00.000Z",
      "taf": "",
      "tafTime": ""
    }
  }
}
