{
  "updated": "2026-04-04T19:15:00.000Z",
  "airports": {
    "KPOC": {
      "name": "Brackett Field",
      "metar": "METAR KPOC 041847Z 18003KT 10SM CLR 27/M07 A3006",
      "metarTime": "2026-04-04T19:00:00.000Z",
      "taf": "",
      "tafTime": ""
    },
    "KCCB": {
      "name": "Cable Airport",
      "metar": "METAR KCCB 041915Z AUTO VRB03KT 10SM CLR 27/M16 A3005 RMK AO2",
      "metarTime": "2026-04-04T19:15:00.000Z",
      "taf": "",
      "tafTime": ""
    },
    "KRAL": {
      "name": "Riverside Municipal",
      "metar": "METAR KRAL 041853Z 03008G17KT 10SM CLR 28/M08 A3005 RMK AO2 SLP159 T02831083",
      "metarTime": "2026-04-04T19:00:00.000Z",
      "taf": "",
      "tafTime": ""
    }
  }
}
