{
  "updated": "2026-02-27T09:00:00.000Z",
  "airports": {
    "KPOC": {
      "name": "Brackett Field",
      "metar": "",
      "metarTime": "",
      "taf": "",
      "tafTime": ""
    },
    "KCCB": {
      "name": "Cable Airport",
      "metar": "METAR KCCB 270855Z AUTO 00000KT 10SM CLR 21/07 A3002 RMK AO2",
      "metarTime": "2026-02-27T09:00:00.000Z",
      "taf": "",
      "tafTime": ""
    },
    "KRAL": {
      "name": "Riverside Municipal",
      "metar": "METAR KRAL 270853Z AUTO 10004KT 10SM CLR 18/11 A3001 RMK AO2 SLP147 T01780106 58005",
      "metarTime": "2026-02-27T09:00:00.000Z",
      "taf": "",
      "tafTime": ""
    }
  }
}
