{
  "updated": "2026-05-09T17:15:00.000Z",
  "airports": {
    "KPOC": {
      "name": "Brackett Field",
      "metar": "METAR KPOC 091647Z 00000KT 3SM CLR 19/14 A2995 HZ",
      "metarTime": "2026-05-09T17:00:00.000Z",
      "taf": "",
      "tafTime": ""
    },
    "KCCB": {
      "name": "Cable Airport",
      "metar": "METAR KCCB 091715Z AUTO VRB04KT 4SM HZ CLR 20/14 A2994 RMK AO2",
      "metarTime": "2026-05-09T17:15:00.000Z",
      "taf": "",
      "tafTime": ""
    },
    "KRAL": {
      "name": "Riverside Municipal",
      "metar": "METAR KRAL 091653Z 29004KT 3SM HZ CLR 18/14 A2993 RMK AO2 SLP124 T01830139 $",
      "metarTime": "2026-05-09T17:00:00.000Z",
      "taf": "",
      "tafTime": ""
    }
  }
}
