{
  "updated": "2026-03-25T18:35:00.000Z",
  "airports": {
    "KPOC": {
      "name": "Brackett Field",
      "metar": "METAR KPOC 251747Z 00000KT 5SM HZ CLR 22/14 A3003",
      "metarTime": "2026-03-25T18:00:00.000Z",
      "taf": "",
      "tafTime": ""
    },
    "KCCB": {
      "name": "Cable Airport",
      "metar": "METAR KCCB 251835Z AUTO 00000KT 6SM HZ CLR 25/14 A3001 RMK AO2",
      "metarTime": "2026-03-25T18:35:00.000Z",
      "taf": "",
      "tafTime": ""
    },
    "KRAL": {
      "name": "Riverside Municipal",
      "metar": "METAR KRAL 251753Z 24004KT 9SM CLR 24/13 A3001 RMK AO2 SLP147 T02390133 10239 20139 50001",
      "metarTime": "2026-03-25T18:00:00.000Z",
      "taf": "",
      "tafTime": ""
    }
  }
}
