{
  "updated": "2026-02-25T18:35:00.000Z",
  "airports": {
    "KPOC": {
      "name": "Brackett Field",
      "metar": "METAR KPOC 251747Z 00000KT 10SM CLR 20/08 A3009",
      "metarTime": "2026-02-25T18:00:00.000Z",
      "taf": "",
      "tafTime": ""
    },
    "KCCB": {
      "name": "Cable Airport",
      "metar": "METAR KCCB 251835Z AUTO VRB04KT 10SM CLR 22/05 A3008 RMK AO2",
      "metarTime": "2026-02-25T18:35:00.000Z",
      "taf": "",
      "tafTime": ""
    },
    "KRAL": {
      "name": "Riverside Municipal",
      "metar": "METAR KRAL 251753Z 00000KT 10SM CLR 20/08 A3007 RMK AO2 SLP171 T02000083 10200 20094 50011",
      "metarTime": "2026-02-25T18:00:00.000Z",
      "taf": "",
      "tafTime": ""
    }
  }
}
