{
  "updated": "2026-06-08T05:00:00.000Z",
  "airports": {
    "KPOC": {
      "name": "Brackett Field",
      "metar": "",
      "metarTime": "",
      "taf": "",
      "tafTime": ""
    },
    "KCCB": {
      "name": "Cable Airport",
      "metar": "METAR KCCB 080455Z AUTO 25009KT 10SM 17/14 A2986 RMK AO2",
      "metarTime": "2026-06-08T05:00:00.000Z",
      "taf": "",
      "tafTime": ""
    },
    "KRAL": {
      "name": "Riverside Municipal",
      "metar": "METAR KRAL 080453Z AUTO VRB04KT 10SM CLR 18/13 A2986 RMK AO2 SLP097 T01780133",
      "metarTime": "2026-06-08T05:00:00.000Z",
      "taf": "",
      "tafTime": ""
    }
  }
}
