{
  "updated": "2026-03-12T23:35:00.000Z",
  "airports": {
    "KPOC": {
      "name": "Brackett Field",
      "metar": "",
      "metarTime": "",
      "taf": "",
      "tafTime": ""
    },
    "KCCB": {
      "name": "Cable Airport",
      "metar": "METAR KCCB 122335Z AUTO 22006KT 10SM CLR 31/M02 A3008 RMK AO2",
      "metarTime": "2026-03-12T23:35:00.000Z",
      "taf": "",
      "tafTime": ""
    },
    "KRAL": {
      "name": "Riverside Municipal",
      "metar": "METAR KRAL 122253Z 02008G19KT 10SM CLR 33/M02 A3005 RMK AO2 SLP161 T03331022",
      "metarTime": "2026-03-12T23:00:00.000Z",
      "taf": "",
      "tafTime": ""
    }
  }
}
