{
  "updated": "2026-05-03T12:35:00.000Z",
  "airports": {
    "KPOC": {
      "name": "Brackett Field",
      "metar": "",
      "metarTime": "",
      "taf": "",
      "tafTime": ""
    },
    "KCCB": {
      "name": "Cable Airport",
      "metar": "METAR KCCB 031235Z AUTO 28004KT 4SM BR OVC007 14/14 A2990 RMK AO2",
      "metarTime": "2026-05-03T12:35:00.000Z",
      "taf": "",
      "tafTime": ""
    },
    "KRAL": {
      "name": "Riverside Municipal",
      "metar": "METAR KRAL 031153Z AUTO 30003KT 6SM BR OVC007 14/13 A2990 RMK AO2 SLP112 T01390128 10156 20139 58004",
      "metarTime": "2026-05-03T12:00:00.000Z",
      "taf": "",
      "tafTime": ""
    }
  }
}
