{
  "updated": "2026-03-19T05:15:00.000Z",
  "airports": {
    "KPOC": {
      "name": "Brackett Field",
      "metar": "",
      "metarTime": "",
      "taf": "",
      "tafTime": ""
    },
    "KCCB": {
      "name": "Cable Airport",
      "metar": "METAR KCCB 190515Z AUTO 00000KT 10SM 25/08 A3008 RMK AO2",
      "metarTime": "2026-03-19T05:15:00.000Z",
      "taf": "",
      "tafTime": ""
    },
    "KRAL": {
      "name": "Riverside Municipal",
      "metar": "METAR KRAL 190453Z AUTO 02004KT 10SM CLR 25/10 A3006 RMK AO2 SLP161 T02500100",
      "metarTime": "2026-03-19T05:00:00.000Z",
      "taf": "",
      "tafTime": ""
    }
  }
}
