{
  "updated": "2026-07-10T22:00:00.000Z",
  "airports": {
    "KPOC": {
      "name": "Brackett Field",
      "metar": "METAR KPOC 102147Z 24014KT 10SM CLR 29/16 A2989",
      "metarTime": "2026-07-10T22:00:00.000Z",
      "taf": "",
      "tafTime": ""
    },
    "KCCB": {
      "name": "Cable Airport",
      "metar": "METAR KCCB 102135Z AUTO 26015KT 10SM CLR 30/14 A2990 RMK AO2",
      "metarTime": "2026-07-10T21:35:00.000Z",
      "taf": "",
      "tafTime": ""
    },
    "KRAL": {
      "name": "Riverside Municipal",
      "metar": "METAR KRAL 102153Z 27011G20KT 10SM CLR 32/14 A2986 RMK AO2 SLP093 T03170139",
      "metarTime": "2026-07-10T22:00:00.000Z",
      "taf": "",
      "tafTime": ""
    }
  }
}
