{
  "updated": "2026-02-23T07:35:00.000Z",
  "airports": {
    "KPOC": {
      "name": "Brackett Field",
      "metar": "",
      "metarTime": "",
      "taf": "",
      "tafTime": ""
    },
    "KCCB": {
      "name": "Cable Airport",
      "metar": "METAR KCCB 230735Z AUTO 36006KT 10SM CLR 17/M07 A3020 RMK AO2",
      "metarTime": "2026-02-23T07:35:00.000Z",
      "taf": "",
      "tafTime": ""
    },
    "KRAL": {
      "name": "Riverside Municipal",
      "metar": "METAR KRAL 230653Z AUTO 00000KT 10SM CLR 14/02 A3020 RMK AO2 SLP212 T01390022 $",
      "metarTime": "2026-02-23T07:00:00.000Z",
      "taf": "",
      "tafTime": ""
    }
  }
}
