{
  "updated": "2026-04-03T09:00:00.000Z",
  "airports": {
    "KPOC": {
      "name": "Brackett Field",
      "metar": "",
      "metarTime": "",
      "taf": "",
      "tafTime": ""
    },
    "KCCB": {
      "name": "Cable Airport",
      "metar": "METAR KCCB 030855Z AUTO 00000KT 10SM FEW039 13/11 A2996 RMK AO2",
      "metarTime": "2026-04-03T09:00:00.000Z",
      "taf": "",
      "tafTime": ""
    },
    "KRAL": {
      "name": "Riverside Municipal",
      "metar": "METAR KRAL 030853Z AUTO 00000KT 10SM CLR 13/09 A2997 RMK AO2 SLP137 T01330094 58001",
      "metarTime": "2026-04-03T09:00:00.000Z",
      "taf": "",
      "tafTime": ""
    }
  }
}
