{
  "updated": "2026-05-10T23:35:00.000Z",
  "airports": {
    "KPOC": {
      "name": "Brackett Field",
      "metar": "METAR KPOC 102247Z 25012KT 10SM CLR 28/13 A2991",
      "metarTime": "2026-05-10T23:00:00.000Z",
      "taf": "",
      "tafTime": ""
    },
    "KCCB": {
      "name": "Cable Airport",
      "metar": "METAR KCCB 102335Z AUTO 26012G19KT 10SM CLR 29/12 A2991 RMK AO2",
      "metarTime": "2026-05-10T23:35:00.000Z",
      "taf": "",
      "tafTime": ""
    },
    "KRAL": {
      "name": "Riverside Municipal",
      "metar": "METAR KRAL 102253Z 27013G20KT 10SM CLR 31/11 A2988 RMK AO2 SLP103 T03060111",
      "metarTime": "2026-05-10T23:00:00.000Z",
      "taf": "",
      "tafTime": ""
    }
  }
}
