{
  "updated": "2026-07-05T22:35:00.000Z",
  "airports": {
    "KPOC": {
      "name": "Brackett Field",
      "metar": "METAR KPOC 052147Z 25013KT 7SM CLR 30/16 A2996",
      "metarTime": "2026-07-05T22:00:00.000Z",
      "taf": "",
      "tafTime": ""
    },
    "KCCB": {
      "name": "Cable Airport",
      "metar": "METAR KCCB 052235Z AUTO 26014KT 10SM CLR 30/14 A2995 RMK AO2",
      "metarTime": "2026-07-05T22:35:00.000Z",
      "taf": "",
      "tafTime": ""
    },
    "KRAL": {
      "name": "Riverside Municipal",
      "metar": "METAR KRAL 052153Z 28012G24KT 10SM CLR 32/15 A2993 RMK AO2 PK WND 26027/2134 SLP117 T03170150",
      "metarTime": "2026-07-05T22:00:00.000Z",
      "taf": "",
      "tafTime": ""
    }
  }
}
