{
  "updated": "2026-05-01T13:15:00.000Z",
  "airports": {
    "KPOC": {
      "name": "Brackett Field",
      "metar": "",
      "metarTime": "",
      "taf": "",
      "tafTime": ""
    },
    "KCCB": {
      "name": "Cable Airport",
      "metar": "METAR KCCB 011315Z AUTO 00000KT 4SM BR OVC006 13/13 A2995 RMK AO2",
      "metarTime": "2026-05-01T13:15:00.000Z",
      "taf": "",
      "tafTime": ""
    },
    "KRAL": {
      "name": "Riverside Municipal",
      "metar": "METAR KRAL 011253Z AUTO 00000KT 10SM OVC011 14/12 A2994 RMK AO2 SLP126 T01440117",
      "metarTime": "2026-05-01T13:00:00.000Z",
      "taf": "",
      "tafTime": ""
    }
  }
}
