{
  "updated": "2026-03-10T01:00:00.000Z",
  "airports": {
    "KPOC": {
      "name": "Brackett Field",
      "metar": "METAR KPOC 100047Z 24010KT 10SM CLR 232/10 A2987",
      "metarTime": "2026-03-10T01:00:00.000Z",
      "taf": "",
      "tafTime": ""
    },
    "KCCB": {
      "name": "Cable Airport",
      "metar": "METAR KCCB 100055Z AUTO 24011KT 10SM CLR 21/09 A2987 RMK AO2",
      "metarTime": "2026-03-10T01:00:00.000Z",
      "taf": "",
      "tafTime": ""
    },
    "KRAL": {
      "name": "Riverside Municipal",
      "metar": "METAR KRAL 100053Z 25015KT 10SM CLR 21/11 A2986 RMK AO2 SLP099 T02060106",
      "metarTime": "2026-03-10T01:00:00.000Z",
      "taf": "",
      "tafTime": ""
    }
  }
}
