{
  "updated": "2026-03-21T17:35:00.000Z",
  "airports": {
    "KPOC": {
      "name": "Brackett Field",
      "metar": "METAR KPOC 211647Z 18003KT 10SM CLR 24/11 A2998",
      "metarTime": "2026-03-21T17:00:00.000Z",
      "taf": "",
      "tafTime": ""
    },
    "KCCB": {
      "name": "Cable Airport",
      "metar": "METAR KCCB 211735Z AUTO 00000KT 10SM CLR 26/08 A2999 RMK AO2",
      "metarTime": "2026-03-21T17:35:00.000Z",
      "taf": "",
      "tafTime": ""
    },
    "KRAL": {
      "name": "Riverside Municipal",
      "metar": "METAR KRAL 211653Z 00000KT 10SM CLR 24/08 A2997 RMK AO2 SLP131 T02440078",
      "metarTime": "2026-03-21T17:00:00.000Z",
      "taf": "",
      "tafTime": ""
    }
  }
}
