{
  "updated": "2026-05-27T17:15:00.000Z",
  "airports": {
    "KPOC": {
      "name": "Brackett Field",
      "metar": "METAR KPOC 271647Z VRB03KT 10SM SCT015 BKN030 16/08 A2986",
      "metarTime": "2026-05-27T17:00:00.000Z",
      "taf": "",
      "tafTime": ""
    },
    "KCCB": {
      "name": "Cable Airport",
      "metar": "METAR KCCB 271715Z AUTO 06003KT 10SM FEW039 BKN055 16/07 A2985 RMK AO2",
      "metarTime": "2026-05-27T17:15:00.000Z",
      "taf": "",
      "tafTime": ""
    },
    "KRAL": {
      "name": "Riverside Municipal",
      "metar": "METAR KRAL 271653Z 00000KT 10SM FEW042 OVC060 17/07 A2984 RMK AO2 SLP094 T01670067",
      "metarTime": "2026-05-27T17:00:00.000Z",
      "taf": "",
      "tafTime": ""
    }
  }
}
