{
  "updated": "2026-06-15T00:00:00.000Z",
  "airports": {
    "KPOC": {
      "name": "Brackett Field",
      "metar": "METAR KPOC 142247Z 25011G18KT 10SM CLR 30/12 A2996",
      "metarTime": "2026-06-14T23:00:00.000Z",
      "taf": "",
      "tafTime": ""
    },
    "KCCB": {
      "name": "Cable Airport",
      "metar": "METAR KCCB 142355Z AUTO 26014G20KT 10SM CLR 29/10 A2995 RMK AO2",
      "metarTime": "2026-06-15T00:00:00.000Z",
      "taf": "",
      "tafTime": ""
    },
    "KRAL": {
      "name": "Riverside Municipal",
      "metar": "METAR KRAL 142353Z 26012G19KT 10SM CLR 32/11 A2992 RMK AO2 SLP115 T03220106 10333 20289 56010",
      "metarTime": "2026-06-15T00:00:00.000Z",
      "taf": "",
      "tafTime": ""
    }
  }
}
