{
  "updated": "2026-02-25T12:15:00.000Z",
  "airports": {
    "KPOC": {
      "name": "Brackett Field",
      "metar": "",
      "metarTime": "",
      "taf": "",
      "tafTime": ""
    },
    "KCCB": {
      "name": "Cable Airport",
      "metar": "METAR KCCB 251215Z AUTO 01004KT 10SM CLR 15/05 A3003 RMK AO2",
      "metarTime": "2026-02-25T12:15:00.000Z",
      "taf": "",
      "tafTime": ""
    },
    "KRAL": {
      "name": "Riverside Municipal",
      "metar": "METAR KRAL 251153Z AUTO 04004KT 10SM CLR 12/07 A3002 RMK AO2 SLP154 T01220072 10161 20111 56006",
      "metarTime": "2026-02-25T12:00:00.000Z",
      "taf": "",
      "tafTime": ""
    }
  }
}
