{
  "updated": "2026-06-05T22:00:00.000Z",
  "airports": {
    "KPOC": {
      "name": "Brackett Field",
      "metar": "METAR KPOC 052147Z 23010KT 10SM CLR 27/15 A2985",
      "metarTime": "2026-06-05T22:00:00.000Z",
      "taf": "",
      "tafTime": ""
    },
    "KCCB": {
      "name": "Cable Airport",
      "metar": "METAR KCCB 052135Z AUTO 27015KT 9SM CLR 28/14 A2985 RMK AO2",
      "metarTime": "2026-06-05T21:35:00.000Z",
      "taf": "",
      "tafTime": ""
    },
    "KRAL": {
      "name": "Riverside Municipal",
      "metar": "METAR KRAL 052053Z 27012G17KT 10SM CLR 31/14 A2982 RMK AO2 SLP083 T03060139 56010",
      "metarTime": "2026-06-05T21:00:00.000Z",
      "taf": "",
      "tafTime": ""
    }
  }
}
