{
  "updated": "2026-05-19T06:15:00.000Z",
  "airports": {
    "KPOC": {
      "name": "Brackett Field",
      "metar": "",
      "metarTime": "",
      "taf": "",
      "tafTime": ""
    },
    "KCCB": {
      "name": "Cable Airport",
      "metar": "METAR KCCB 190615Z AUTO 28003KT 9SM CLR 15/12 A2996 RMK AO2",
      "metarTime": "2026-05-19T06:15:00.000Z",
      "taf": "",
      "tafTime": ""
    },
    "KRAL": {
      "name": "Riverside Municipal",
      "metar": "METAR KRAL 190553Z AUTO 00000KT 10SM CLR 17/12 A2996 RMK AO2 SLP133 T01670117 10267 20161 51025",
      "metarTime": "2026-05-19T06:00:00.000Z",
      "taf": "",
      "tafTime": ""
    }
  }
}
