{
  "updated": "2026-02-23T06:15:00.000Z",
  "airports": {
    "KPOC": {
      "name": "Brackett Field",
      "metar": "",
      "metarTime": "",
      "taf": "",
      "tafTime": ""
    },
    "KCCB": {
      "name": "Cable Airport",
      "metar": "METAR KCCB 230615Z AUTO 00000KT 10SM CLR 16/M03 A3020 RMK AO2",
      "metarTime": "2026-02-23T06:15:00.000Z",
      "taf": "",
      "tafTime": ""
    },
    "KRAL": {
      "name": "Riverside Municipal",
      "metar": "METAR KRAL 230553Z AUTO 04004KT 10SM CLR 15/02 A3020 RMK AO2 SLP215 T01500017 10250 20150 51008 $",
      "metarTime": "2026-02-23T06:00:00.000Z",
      "taf": "",
      "tafTime": ""
    }
  }
}
