{
  "updated": "2026-03-28T09:15:00.000Z",
  "airports": {
    "KPOC": {
      "name": "Brackett Field",
      "metar": "",
      "metarTime": "",
      "taf": "",
      "tafTime": ""
    },
    "KCCB": {
      "name": "Cable Airport",
      "metar": "METAR KCCB 280915Z AUTO 02004KT 10SM 19/00 A2999 RMK AO2",
      "metarTime": "2026-03-28T09:15:00.000Z",
      "taf": "",
      "tafTime": ""
    },
    "KRAL": {
      "name": "Riverside Municipal",
      "metar": "METAR KRAL 280853Z AUTO 00000KT 9SM CLR 16/13 A2999 RMK AO2 SLP139 T01560128 58000",
      "metarTime": "2026-03-28T09:00:00.000Z",
      "taf": "",
      "tafTime": ""
    }
  }
}
