{
  "updated": "2026-04-07T20:15:00.000Z",
  "airports": {
    "KPOC": {
      "name": "Brackett Field",
      "metar": "METAR KPOC 071947Z 28006KT 10SM CLR 23/10 A2998",
      "metarTime": "2026-04-07T20:00:00.000Z",
      "taf": "",
      "tafTime": ""
    },
    "KCCB": {
      "name": "Cable Airport",
      "metar": "METAR KCCB 072015Z AUTO 30005KT 10SM CLR 23/08 A2997 RMK AO2",
      "metarTime": "2026-04-07T20:15:00.000Z",
      "taf": "",
      "tafTime": ""
    },
    "KRAL": {
      "name": "Riverside Municipal",
      "metar": "METAR KRAL 071953Z 25003KT 7SM CLR 25/07 A2996 RMK AO2 SLP131 T02500072",
      "metarTime": "2026-04-07T20:00:00.000Z",
      "taf": "",
      "tafTime": ""
    }
  }
}
