{
  "updated": "2026-02-11T06:00:00.000Z",
  "airports": {
    "KPOC": {
      "name": "Brackett Field",
      "metar": "METAR KPOC 110447Z 00000KT 7SM OVC085 14/10 A3002 RMK LAST",
      "metarTime": "2026-02-11T05:00:00.000Z",
      "taf": "",
      "tafTime": ""
    },
    "KCCB": {
      "name": "Cable Airport",
      "metar": "METAR KCCB 110555Z AUTO 00000KT 10SM SCT021 SCT031 13/12 A3000 RMK AO2",
      "metarTime": "2026-02-11T06:00:00.000Z",
      "taf": "",
      "tafTime": ""
    },
    "KRAL": {
      "name": "Riverside Municipal",
      "metar": "METAR KRAL 110553Z AUTO 00000KT 10SM CLR 14/10 A2999 RMK AO2 SLP146 T01440100 10161 20144 58001 $",
      "metarTime": "2026-02-11T06:00:00.000Z",
      "taf": "",
      "tafTime": ""
    }
  }
}
