{
  "updated": "2026-03-08T15:35:00.000Z",
  "airports": {
    "KPOC": {
      "name": "Brackett Field",
      "metar": "METAR KPOC 081447Z 00000KT 10SM CLR 13/M03 A2995",
      "metarTime": "2026-03-08T15:00:00.000Z",
      "taf": "",
      "tafTime": ""
    },
    "KCCB": {
      "name": "Cable Airport",
      "metar": "METAR KCCB 081535Z AUTO 00000KT 10SM CLR 19/M08 A2995 RMK AO2",
      "metarTime": "2026-03-08T15:35:00.000Z",
      "taf": "",
      "tafTime": ""
    },
    "KRAL": {
      "name": "Riverside Municipal",
      "metar": "METAR KRAL 081453Z VRB03KT 10SM CLR 20/M09 A2996 RMK AO2 SLP131 T02001094 53002",
      "metarTime": "2026-03-08T15:00:00.000Z",
      "taf": "",
      "tafTime": ""
    }
  }
}
