{
  "updated": "2026-04-27T18:00:00.000Z",
  "airports": {
    "KPOC": {
      "name": "Brackett Field",
      "metar": "METAR KPOC 271747Z 24010KT 10SM SCT045 BKN055 16/03 A3002",
      "metarTime": "2026-04-27T18:00:00.000Z",
      "taf": "",
      "tafTime": ""
    },
    "KCCB": {
      "name": "Cable Airport",
      "metar": "METAR KCCB 271755Z AUTO 22005G12KT 10SM BKN050 OVC055 14/01 A3001 RMK AO2",
      "metarTime": "2026-04-27T18:00:00.000Z",
      "taf": "",
      "tafTime": ""
    },
    "KRAL": {
      "name": "Riverside Municipal",
      "metar": "METAR KRAL 271753Z 22008KT 10SM SCT060 17/03 A3002 RMK AO2 SLP154 60000 T01670028 10172 20111 53005",
      "metarTime": "2026-04-27T18:00:00.000Z",
      "taf": "",
      "tafTime": ""
    }
  }
}
