{
  "updated": "2026-07-04T10:15:00.000Z",
  "airports": {
    "KPOC": {
      "name": "Brackett Field",
      "metar": "",
      "metarTime": "",
      "taf": "",
      "tafTime": ""
    },
    "KCCB": {
      "name": "Cable Airport",
      "metar": "METAR KCCB 041015Z AUTO 00000KT 10SM 17/12 A3000 RMK AO2",
      "metarTime": "2026-07-04T10:15:00.000Z",
      "taf": "",
      "tafTime": ""
    },
    "KRAL": {
      "name": "Riverside Municipal",
      "metar": "METAR KRAL 040953Z AUTO 00000KT 10SM CLR 18/14 A3000 RMK AO2 SLP141 T01780139",
      "metarTime": "2026-07-04T10:00:00.000Z",
      "taf": "",
      "tafTime": ""
    }
  }
}
