{
  "updated": "2026-03-02T22:00:00.000Z",
  "airports": {
    "KPOC": {
      "name": "Brackett Field",
      "metar": "",
      "metarTime": "",
      "taf": "",
      "tafTime": ""
    },
    "KCCB": {
      "name": "Cable Airport",
      "metar": "METAR KCCB 022155Z AUTO 25011KT 10SM CLR 21/09 A2995 RMK AO2",
      "metarTime": "2026-03-02T22:00:00.000Z",
      "taf": "",
      "tafTime": ""
    },
    "KRAL": {
      "name": "Riverside Municipal",
      "metar": "METAR KRAL 022153Z 27012G16KT 10SM CLR 23/09 A2994 RMK AO2 SLP124 T02330094",
      "metarTime": "2026-03-02T22:00:00.000Z",
      "taf": "",
      "tafTime": ""
    }
  }
}
