{
  "updated": "2026-02-21T23:00:00.000Z",
  "airports": {
    "KPOC": {
      "name": "Brackett Field",
      "metar": "METAR KPOC 212247Z 12009KT 10SM CLR 20/M04 A3012",
      "metarTime": "2026-02-21T23:00:00.000Z",
      "taf": "",
      "tafTime": ""
    },
    "KCCB": {
      "name": "Cable Airport",
      "metar": "METAR KCCB 212255Z AUTO VRB06G11KT 10SM CLR 20/M10 A3012 RMK AO2",
      "metarTime": "2026-02-21T23:00:00.000Z",
      "taf": "",
      "tafTime": ""
    },
    "KRAL": {
      "name": "Riverside Municipal",
      "metar": "METAR KRAL 212253Z AUTO 07008KT 10SM CLR 20/M02 A3012 RMK AO2 SLP190 T02001017 $",
      "metarTime": "2026-02-21T23:00:00.000Z",
      "taf": "",
      "tafTime": ""
    }
  }
}
