{
  "updated": "2026-05-01T05:15:00.000Z",
  "airports": {
    "KPOC": {
      "name": "Brackett Field",
      "metar": "",
      "metarTime": "",
      "taf": "",
      "tafTime": ""
    },
    "KCCB": {
      "name": "Cable Airport",
      "metar": "METAR KCCB 010515Z AUTO 27006KT 10SM CLR 16/13 A2993 RMK AO2",
      "metarTime": "2026-05-01T05:15:00.000Z",
      "taf": "",
      "tafTime": ""
    },
    "KRAL": {
      "name": "Riverside Municipal",
      "metar": "METAR KRAL 010453Z AUTO 10SM CLR 16/12 A2992 RMK AO2 SLP120 T01610122",
      "metarTime": "2026-05-01T05:00:00.000Z",
      "taf": "",
      "tafTime": ""
    }
  }
}
