{
  "updated": "2026-05-20T12:15:00.000Z",
  "airports": {
    "KPOC": {
      "name": "Brackett Field",
      "metar": "",
      "metarTime": "",
      "taf": "",
      "tafTime": ""
    },
    "KCCB": {
      "name": "Cable Airport",
      "metar": "METAR KCCB 201215Z AUTO 05005KT 10SM 19/M06 A2993 RMK AO2",
      "metarTime": "2026-05-20T12:15:00.000Z",
      "taf": "",
      "tafTime": ""
    },
    "KRAL": {
      "name": "Riverside Municipal",
      "metar": "METAR KRAL 201153Z AUTO 00000KT 10SM FU CLR 14/03 A2993 RMK AO2 SLP119 T01390028 10206 20139 57008",
      "metarTime": "2026-05-20T12:00:00.000Z",
      "taf": "",
      "tafTime": ""
    }
  }
}
