{
  "updated": "2026-06-04T15:35:00.000Z",
  "airports": {
    "KPOC": {
      "name": "Brackett Field",
      "metar": "",
      "metarTime": "",
      "taf": "",
      "tafTime": ""
    },
    "KCCB": {
      "name": "Cable Airport",
      "metar": "METAR KCCB 041535Z AUTO VRB04KT 6SM HZ CLR 18/15 A2991 RMK AO2",
      "metarTime": "2026-06-04T15:35:00.000Z",
      "taf": "",
      "tafTime": ""
    },
    "KRAL": {
      "name": "Riverside Municipal",
      "metar": "METAR KRAL 041453Z 00000KT 5SM HZ CLR 17/14 A2988 RMK AO2 SLP105 T01720139 53003",
      "metarTime": "2026-06-04T15:00:00.000Z",
      "taf": "",
      "tafTime": ""
    }
  }
}
