{
  "updated": "2026-03-17T15:15:00.000Z",
  "airports": {
    "KPOC": {
      "name": "Brackett Field",
      "metar": "METAR KPOC 171447Z 00000KT 10SM CLR 19/04 A2996",
      "metarTime": "2026-03-17T15:00:00.000Z",
      "taf": "",
      "tafTime": ""
    },
    "KCCB": {
      "name": "Cable Airport",
      "metar": "METAR KCCB 171515Z AUTO 00000KT 10SM CLR 24/02 A2998 RMK AO2",
      "metarTime": "2026-03-17T15:15:00.000Z",
      "taf": "",
      "tafTime": ""
    },
    "KRAL": {
      "name": "Riverside Municipal",
      "metar": "METAR KRAL 171453Z 04004KT 10SM CLR 20/04 A2996 RMK AO2 SLP130 T02000044 53008",
      "metarTime": "2026-03-17T15:00:00.000Z",
      "taf": "",
      "tafTime": ""
    }
  }
}
