{
  "updated": "2026-03-20T10:00:00.000Z",
  "airports": {
    "KPOC": {
      "name": "Brackett Field",
      "metar": "",
      "metarTime": "",
      "taf": "",
      "tafTime": ""
    },
    "KCCB": {
      "name": "Cable Airport",
      "metar": "METAR KCCB 200935Z AUTO 06004KT 10SM CLR 24/07 A3002 RMK AO2",
      "metarTime": "2026-03-20T09:35:00.000Z",
      "taf": "",
      "tafTime": ""
    },
    "KRAL": {
      "name": "Riverside Municipal",
      "metar": "METAR KRAL 200953Z AUTO 00000KT 10SM CLR 19/13 A3000 RMK AO2 SLP141 T01940133",
      "metarTime": "2026-03-20T10:00:00.000Z",
      "taf": "",
      "tafTime": ""
    }
  }
}
