{
  "updated": "2026-02-18T07:35:00.000Z",
  "airports": {
    "KPOC": {
      "name": "Brackett Field",
      "metar": "",
      "metarTime": "",
      "taf": "",
      "tafTime": ""
    },
    "KCCB": {
      "name": "Cable Airport",
      "metar": "METAR KCCB 180735Z AUTO 22019G29KT 3SM -RA BKN010 OVC014 09/09 A2991 RMK AO2",
      "metarTime": "2026-02-18T07:35:00.000Z",
      "taf": "",
      "tafTime": ""
    },
    "KRAL": {
      "name": "Riverside Municipal",
      "metar": "METAR KRAL 180653Z AUTO 18014G23KT 10SM -RA FEW045 BKN050 OVC070 11/06 A2995 RMK AO2 RAB15 SLP132 P0000 T01060056",
      "metarTime": "2026-02-18T07:00:00.000Z",
      "taf": "",
      "tafTime": ""
    }
  }
}
