{
  "updated": "2026-03-21T13:00:00.000Z",
  "airports": {
    "KPOC": {
      "name": "Brackett Field",
      "metar": "",
      "metarTime": "",
      "taf": "",
      "tafTime": ""
    },
    "KCCB": {
      "name": "Cable Airport",
      "metar": "METAR KCCB 211250Z AUTO 00000KT 10SM 20/04 A2994 RMK AO2",
      "metarTime": "2026-03-21T13:00:00.000Z",
      "taf": "",
      "tafTime": ""
    },
    "KRAL": {
      "name": "Riverside Municipal",
      "metar": "METAR KRAL 211253Z AUTO 00000KT 10SM CLR 17/10 A2993 RMK AO2 SLP117 T01720100",
      "metarTime": "2026-03-21T13:00:00.000Z",
      "taf": "",
      "tafTime": ""
    }
  }
}
