{
  "updated": "2026-03-09T01:00:00.000Z",
  "airports": {
    "KPOC": {
      "name": "Brackett Field",
      "metar": "METAR KPOC 090047Z 12010KT 10SM CLR 28/M07 A2980",
      "metarTime": "2026-03-09T01:00:00.000Z",
      "taf": "",
      "tafTime": ""
    },
    "KCCB": {
      "name": "Cable Airport",
      "metar": "METAR KCCB 090055Z AUTO 10009KT 10SM CLR 27/M12 A2981 RMK AO2",
      "metarTime": "2026-03-09T01:00:00.000Z",
      "taf": "",
      "tafTime": ""
    },
    "KRAL": {
      "name": "Riverside Municipal",
      "metar": "METAR KRAL 090053Z 00000KT 10SM CLR 28/M07 A2979 RMK AO2 SLP073 T02831067",
      "metarTime": "2026-03-09T01:00:00.000Z",
      "taf": "",
      "tafTime": ""
    }
  }
}
