{
  "updated": "2026-03-03T20:15:00.000Z",
  "airports": {
    "KPOC": {
      "name": "Brackett Field",
      "metar": "METAR KPOC 031947Z 26006KT 10SM CLR 19/09 A3006",
      "metarTime": "2026-03-03T20:00:00.000Z",
      "taf": "",
      "tafTime": ""
    },
    "KCCB": {
      "name": "Cable Airport",
      "metar": "METAR KCCB 032015Z AUTO 28008KT 220V300 10SM CLR 19/07 A3004 RMK AO2",
      "metarTime": "2026-03-03T20:15:00.000Z",
      "taf": "",
      "tafTime": ""
    },
    "KRAL": {
      "name": "Riverside Municipal",
      "metar": "METAR KRAL 031953Z VRB06KT 10SM CLR 21/08 A3004 RMK AO2 SLP160 T02060083",
      "metarTime": "2026-03-03T20:00:00.000Z",
      "taf": "",
      "tafTime": ""
    }
  }
}
