{
  "updated": "2026-06-24T12:00:00.000Z",
  "airports": {
    "KPOC": {
      "name": "Brackett Field",
      "metar": "",
      "metarTime": "",
      "taf": "",
      "tafTime": ""
    },
    "KCCB": {
      "name": "Cable Airport",
      "metar": "METAR KCCB 241155Z AUTO 00000KT 10SM 17/15 A3000 RMK AO2",
      "metarTime": "2026-06-24T12:00:00.000Z",
      "taf": "",
      "tafTime": ""
    },
    "KRAL": {
      "name": "Riverside Municipal",
      "metar": "METAR KRAL 241153Z AUTO 27003KT 10SM FU CLR 17/14 A3000 RMK AO2 SLP144 T01720139 10211 20172 56002",
      "metarTime": "2026-06-24T12:00:00.000Z",
      "taf": "",
      "tafTime": ""
    }
  }
}
