{
  "updated": "2026-03-19T18:00:00.000Z",
  "airports": {
    "KPOC": {
      "name": "Brackett Field",
      "metar": "METAR KPOC 191747Z 00000KT 10SM CLR 28/11 A3010",
      "metarTime": "2026-03-19T18:00:00.000Z",
      "taf": "",
      "tafTime": ""
    },
    "KCCB": {
      "name": "Cable Airport",
      "metar": "METAR KCCB 191755Z AUTO VRB04KT 10SM CLR 29/08 A3011 RMK AO2",
      "metarTime": "2026-03-19T18:00:00.000Z",
      "taf": "",
      "tafTime": ""
    },
    "KRAL": {
      "name": "Riverside Municipal",
      "metar": "METAR KRAL 191753Z AUTO 00000KT 10SM CLR 29/09 A3008 RMK AO2 SLP170 T02890094 10289 20161 50004",
      "metarTime": "2026-03-19T18:00:00.000Z",
      "taf": "",
      "tafTime": ""
    }
  }
}
