{
  "updated": "2026-05-16T07:15:00.000Z",
  "airports": {
    "KPOC": {
      "name": "Brackett Field",
      "metar": "",
      "metarTime": "",
      "taf": "",
      "tafTime": ""
    },
    "KCCB": {
      "name": "Cable Airport",
      "metar": "METAR KCCB 160715Z AUTO 26006KT 10SM OVC010 15/15 A2994 RMK AO2",
      "metarTime": "2026-05-16T07:15:00.000Z",
      "taf": "",
      "tafTime": ""
    },
    "KRAL": {
      "name": "Riverside Municipal",
      "metar": "METAR KRAL 160653Z AUTO 29003KT 10SM OVC019 16/13 A2995 RMK AO2 SLP128 T01610128",
      "metarTime": "2026-05-16T07:00:00.000Z",
      "taf": "",
      "tafTime": ""
    }
  }
}
