{
  "updated": "2026-04-25T14:00:00.000Z",
  "airports": {
    "KPOC": {
      "name": "Brackett Field",
      "metar": "",
      "metarTime": "",
      "taf": "",
      "tafTime": ""
    },
    "KCCB": {
      "name": "Cable Airport",
      "metar": "METAR KCCB 251335Z AUTO 25003KT 10SM SCT018 BKN044 13/11 A2988 RMK AO2",
      "metarTime": "2026-04-25T13:35:00.000Z",
      "taf": "",
      "tafTime": ""
    },
    "KRAL": {
      "name": "Riverside Municipal",
      "metar": "METAR KRAL 251353Z AUTO 16003KT 10SM CLR 14/08 A2989 RMK AO2 SLP111 T01390083",
      "metarTime": "2026-04-25T14:00:00.000Z",
      "taf": "",
      "tafTime": ""
    }
  }
}
