{
  "updated": "2026-02-24T14:00:00.000Z",
  "airports": {
    "KPOC": {
      "name": "Brackett Field",
      "metar": "",
      "metarTime": "",
      "taf": "",
      "tafTime": ""
    },
    "KCCB": {
      "name": "Cable Airport",
      "metar": "METAR KCCB 241335Z AUTO 06004KT 10SM CLR 15/02 A3007 RMK AO2",
      "metarTime": "2026-02-24T13:35:00.000Z",
      "taf": "",
      "tafTime": ""
    },
    "KRAL": {
      "name": "Riverside Municipal",
      "metar": "METAR KRAL 241353Z AUTO 05004KT 10SM CLR 11/06 A3007 RMK AO2 SLP172 T01110056",
      "metarTime": "2026-02-24T14:00:00.000Z",
      "taf": "",
      "tafTime": ""
    }
  }
}
