{
  "updated": "2026-06-27T12:35:00.000Z",
  "airports": {
    "KPOC": {
      "name": "Brackett Field",
      "metar": "",
      "metarTime": "",
      "taf": "",
      "tafTime": ""
    },
    "KCCB": {
      "name": "Cable Airport",
      "metar": "METAR KCCB 271235Z AUTO 24004KT 10SM 16/15 A2994 RMK AO2",
      "metarTime": "2026-06-27T12:35:00.000Z",
      "taf": "",
      "tafTime": ""
    },
    "KRAL": {
      "name": "Riverside Municipal",
      "metar": "METAR KRAL 271153Z AUTO 00000KT 10SM OVC018 17/13 A2994 RMK AO2 SLP122 T01720128 10172 20156 57001",
      "metarTime": "2026-06-27T12:00:00.000Z",
      "taf": "",
      "tafTime": ""
    }
  }
}
