{
  "updated": "2026-05-24T12:00:00.000Z",
  "airports": {
    "KPOC": {
      "name": "Brackett Field",
      "metar": "",
      "metarTime": "",
      "taf": "",
      "tafTime": ""
    },
    "KCCB": {
      "name": "Cable Airport",
      "metar": "METAR KCCB 241135Z AUTO 30003KT 7SM 14/14 A2998 RMK AO2",
      "metarTime": "2026-05-24T11:35:00.000Z",
      "taf": "",
      "tafTime": ""
    },
    "KRAL": {
      "name": "Riverside Municipal",
      "metar": "METAR KRAL 241153Z AUTO VRB03KT 9SM OVC015 16/12 A2998 RMK AO2 SLP138 T01610122 10161 20156 56008",
      "metarTime": "2026-05-24T12:00:00.000Z",
      "taf": "",
      "tafTime": ""
    }
  }
}
