{
  "updated": "2026-04-04T17:15:00.000Z",
  "airports": {
    "KPOC": {
      "name": "Brackett Field",
      "metar": "",
      "metarTime": "",
      "taf": "",
      "tafTime": ""
    },
    "KCCB": {
      "name": "Cable Airport",
      "metar": "METAR KCCB 041715Z AUTO 24004KT 10SM CLR 24/M12 A3007 RMK AO2",
      "metarTime": "2026-04-04T17:15:00.000Z",
      "taf": "",
      "tafTime": ""
    },
    "KRAL": {
      "name": "Riverside Municipal",
      "metar": "METAR KRAL 041653Z 04009G16KT 10SM CLR 26/M09 A3007 RMK AO2 SLP168 T02561089",
      "metarTime": "2026-04-04T17:00:00.000Z",
      "taf": "",
      "tafTime": ""
    }
  }
}
