{
  "updated": "2026-03-15T05:35:00.000Z",
  "airports": {
    "KPOC": {
      "name": "Brackett Field",
      "metar": "",
      "metarTime": "",
      "taf": "",
      "tafTime": ""
    },
    "KCCB": {
      "name": "Cable Airport",
      "metar": "METAR KCCB 150535Z AUTO 34004KT 10SM SCT036 18/08 A2997 RMK AO2",
      "metarTime": "2026-03-15T05:35:00.000Z",
      "taf": "",
      "tafTime": ""
    },
    "KRAL": {
      "name": "Riverside Municipal",
      "metar": "METAR KRAL 150453Z AUTO 00000KT 10SM CLR 19/06 A2995 RMK AO2 SLP128 T01940061",
      "metarTime": "2026-03-15T05:00:00.000Z",
      "taf": "",
      "tafTime": ""
    }
  }
}
