{
  "updated": "2026-02-25T11:15:00.000Z",
  "airports": {
    "KPOC": {
      "name": "Brackett Field",
      "metar": "",
      "metarTime": "",
      "taf": "",
      "tafTime": ""
    },
    "KCCB": {
      "name": "Cable Airport",
      "metar": "METAR KCCB 251115Z AUTO 03004KT 10SM CLR 15/05 A3002 RMK AO2",
      "metarTime": "2026-02-25T11:15:00.000Z",
      "taf": "",
      "tafTime": ""
    },
    "KRAL": {
      "name": "Riverside Municipal",
      "metar": "METAR KRAL 251053Z AUTO 00000KT 10SM CLR 12/07 A3003 RMK AO2 SLP156 T01170072",
      "metarTime": "2026-02-25T11:00:00.000Z",
      "taf": "",
      "tafTime": ""
    }
  }
}
