{
  "updated": "2026-04-28T01:35:00.000Z",
  "airports": {
    "KPOC": {
      "name": "Brackett Field",
      "metar": "METAR KPOC 280047Z 24010KT 10SM FEW050 18/04 A2999",
      "metarTime": "2026-04-28T01:00:00.000Z",
      "taf": "",
      "tafTime": ""
    },
    "KCCB": {
      "name": "Cable Airport",
      "metar": "METAR KCCB 280135Z AUTO 25010KT 10SM SCT050 SCT055 16/04 A2998 RMK AO2",
      "metarTime": "2026-04-28T01:35:00.000Z",
      "taf": "",
      "tafTime": ""
    },
    "KRAL": {
      "name": "Riverside Municipal",
      "metar": "METAR KRAL 280053Z 26012G17KT 10SM CLR 18/02 A2998 RMK AO2 SLP141 T01830022",
      "metarTime": "2026-04-28T01:00:00.000Z",
      "taf": "",
      "tafTime": ""
    }
  }
}
