{
  "updated": "2026-07-19T04:35:00.000Z",
  "airports": {
    "KPOC": {
      "name": "Brackett Field",
      "metar": "METAR KPOC 190347Z 26008KT 10SM CLR 26/17 A2996 RMK LAST",
      "metarTime": "2026-07-19T04:00:00.000Z",
      "taf": "",
      "tafTime": ""
    },
    "KCCB": {
      "name": "Cable Airport",
      "metar": "METAR KCCB 190435Z AUTO 26009KT 10SM 25/17 A2999 RMK AO2",
      "metarTime": "2026-07-19T04:35:00.000Z",
      "taf": "",
      "tafTime": ""
    },
    "KRAL": {
      "name": "Riverside Municipal",
      "metar": "METAR KRAL 190353Z 10SM CLR 28/14 A2994 RMK AO2 SLP122 T02780139",
      "metarTime": "2026-07-19T04:00:00.000Z",
      "taf": "",
      "tafTime": ""
    }
  }
}
