{
  "updated": "2026-06-17T02:00:00.000Z",
  "airports": {
    "KPOC": {
      "name": "Brackett Field",
      "metar": "METAR KPOC 170147Z 24013KT 10SM CLR 26/14 A2991",
      "metarTime": "2026-06-17T02:00:00.000Z",
      "taf": "",
      "tafTime": ""
    },
    "KCCB": {
      "name": "Cable Airport",
      "metar": "METAR KCCB 170135Z AUTO 25012KT 10SM CLR 26/13 A2990 RMK AO2",
      "metarTime": "2026-06-17T01:35:00.000Z",
      "taf": "",
      "tafTime": ""
    },
    "KRAL": {
      "name": "Riverside Municipal",
      "metar": "METAR KRAL 170153Z 28007KT 10SM CLR 28/11 A2988 RMK AO2 SLP103 T02830111",
      "metarTime": "2026-06-17T02:00:00.000Z",
      "taf": "",
      "tafTime": ""
    }
  }
}
