{
  "updated": "2026-02-11T21:00:00.000Z",
  "airports": {
    "KPOC": {
      "name": "Brackett Field",
      "metar": "METAR KPOC 112047Z 00000KT 8SM SCT025 15/11 A3012",
      "metarTime": "2026-02-11T21:00:00.000Z",
      "taf": "",
      "tafTime": ""
    },
    "KCCB": {
      "name": "Cable Airport",
      "metar": "METAR KCCB 112055Z AUTO 21004KT 10SM BKN065 15/11 A3010 RMK AO2",
      "metarTime": "2026-02-11T21:00:00.000Z",
      "taf": "",
      "tafTime": ""
    },
    "KRAL": {
      "name": "Riverside Municipal",
      "metar": "METAR KRAL 112053Z 00000KT 10SM -RA OVC055 14/11 A3012 RMK AO2 RAB24 SLP187 P0000 60003 T01440111 58007 $",
      "metarTime": "2026-02-11T21:00:00.000Z",
      "taf": "",
      "tafTime": ""
    }
  }
}
