{
  "updated": "2026-07-02T08:15:00.000Z",
  "airports": {
    "KPOC": {
      "name": "Brackett Field",
      "metar": "",
      "metarTime": "",
      "taf": "",
      "tafTime": ""
    },
    "KCCB": {
      "name": "Cable Airport",
      "metar": "METAR KCCB 020815Z AUTO 26004KT 7SM OVC006 15/15 A2994 RMK AO2",
      "metarTime": "2026-07-02T08:15:00.000Z",
      "taf": "",
      "tafTime": ""
    },
    "KRAL": {
      "name": "Riverside Municipal",
      "metar": "METAR KRAL 020753Z AUTO 27004KT 10SM CLR 16/13 A2994 RMK AO2 SLP124 T01560133 402670156",
      "metarTime": "2026-07-02T08:00:00.000Z",
      "taf": "",
      "tafTime": ""
    }
  }
}
