{
  "updated": "2026-07-22T17:35:00.000Z",
  "airports": {
    "KPOC": {
      "name": "Brackett Field",
      "metar": "METAR KPOC 221647Z 00000KT 10SM CLR 26/18 A3002",
      "metarTime": "2026-07-22T17:00:00.000Z",
      "taf": "",
      "tafTime": ""
    },
    "KCCB": {
      "name": "Cable Airport",
      "metar": "METAR KCCB 221735Z AUTO 21004KT 10SM CLR 26/16 A3001 RMK AO2",
      "metarTime": "2026-07-22T17:35:00.000Z",
      "taf": "",
      "tafTime": ""
    },
    "KRAL": {
      "name": "Riverside Municipal",
      "metar": "METAR KRAL 221653Z VRB04KT 10SM CLR 26/17 A3000 RMK AO2 SLP142 T02610167",
      "metarTime": "2026-07-22T17:00:00.000Z",
      "taf": "",
      "tafTime": ""
    }
  }
}
