{
  "updated": "2026-07-10T11:35:00.000Z",
  "airports": {
    "KPOC": {
      "name": "Brackett Field",
      "metar": "",
      "metarTime": "",
      "taf": "",
      "tafTime": ""
    },
    "KCCB": {
      "name": "Cable Airport",
      "metar": "METAR KCCB 101135Z AUTO 00000KT 10SM CLR 19/15 A2988 RMK AO2",
      "metarTime": "2026-07-10T11:35:00.000Z",
      "taf": "",
      "tafTime": ""
    },
    "KRAL": {
      "name": "Riverside Municipal",
      "metar": "METAR KRAL 101053Z AUTO 27004KT 10SM CLR 18/15 A2986 RMK AO2 SLP095 T01780150",
      "metarTime": "2026-07-10T11:00:00.000Z",
      "taf": "",
      "tafTime": ""
    }
  }
}
