{
  "updated": "2026-05-27T21:35:00.000Z",
  "airports": {
    "KPOC": {
      "name": "Brackett Field",
      "metar": "METAR KPOC 272047Z 20010G22KT 10SM BKN030 19/08 A2985",
      "metarTime": "2026-05-27T21:00:00.000Z",
      "taf": "",
      "tafTime": ""
    },
    "KCCB": {
      "name": "Cable Airport",
      "metar": "METAR KCCB 272135Z AUTO 19012G18KT 9SM SCT040 BKN050 BKN065 18/07 A2983 RMK AO2",
      "metarTime": "2026-05-27T21:35:00.000Z",
      "taf": "",
      "tafTime": ""
    },
    "KRAL": {
      "name": "Riverside Municipal",
      "metar": "METAR KRAL 272053Z VRB04KT 10SM OVC055 19/05 A2983 RMK AO2 SLP088 T01940050 55003",
      "metarTime": "2026-05-27T21:00:00.000Z",
      "taf": "",
      "tafTime": ""
    }
  }
}
