{
  "updated": "2026-04-06T17:00:00.000Z",
  "airports": {
    "KPOC": {
      "name": "Brackett Field",
      "metar": "METAR KPOC 061647Z 00000KT 10SM BKN060 20/07 A3006",
      "metarTime": "2026-04-06T17:00:00.000Z",
      "taf": "",
      "tafTime": ""
    },
    "KCCB": {
      "name": "Cable Airport",
      "metar": "METAR KCCB 061655Z AUTO 22005KT 10SM CLR 19/06 A3005 RMK AO2",
      "metarTime": "2026-04-06T17:00:00.000Z",
      "taf": "",
      "tafTime": ""
    },
    "KRAL": {
      "name": "Riverside Municipal",
      "metar": "METAR KRAL 061653Z 00000KT 10SM CLR 19/06 A3005 RMK AO2 SLP163 T01890056",
      "metarTime": "2026-04-06T17:00:00.000Z",
      "taf": "",
      "tafTime": ""
    }
  }
}
