{
  "updated": "2026-04-12T06:35:00.000Z",
  "airports": {
    "KPOC": {
      "name": "Brackett Field",
      "metar": "",
      "metarTime": "",
      "taf": "",
      "tafTime": ""
    },
    "KCCB": {
      "name": "Cable Airport",
      "metar": "METAR KCCB 120635Z AUTO 29004KT 10SM CLR 13/12 A2999 RMK AO2",
      "metarTime": "2026-04-12T06:35:00.000Z",
      "taf": "",
      "tafTime": ""
    },
    "KRAL": {
      "name": "Riverside Municipal",
      "metar": "METAR KRAL 120553Z AUTO 27007KT 10SM SCT041 14/09 A2999 RMK AO2 SLP143 T01440094 10222 20139 51015",
      "metarTime": "2026-04-12T06:00:00.000Z",
      "taf": "",
      "tafTime": ""
    }
  }
}
