{
  "updated": "2026-03-06T12:15:00.000Z",
  "airports": {
    "KPOC": {
      "name": "Brackett Field",
      "metar": "",
      "metarTime": "",
      "taf": "",
      "tafTime": ""
    },
    "KCCB": {
      "name": "Cable Airport",
      "metar": "METAR KCCB 061215Z AUTO 00000KT 10SM 12/M05 A2996 RMK AO2",
      "metarTime": "2026-03-06T12:15:00.000Z",
      "taf": "",
      "tafTime": ""
    },
    "KRAL": {
      "name": "Riverside Municipal",
      "metar": "METAR KRAL 061153Z AUTO 03007KT 10SM CLR 14/M04 A2998 RMK AO2 SLP139 T01441044 10144 20094 53005",
      "metarTime": "2026-03-06T12:00:00.000Z",
      "taf": "",
      "tafTime": ""
    }
  }
}
