{
  "updated": "2026-07-23T19:00:00.000Z",
  "airports": {
    "KPOC": {
      "name": "Brackett Field",
      "metar": "METAR KPOC 231847Z 25010KT 10SM CLR 31/18 A2991",
      "metarTime": "2026-07-23T19:00:00.000Z",
      "taf": "",
      "tafTime": ""
    },
    "KCCB": {
      "name": "Cable Airport",
      "metar": "METAR KCCB 231835Z AUTO VRB06KT 10SM CLR 31/17 A2991 RMK AO2",
      "metarTime": "2026-07-23T18:35:00.000Z",
      "taf": "",
      "tafTime": ""
    },
    "KRAL": {
      "name": "Riverside Municipal",
      "metar": "METAR KRAL 231853Z 27007KT 260V320 10SM CLR 34/16 A2987 RMK AO2 SLP095 T03390161",
      "metarTime": "2026-07-23T19:00:00.000Z",
      "taf": "",
      "tafTime": ""
    }
  }
}
