{
  "updated": "2026-05-21T02:00:00.000Z",
  "airports": {
    "KPOC": {
      "name": "Brackett Field",
      "metar": "METAR KPOC 210147Z 26011KT 10SM CLR 27/01 A2984",
      "metarTime": "2026-05-21T02:00:00.000Z",
      "taf": "",
      "tafTime": ""
    },
    "KCCB": {
      "name": "Cable Airport",
      "metar": "METAR KCCB 210155Z AUTO 27014KT 10SM CLR 27/M02 A2984 RMK AO2",
      "metarTime": "2026-05-21T02:00:00.000Z",
      "taf": "",
      "tafTime": ""
    },
    "KRAL": {
      "name": "Riverside Municipal",
      "metar": "METAR KRAL 210153Z 25011G19KT 10SM CLR 28/M01 A2981 RMK AO2 SLP080 T02831006",
      "metarTime": "2026-05-21T02:00:00.000Z",
      "taf": "",
      "tafTime": ""
    }
  }
}
