{
  "updated": "2026-05-16T17:35:00.000Z",
  "airports": {
    "KPOC": {
      "name": "Brackett Field",
      "metar": "METAR KPOC 161647Z 30004KT 8SM BKN015 OVC034 17/12 A2994",
      "metarTime": "2026-05-16T17:00:00.000Z",
      "taf": "",
      "tafTime": ""
    },
    "KCCB": {
      "name": "Cable Airport",
      "metar": "METAR KCCB 161735Z AUTO 26008KT 10SM OVC034 17/12 A2992 RMK AO2",
      "metarTime": "2026-05-16T17:35:00.000Z",
      "taf": "",
      "tafTime": ""
    },
    "KRAL": {
      "name": "Riverside Municipal",
      "metar": "METAR KRAL 161653Z 28006KT 10SM FEW025 OVC040 19/12 A2992 RMK AO2 SLP118 T01890117",
      "metarTime": "2026-05-16T17:00:00.000Z",
      "taf": "",
      "tafTime": ""
    }
  }
}
