{
  "updated": "2026-03-29T01:00:00.000Z",
  "airports": {
    "KPOC": {
      "name": "Brackett Field",
      "metar": "METAR KPOC 290047Z 25009KT 10SM CLR 28/10 A2993",
      "metarTime": "2026-03-29T01:00:00.000Z",
      "taf": "",
      "tafTime": ""
    },
    "KCCB": {
      "name": "Cable Airport",
      "metar": "METAR KCCB 290050Z AUTO 28009KT 10SM CLR 28/05 A2994 RMK AO2",
      "metarTime": "2026-03-29T01:00:00.000Z",
      "taf": "",
      "tafTime": ""
    },
    "KRAL": {
      "name": "Riverside Municipal",
      "metar": "METAR KRAL 290053Z AUTO 27011KT 10SM CLR 29/02 A2991 RMK AO2 SLP112 T02940017",
      "metarTime": "2026-03-29T01:00:00.000Z",
      "taf": "",
      "tafTime": ""
    }
  }
}
