{
  "updated": "2026-02-15T23:35:00.000Z",
  "airports": {
    "KPOC": {
      "name": "Brackett Field",
      "metar": "METAR KPOC 152247Z 26003KT 8SM BKN040 16/05 A2995",
      "metarTime": "2026-02-15T23:00:00.000Z",
      "taf": "",
      "tafTime": ""
    },
    "KCCB": {
      "name": "Cable Airport",
      "metar": "METAR KCCB 152335Z AUTO 25006KT 10SM CLR 15/04 A2994 RMK AO2",
      "metarTime": "2026-02-15T23:35:00.000Z",
      "taf": "",
      "tafTime": ""
    },
    "KRAL": {
      "name": "Riverside Municipal",
      "metar": "METAR KRAL 152253Z 30005KT 10SM CLR 17/06 A2994 RMK AO2 SLP128 T01670056",
      "metarTime": "2026-02-15T23:00:00.000Z",
      "taf": "",
      "tafTime": ""
    }
  }
}
