{
  "updated": "2026-02-10T04:15:00.000Z",
  "airports": {
    "KPOC": {
      "name": "Brackett Field",
      "metar": "",
      "metarTime": "",
      "taf": "",
      "tafTime": ""
    },
    "KCCB": {
      "name": "Cable Airport",
      "metar": "METAR KCCB 100415Z AUTO 30005KT 10SM CLR 18/02 A2995 RMK AO2",
      "metarTime": "2026-02-10T04:15:00.000Z",
      "taf": "",
      "tafTime": ""
    },
    "KRAL": {
      "name": "Riverside Municipal",
      "metar": "METAR KRAL 100353Z 00000KT 10SM CLR 17/04 A2994 RMK AO2 SLP127 T01720044 $",
      "metarTime": "2026-02-10T04:00:00.000Z",
      "taf": "",
      "tafTime": ""
    }
  }
}
