{
  "updated": "2026-02-12T15:00:00.000Z",
  "airports": {
    "KPOC": {
      "name": "Brackett Field",
      "metar": "METAR KPOC 121447Z 00000KT 10SM CLR 09/07 A3016",
      "metarTime": "2026-02-12T15:00:00.000Z",
      "taf": "",
      "tafTime": ""
    },
    "KCCB": {
      "name": "Cable Airport",
      "metar": "METAR KCCB 121455Z AUTO 03004KT 10SM CLR 09/06 A3015 RMK AO2",
      "metarTime": "2026-02-12T15:00:00.000Z",
      "taf": "",
      "tafTime": ""
    },
    "KRAL": {
      "name": "Riverside Municipal",
      "metar": "METAR KRAL 121453Z 00000KT 10SM CLR 08/08 A3016 RMK AO2 SLP203 T00830078 57002 $",
      "metarTime": "2026-02-12T15:00:00.000Z",
      "taf": "",
      "tafTime": ""
    }
  }
}
