{
  "updated": "2026-04-15T15:35:00.000Z",
  "airports": {
    "KPOC": {
      "name": "Brackett Field",
      "metar": "METAR KPOC 151447Z 08003KT 8SM CLR 14/09 A3005",
      "metarTime": "2026-04-15T15:00:00.000Z",
      "taf": "",
      "tafTime": ""
    },
    "KCCB": {
      "name": "Cable Airport",
      "metar": "METAR KCCB 151535Z AUTO 00000KT 10SM CLR 16/08 A3004 RMK AO2",
      "metarTime": "2026-04-15T15:35:00.000Z",
      "taf": "",
      "tafTime": ""
    },
    "KRAL": {
      "name": "Riverside Municipal",
      "metar": "METAR KRAL 151453Z 00000KT 10SM CLR 13/08 A3004 RMK AO2 SLP162 T01330083 53009",
      "metarTime": "2026-04-15T15:00:00.000Z",
      "taf": "",
      "tafTime": ""
    }
  }
}
