{
  "updated": "2026-02-12T23:15:00.000Z",
  "airports": {
    "KPOC": {
      "name": "Brackett Field",
      "metar": "METAR KPOC 122247Z 22005KT 10SM CLR 18/05 A3006",
      "metarTime": "2026-02-12T23:00:00.000Z",
      "taf": "",
      "tafTime": ""
    },
    "KCCB": {
      "name": "Cable Airport",
      "metar": "METAR KCCB 122315Z AUTO 26007KT 10SM CLR 18/03 A3004 RMK AO2",
      "metarTime": "2026-02-12T23:15:00.000Z",
      "taf": "",
      "tafTime": ""
    },
    "KRAL": {
      "name": "Riverside Municipal",
      "metar": "METAR KRAL 122253Z 27005KT 10SM CLR 19/03 A3004 RMK AO2 SLP162 T01940033",
      "metarTime": "2026-02-12T23:00:00.000Z",
      "taf": "",
      "tafTime": ""
    }
  }
}
