{
  "updated": "2026-02-10T08:15:00.000Z",
  "airports": {
    "KPOC": {
      "name": "Brackett Field",
      "metar": "",
      "metarTime": "",
      "taf": "",
      "tafTime": ""
    },
    "KCCB": {
      "name": "Cable Airport",
      "metar": "METAR KCCB 100815Z AUTO 00000KT 10SM CLR 15/02 A2994 RMK AO2",
      "metarTime": "2026-02-10T08:15:00.000Z",
      "taf": "",
      "tafTime": ""
    },
    "KRAL": {
      "name": "Riverside Municipal",
      "metar": "METAR KRAL 100753Z AUTO 00000KT 10SM CLR 14/04 A2994 RMK AO2 SLP125 T01440044 402670094 $",
      "metarTime": "2026-02-10T08:00:00.000Z",
      "taf": "",
      "tafTime": ""
    }
  }
}
