{
  "updated": "2026-06-13T06:30:00.000Z",
  "airports": {
    "KPOC": {
      "name": "Brackett Field",
      "metar": "",
      "metarTime": "",
      "taf": "",
      "tafTime": ""
    },
    "KCCB": {
      "name": "Cable Airport",
      "metar": "METAR KCCB 130630Z AUTO 34004KT 10SM 21/16 A2993 RMK AO2",
      "metarTime": "2026-06-13T06:30:00.000Z",
      "taf": "",
      "tafTime": ""
    },
    "KRAL": {
      "name": "Riverside Municipal",
      "metar": "METAR KRAL 130553Z AUTO 27004KT 10SM CLR 24/13 A2991 RMK AO2 SLP111 T02390128 10356 20239 51025",
      "metarTime": "2026-06-13T06:00:00.000Z",
      "taf": "",
      "tafTime": ""
    }
  }
}
