{
  "updated": "2026-03-09T12:15:00.000Z",
  "airports": {
    "KPOC": {
      "name": "Brackett Field",
      "metar": "",
      "metarTime": "",
      "taf": "",
      "tafTime": ""
    },
    "KCCB": {
      "name": "Cable Airport",
      "metar": "METAR KCCB 091215Z AUTO 00000KT 10SM 13/04 A2986 RMK AO2",
      "metarTime": "2026-03-09T12:15:00.000Z",
      "taf": "",
      "tafTime": ""
    },
    "KRAL": {
      "name": "Riverside Municipal",
      "metar": "METAR KRAL 091153Z AUTO 16003KT 10SM CLR 12/05 A2987 RMK AO2 SLP101 T01220050 10178 20117 58003",
      "metarTime": "2026-03-09T12:00:00.000Z",
      "taf": "",
      "tafTime": ""
    }
  }
}
