{
  "updated": "2026-04-24T15:35:00.000Z",
  "airports": {
    "KPOC": {
      "name": "Brackett Field",
      "metar": "METAR KPOC 241447Z 00000KT 10SM CLR 14/08 A2996",
      "metarTime": "2026-04-24T15:00:00.000Z",
      "taf": "",
      "tafTime": ""
    },
    "KCCB": {
      "name": "Cable Airport",
      "metar": "METAR KCCB 241535Z AUTO 27006KT 10SM CLR 15/09 A2995 RMK AO2",
      "metarTime": "2026-04-24T15:35:00.000Z",
      "taf": "",
      "tafTime": ""
    },
    "KRAL": {
      "name": "Riverside Municipal",
      "metar": "METAR KRAL 241453Z 00000KT 10SM CLR 15/09 A2995 RMK AO2 SLP129 T01500094 53009",
      "metarTime": "2026-04-24T15:00:00.000Z",
      "taf": "",
      "tafTime": ""
    }
  }
}
