{
  "updated": "2026-05-04T22:35:00.000Z",
  "airports": {
    "KPOC": {
      "name": "Brackett Field",
      "metar": "METAR KPOC 042147Z 25009G15KT 10SM BKN040 19/06 A2997",
      "metarTime": "2026-05-04T22:00:00.000Z",
      "taf": "",
      "tafTime": ""
    },
    "KCCB": {
      "name": "Cable Airport",
      "metar": "METAR KCCB 042235Z AUTO 25012G18KT 10SM BKN041 BKN050 OVC075 17/07 A2995 RMK AO2",
      "metarTime": "2026-05-04T22:35:00.000Z",
      "taf": "",
      "tafTime": ""
    },
    "KRAL": {
      "name": "Riverside Municipal",
      "metar": "METAR KRAL 042153Z 24010G19KT 10SM SCT055 BKN070 21/06 A2996 RMK AO2 SLP133 T02060056",
      "metarTime": "2026-05-04T22:00:00.000Z",
      "taf": "",
      "tafTime": ""
    }
  }
}
