{
  "updated": "2026-05-30T19:00:00.000Z",
  "airports": {
    "KPOC": {
      "name": "Brackett Field",
      "metar": "METAR KPOC 301747Z 33003KT 10SM CLR 20/09 A3003",
      "metarTime": "2026-05-30T18:00:00.000Z",
      "taf": "",
      "tafTime": ""
    },
    "KCCB": {
      "name": "Cable Airport",
      "metar": "METAR KCCB 301855Z AUTO 22008KT 10SM CLR 22/09 A3001 RMK AO2",
      "metarTime": "2026-05-30T19:00:00.000Z",
      "taf": "",
      "tafTime": ""
    },
    "KRAL": {
      "name": "Riverside Municipal",
      "metar": "METAR KRAL 301853Z 27005KT 10SM CLR 23/08 A3000 RMK AO2 SLP144 T02330083",
      "metarTime": "2026-05-30T19:00:00.000Z",
      "taf": "",
      "tafTime": ""
    }
  }
}
