{
  "updated": "2026-03-16T06:00:00.000Z",
  "airports": {
    "KPOC": {
      "name": "Brackett Field",
      "metar": "",
      "metarTime": "",
      "taf": "",
      "tafTime": ""
    },
    "KCCB": {
      "name": "Cable Airport",
      "metar": "METAR KCCB 160555Z AUTO 00000KT 10SM 20/07 A3000 RMK AO2",
      "metarTime": "2026-03-16T06:00:00.000Z",
      "taf": "",
      "tafTime": ""
    },
    "KRAL": {
      "name": "Riverside Municipal",
      "metar": "METAR KRAL 160553Z AUTO 00000KT 10SM CLR 19/12 A3000 RMK AO2 SLP144 T01940122 10300 20194 51017",
      "metarTime": "2026-03-16T06:00:00.000Z",
      "taf": "",
      "tafTime": ""
    }
  }
}
