{
  "updated": "2026-04-18T13:35:00.000Z",
  "airports": {
    "KPOC": {
      "name": "Brackett Field",
      "metar": "",
      "metarTime": "",
      "taf": "",
      "tafTime": ""
    },
    "KCCB": {
      "name": "Cable Airport",
      "metar": "METAR KCCB 181335Z AUTO 36003KT 10SM CLR 13/04 A2996 RMK AO2",
      "metarTime": "2026-04-18T13:35:00.000Z",
      "taf": "",
      "tafTime": ""
    },
    "KRAL": {
      "name": "Riverside Municipal",
      "metar": "METAR KRAL 181253Z AUTO 04005KT 10SM CLR 11/M04 A2995 RMK AO2 SLP130 T01111044",
      "metarTime": "2026-04-18T13:00:00.000Z",
      "taf": "",
      "tafTime": ""
    }
  }
}
