{
  "updated": "2026-05-31T21:15:00.000Z",
  "airports": {
    "KPOC": {
      "name": "Brackett Field",
      "metar": "METAR KPOC 312047Z 27011KT 10SM CLR 28/11 A2991",
      "metarTime": "2026-05-31T21:00:00.000Z",
      "taf": "",
      "tafTime": ""
    },
    "KCCB": {
      "name": "Cable Airport",
      "metar": "METAR KCCB 312115Z AUTO 26010G16KT 10SM CLR 28/09 A2991 RMK AO2",
      "metarTime": "2026-05-31T21:15:00.000Z",
      "taf": "",
      "tafTime": ""
    },
    "KRAL": {
      "name": "Riverside Municipal",
      "metar": "METAR KRAL 312053Z 28012G19KT 10SM CLR 31/10 A2988 RMK AO2 SLP101 T03060100 58015",
      "metarTime": "2026-05-31T21:00:00.000Z",
      "taf": "",
      "tafTime": ""
    }
  }
}
