{
  "updated": "2026-02-14T18:15:00.000Z",
  "airports": {
    "KPOC": {
      "name": "Brackett Field",
      "metar": "METAR KPOC 141747Z VRB04KT 10SM CLR 13/09 A3016",
      "metarTime": "2026-02-14T18:00:00.000Z",
      "taf": "",
      "tafTime": ""
    },
    "KCCB": {
      "name": "Cable Airport",
      "metar": "METAR KCCB 141815Z AUTO 12004KT 10SM CLR 15/06 A3014 RMK AO2",
      "metarTime": "2026-02-14T18:15:00.000Z",
      "taf": "",
      "tafTime": ""
    },
    "KRAL": {
      "name": "Riverside Municipal",
      "metar": "METAR KRAL 141753Z VRB03KT 10SM CLR 14/09 A3016 RMK AO2 SLP202 T01390094 10139 20078 51007",
      "metarTime": "2026-02-14T18:00:00.000Z",
      "taf": "",
      "tafTime": ""
    }
  }
}
