{
  "updated": "2026-02-23T14:00:00.000Z",
  "airports": {
    "KPOC": {
      "name": "Brackett Field",
      "metar": "",
      "metarTime": "",
      "taf": "",
      "tafTime": ""
    },
    "KCCB": {
      "name": "Cable Airport",
      "metar": "METAR KCCB 231335Z AUTO 00000KT 10SM CLR 12/M02 A3017 RMK AO2",
      "metarTime": "2026-02-23T13:35:00.000Z",
      "taf": "",
      "tafTime": ""
    },
    "KRAL": {
      "name": "Riverside Municipal",
      "metar": "METAR KRAL 231353Z AUTO 06004KT 10SM CLR 10/01 A3017 RMK AO2 SLP206 T01000011 $",
      "metarTime": "2026-02-23T14:00:00.000Z",
      "taf": "",
      "tafTime": ""
    }
  }
}
