{
  "updated": "2026-02-11T23:15:00.000Z",
  "airports": {
    "KPOC": {
      "name": "Brackett Field",
      "metar": "METAR KPOC 112247Z VRB03KT 10SM SCT030 BKN075 16/10 A3011",
      "metarTime": "2026-02-11T23:00:00.000Z",
      "taf": "",
      "tafTime": ""
    },
    "KCCB": {
      "name": "Cable Airport",
      "metar": "METAR KCCB 112315Z AUTO 25006KT 10SM CLR 16/08 A3009 RMK AO2",
      "metarTime": "2026-02-11T23:15:00.000Z",
      "taf": "",
      "tafTime": ""
    },
    "KRAL": {
      "name": "Riverside Municipal",
      "metar": "METAR KRAL 112253Z 14004KT 10SM SCT060 16/11 A3010 RMK AO2 SLP183 T01610111 $",
      "metarTime": "2026-02-11T23:00:00.000Z",
      "taf": "",
      "tafTime": ""
    }
  }
}
