{
  "updated": "2026-05-26T13:35:00.000Z",
  "airports": {
    "KPOC": {
      "name": "Brackett Field",
      "metar": "",
      "metarTime": "",
      "taf": "",
      "tafTime": ""
    },
    "KCCB": {
      "name": "Cable Airport",
      "metar": "METAR KCCB 261335Z AUTO 29003KT 10SM OVC019 14/12 A2989 RMK AO2",
      "metarTime": "2026-05-26T13:35:00.000Z",
      "taf": "",
      "tafTime": ""
    },
    "KRAL": {
      "name": "Riverside Municipal",
      "metar": "SPECI KRAL 261333Z AUTO 00000KT 10SM BKN025 OVC038 15/11 A2989 RMK AO2 T01500111",
      "metarTime": "2026-05-26T13:33:00.000Z",
      "taf": "",
      "tafTime": ""
    }
  }
}
