{
  "updated": "2026-03-20T08:35:00.000Z",
  "airports": {
    "KPOC": {
      "name": "Brackett Field",
      "metar": "",
      "metarTime": "",
      "taf": "",
      "tafTime": ""
    },
    "KCCB": {
      "name": "Cable Airport",
      "metar": "METAR KCCB 200835Z AUTO 04004KT 10SM CLR 23/06 A3003 RMK AO2",
      "metarTime": "2026-03-20T08:35:00.000Z",
      "taf": "",
      "tafTime": ""
    },
    "KRAL": {
      "name": "Riverside Municipal",
      "metar": "METAR KRAL 200753Z AUTO 00000KT 10SM CLR 22/13 A3002 RMK AO2 SLP147 T02170133 403830161",
      "metarTime": "2026-03-20T08:00:00.000Z",
      "taf": "",
      "tafTime": ""
    }
  }
}
