{
  "updated": "2026-04-25T12:15:00.000Z",
  "airports": {
    "KPOC": {
      "name": "Brackett Field",
      "metar": "",
      "metarTime": "",
      "taf": "",
      "tafTime": ""
    },
    "KCCB": {
      "name": "Cable Airport",
      "metar": "METAR KCCB 251215Z AUTO 27006KT 10SM 14/10 A2988 RMK AO2",
      "metarTime": "2026-04-25T12:15:00.000Z",
      "taf": "",
      "tafTime": ""
    },
    "KRAL": {
      "name": "Riverside Municipal",
      "metar": "METAR KRAL 251153Z AUTO 00000KT 10SM BKN045 14/08 A2989 RMK AO2 SLP108 T01390083 10144 20139 55000",
      "metarTime": "2026-04-25T12:00:00.000Z",
      "taf": "",
      "tafTime": ""
    }
  }
}
