{
  "updated": "2026-05-03T11:15:00.000Z",
  "airports": {
    "KPOC": {
      "name": "Brackett Field",
      "metar": "",
      "metarTime": "",
      "taf": "",
      "tafTime": ""
    },
    "KCCB": {
      "name": "Cable Airport",
      "metar": "METAR KCCB 031115Z AUTO 26006KT 6SM BR OVC008 14/14 A2990 RMK AO2",
      "metarTime": "2026-05-03T11:15:00.000Z",
      "taf": "",
      "tafTime": ""
    },
    "KRAL": {
      "name": "Riverside Municipal",
      "metar": "METAR KRAL 031053Z AUTO VRB03KT 9SM OVC008 14/12 A2991 RMK AO2 SLP112 T01440122",
      "metarTime": "2026-05-03T11:00:00.000Z",
      "taf": "",
      "tafTime": ""
    }
  }
}
