{
  "updated": "2026-07-01T13:15:00.000Z",
  "airports": {
    "KPOC": {
      "name": "Brackett Field",
      "metar": "",
      "metarTime": "",
      "taf": "",
      "tafTime": ""
    },
    "KCCB": {
      "name": "Cable Airport",
      "metar": "METAR KCCB 011315Z AUTO 26004KT 6SM BR SCT008 15/15 A2992 RMK AO2",
      "metarTime": "2026-07-01T13:15:00.000Z",
      "taf": "",
      "tafTime": ""
    },
    "KRAL": {
      "name": "Riverside Municipal",
      "metar": "METAR KRAL 011253Z AUTO 27004KT 10SM OVC022 17/13 A2992 RMK AO2 SLP118 T01670133",
      "metarTime": "2026-07-01T13:00:00.000Z",
      "taf": "",
      "tafTime": ""
    }
  }
}
