{
  "updated": "2026-06-04T05:00:00.000Z",
  "airports": {
    "KPOC": {
      "name": "Brackett Field",
      "metar": "METAR KPOC 040347Z 21006KT 10SM CLR 19/13 A2993 RMK LAST",
      "metarTime": "2026-06-04T04:00:00.000Z",
      "taf": "",
      "tafTime": ""
    },
    "KCCB": {
      "name": "Cable Airport",
      "metar": "METAR KCCB 040455Z AUTO 26003KT 10SM 19/14 A2994 RMK AO2",
      "metarTime": "2026-06-04T05:00:00.000Z",
      "taf": "",
      "tafTime": ""
    },
    "KRAL": {
      "name": "Riverside Municipal",
      "metar": "METAR KRAL 040453Z AUTO 27006KT 10SM CLR 19/14 A2992 RMK AO2 SLP119 T01940139",
      "metarTime": "2026-06-04T05:00:00.000Z",
      "taf": "",
      "tafTime": ""
    }
  }
}
