{
  "updated": "2026-04-04T14:15:00.000Z",
  "airports": {
    "KPOC": {
      "name": "Brackett Field",
      "metar": "METAR KPOC 041347Z 00000KT 10SM CLR 12/M01 A3002",
      "metarTime": "2026-04-04T14:00:00.000Z",
      "taf": "",
      "tafTime": ""
    },
    "KCCB": {
      "name": "Cable Airport",
      "metar": "METAR KCCB 041415Z AUTO 00000KT 10SM CLR 17/M11 A3003 RMK AO2",
      "metarTime": "2026-04-04T14:15:00.000Z",
      "taf": "",
      "tafTime": ""
    },
    "KRAL": {
      "name": "Riverside Municipal",
      "metar": "METAR KRAL 041353Z AUTO 05007KT 10SM CLR 18/M10 A3004 RMK AO2 SLP156 T01831100",
      "metarTime": "2026-04-04T14:00:00.000Z",
      "taf": "",
      "tafTime": ""
    }
  }
}
