{
  "updated": "2026-02-12T19:35:00.000Z",
  "airports": {
    "KPOC": {
      "name": "Brackett Field",
      "metar": "METAR KPOC 121847Z 00000KT 10SM CLR 15/08 A3016",
      "metarTime": "2026-02-12T19:00:00.000Z",
      "taf": "",
      "tafTime": ""
    },
    "KCCB": {
      "name": "Cable Airport",
      "metar": "METAR KCCB 121935Z AUTO 00000KT 10SM CLR 16/07 A3013 RMK AO2",
      "metarTime": "2026-02-12T19:35:00.000Z",
      "taf": "",
      "tafTime": ""
    },
    "KRAL": {
      "name": "Riverside Municipal",
      "metar": "METAR KRAL 121853Z VRB03KT 10SM CLR 16/08 A3015 RMK AO2 SLP201 T01560083",
      "metarTime": "2026-02-12T19:00:00.000Z",
      "taf": "",
      "tafTime": ""
    }
  }
}
