{
  "updated": "2026-02-04T11:35:00.000Z",
  "airports": {
    "KPOC": {
      "name": "Brackett Field",
      "metar": "",
      "metarTime": "",
      "taf": "",
      "tafTime": ""
    },
    "KCCB": {
      "name": "Cable Airport",
      "metar": "METAR KCCB 041135Z AUTO 33004KT 10SM CLR 17/M08 A3016 RMK AO2",
      "metarTime": "2026-02-04T11:35:00.000Z",
      "taf": "",
      "tafTime": ""
    },
    "KRAL": {
      "name": "Riverside Municipal",
      "metar": "METAR KRAL 041053Z AUTO 06004KT 10SM CLR 14/M04 A3018 RMK AO2 SLP205 T01441044",
      "metarTime": "2026-02-04T11:00:00.000Z",
      "taf": "",
      "tafTime": ""
    }
  }
}
