{
  "updated": "2026-05-15T11:00:00.000Z",
  "airports": {
    "KPOC": {
      "name": "Brackett Field",
      "metar": "",
      "metarTime": "",
      "taf": "",
      "tafTime": ""
    },
    "KCCB": {
      "name": "Cable Airport",
      "metar": "METAR KCCB 151055Z AUTO 29006KT 6SM BR OVC007 14/14 A2996 RMK AO2",
      "metarTime": "2026-05-15T11:00:00.000Z",
      "taf": "",
      "tafTime": ""
    },
    "KRAL": {
      "name": "Riverside Municipal",
      "metar": "METAR KRAL 151053Z AUTO 27004KT 10SM CLR 13/12 A2997 RMK AO2 SLP133 T01330117",
      "metarTime": "2026-05-15T11:00:00.000Z",
      "taf": "",
      "tafTime": ""
    }
  }
}
