{
  "updated": "2026-07-12T01:15:00.000Z",
  "airports": {
    "KPOC": {
      "name": "Brackett Field",
      "metar": "METAR KPOC 120047Z 25012KT 10SM CLR 29/14 A2994",
      "metarTime": "2026-07-12T01:00:00.000Z",
      "taf": "",
      "tafTime": ""
    },
    "KCCB": {
      "name": "Cable Airport",
      "metar": "METAR KCCB 120115Z AUTO 25015G21KT 10SM CLR 28/14 A2994 RMK AO2",
      "metarTime": "2026-07-12T01:15:00.000Z",
      "taf": "",
      "tafTime": ""
    },
    "KRAL": {
      "name": "Riverside Municipal",
      "metar": "METAR KRAL 120053Z 27011G21KT 10SM CLR 29/16 A2990 RMK AO2 SLP108 T02890156",
      "metarTime": "2026-07-12T01:00:00.000Z",
      "taf": "",
      "tafTime": ""
    }
  }
}
