{
  "updated": "2026-04-16T11:15:00.000Z",
  "airports": {
    "KPOC": {
      "name": "Brackett Field",
      "metar": "",
      "metarTime": "",
      "taf": "",
      "tafTime": ""
    },
    "KCCB": {
      "name": "Cable Airport",
      "metar": "METAR KCCB 161115Z AUTO 00000KT 10SM FEW037 14/05 A2991 RMK AO2",
      "metarTime": "2026-04-16T11:15:00.000Z",
      "taf": "",
      "tafTime": ""
    },
    "KRAL": {
      "name": "Riverside Municipal",
      "metar": "METAR KRAL 161053Z AUTO 10SM CLR 13/09 A2991 RMK AO2 SLP115 T01280089",
      "metarTime": "2026-04-16T11:00:00.000Z",
      "taf": "",
      "tafTime": ""
    }
  }
}
