{
  "updated": "2026-02-07T01:00:00.000Z",
  "airports": {
    "KPOC": {
      "name": "Brackett Field",
      "metar": "METAR KPOC 070047Z 24007KT 10SM CLR 19/11 A3009",
      "metarTime": "2026-02-07T01:00:00.000Z",
      "taf": "",
      "tafTime": ""
    },
    "KCCB": {
      "name": "Cable Airport",
      "metar": "METAR KCCB 070055Z AUTO 26008KT 10SM CLR 19/10 A3009 RMK AO2",
      "metarTime": "2026-02-07T01:00:00.000Z",
      "taf": "",
      "tafTime": ""
    },
    "KRAL": {
      "name": "Riverside Municipal",
      "metar": "METAR KRAL 070053Z 27007KT 10SM CLR 18/11 A3008 RMK AO2 SLP175 T01830106",
      "metarTime": "2026-02-07T01:00:00.000Z",
      "taf": "",
      "tafTime": ""
    }
  }
}
