{
  "updated": "2026-06-22T00:00:00.000Z",
  "airports": {
    "KPOC": {
      "name": "Brackett Field",
      "metar": "METAR KPOC 212347Z 25012KT 10SM CLR 26/13 A2986",
      "metarTime": "2026-06-22T00:00:00.000Z",
      "taf": "",
      "tafTime": ""
    },
    "KCCB": {
      "name": "Cable Airport",
      "metar": "METAR KCCB 212355Z AUTO 25010G16KT 10SM CLR 26/12 A2986 RMK AO2",
      "metarTime": "2026-06-22T00:00:00.000Z",
      "taf": "",
      "tafTime": ""
    },
    "KRAL": {
      "name": "Riverside Municipal",
      "metar": "METAR KRAL 212353Z AUTO 28012G19KT 10SM CLR 28/12 A2983 RMK AO2 SLP087 T02780117 10289 20222 56014",
      "metarTime": "2026-06-22T00:00:00.000Z",
      "taf": "",
      "tafTime": ""
    }
  }
}
