{
  "updated": "2026-03-13T21:15:00.000Z",
  "airports": {
    "KPOC": {
      "name": "Brackett Field",
      "metar": "METAR KPOC 132047Z 25005KT 10SM CLR 31/M03 A2998",
      "metarTime": "2026-03-13T21:00:00.000Z",
      "taf": "",
      "tafTime": ""
    },
    "KCCB": {
      "name": "Cable Airport",
      "metar": "METAR KCCB 132115Z AUTO 24005G10KT 10SM CLR 31/M07 A2997 RMK AO2",
      "metarTime": "2026-03-13T21:15:00.000Z",
      "taf": "",
      "tafTime": ""
    },
    "KRAL": {
      "name": "Riverside Municipal",
      "metar": "METAR KRAL 132053Z 00000KT 10SM CLR 34/M04 A2994 RMK AO2 SLP123 T03391039 58023",
      "metarTime": "2026-03-13T21:00:00.000Z",
      "taf": "",
      "tafTime": ""
    }
  }
}
