{
  "updated": "2026-02-06T11:35:00.000Z",
  "airports": {
    "KPOC": {
      "name": "Brackett Field",
      "metar": "",
      "metarTime": "",
      "taf": "",
      "tafTime": ""
    },
    "KCCB": {
      "name": "Cable Airport",
      "metar": "METAR KCCB 061135Z AUTO 30006KT 10SM BKN120 15/07 A3010 RMK AO2",
      "metarTime": "2026-02-06T11:35:00.000Z",
      "taf": "",
      "tafTime": ""
    },
    "KRAL": {
      "name": "Riverside Municipal",
      "metar": "METAR KRAL 061053Z AUTO 00000KT 10SM CLR 15/08 A3010 RMK AO2 SLP178 T01500083",
      "metarTime": "2026-02-06T11:00:00.000Z",
      "taf": "",
      "tafTime": ""
    }
  }
}
