{
  "updated": "2026-03-14T09:35:00.000Z",
  "airports": {
    "KPOC": {
      "name": "Brackett Field",
      "metar": "",
      "metarTime": "",
      "taf": "",
      "tafTime": ""
    },
    "KCCB": {
      "name": "Cable Airport",
      "metar": "METAR KCCB 140935Z AUTO 02003KT 10SM 19/02 A2994 RMK AO2",
      "metarTime": "2026-03-14T09:35:00.000Z",
      "taf": "",
      "tafTime": ""
    },
    "KRAL": {
      "name": "Riverside Municipal",
      "metar": "METAR KRAL 140853Z AUTO 02005KT 10SM CLR 18/06 A2994 RMK AO2 SLP122 T01780056 53001",
      "metarTime": "2026-03-14T09:00:00.000Z",
      "taf": "",
      "tafTime": ""
    }
  }
}
