{
  "updated": "2026-06-23T22:35:00.000Z",
  "airports": {
    "KPOC": {
      "name": "Brackett Field",
      "metar": "METAR KPOC 232147Z 26009KT 10SM CLR 28/15 A3000",
      "metarTime": "2026-06-23T22:00:00.000Z",
      "taf": "",
      "tafTime": ""
    },
    "KCCB": {
      "name": "Cable Airport",
      "metar": "METAR KCCB 232235Z AUTO 28008KT 10SM CLR 28/14 A3000 RMK AO2",
      "metarTime": "2026-06-23T22:35:00.000Z",
      "taf": "",
      "tafTime": ""
    },
    "KRAL": {
      "name": "Riverside Municipal",
      "metar": "METAR KRAL 232153Z VRB06KT 10SM FU CLR 31/13 A2997 RMK AO2 SLP132 T03110128",
      "metarTime": "2026-06-23T22:00:00.000Z",
      "taf": "",
      "tafTime": ""
    }
  }
}
