{
  "updated": "2026-07-09T06:15:00.000Z",
  "airports": {
    "KPOC": {
      "name": "Brackett Field",
      "metar": "",
      "metarTime": "",
      "taf": "",
      "tafTime": ""
    },
    "KCCB": {
      "name": "Cable Airport",
      "metar": "METAR KCCB 090615Z AUTO 00000KT 10SM 22/12 A2991 RMK AO2",
      "metarTime": "2026-07-09T06:15:00.000Z",
      "taf": "",
      "tafTime": ""
    },
    "KRAL": {
      "name": "Riverside Municipal",
      "metar": "METAR KRAL 090553Z AUTO 26005KT 10SM CLR 23/14 A2990 RMK AO2 SLP107 T02330144 10350 20233 51009",
      "metarTime": "2026-07-09T06:00:00.000Z",
      "taf": "",
      "tafTime": ""
    }
  }
}
