{
  "updated": "2026-06-25T12:15:00.000Z",
  "airports": {
    "KPOC": {
      "name": "Brackett Field",
      "metar": "",
      "metarTime": "",
      "taf": "",
      "tafTime": ""
    },
    "KCCB": {
      "name": "Cable Airport",
      "metar": "METAR KCCB 251215Z AUTO 32004KT 3SM BR OVC006 15/15 A2993 RMK AO2",
      "metarTime": "2026-06-25T12:15:00.000Z",
      "taf": "",
      "tafTime": ""
    },
    "KRAL": {
      "name": "Riverside Municipal",
      "metar": "METAR KRAL 251153Z AUTO 28003KT 7SM OVC007 16/14 A2993 RMK AO2 SLP119 T01610139 10189 20156 56007",
      "metarTime": "2026-06-25T12:00:00.000Z",
      "taf": "",
      "tafTime": ""
    }
  }
}
