{
  "updated": "2026-02-17T12:15:00.000Z",
  "airports": {
    "KPOC": {
      "name": "Brackett Field",
      "metar": "",
      "metarTime": "",
      "taf": "",
      "tafTime": ""
    },
    "KCCB": {
      "name": "Cable Airport",
      "metar": "METAR KCCB 171215Z AUTO 09003KT 10SM OVC005 07/07 A2994 RMK AO2",
      "metarTime": "2026-02-17T12:15:00.000Z",
      "taf": "",
      "tafTime": ""
    },
    "KRAL": {
      "name": "Riverside Municipal",
      "metar": "METAR KRAL 171153Z AUTO 09004KT 10SM BKN045 OVC055 08/07 A2996 RMK AO2 RAE46 SLP138 P0003 60026 70101 T00830072 10106 20078 58002",
      "metarTime": "2026-02-17T12:00:00.000Z",
      "taf": "",
      "tafTime": ""
    }
  }
}
