{
  "updated": "2026-03-18T01:00:00.000Z",
  "airports": {
    "KPOC": {
      "name": "Brackett Field",
      "metar": "METAR KPOC 172347Z 26010KT 10SM CLR 36/05 A2992",
      "metarTime": "2026-03-18T00:00:00.000Z",
      "taf": "",
      "tafTime": ""
    },
    "KCCB": {
      "name": "Cable Airport",
      "metar": "METAR KCCB 180055Z AUTO 27012G19KT 10SM CLR 33/03 A2993 RMK AO2",
      "metarTime": "2026-03-18T01:00:00.000Z",
      "taf": "",
      "tafTime": ""
    },
    "KRAL": {
      "name": "Riverside Municipal",
      "metar": "METAR KRAL 180053Z 26011KT 10SM CLR 33/04 A2989 RMK AO2 SLP104 T03330044",
      "metarTime": "2026-03-18T01:00:00.000Z",
      "taf": "",
      "tafTime": ""
    }
  }
}
