{
  "updated": "2026-02-12T16:00:00.000Z",
  "airports": {
    "KPOC": {
      "name": "Brackett Field",
      "metar": "METAR KPOC 121547Z 00000KT 10SM CLR 09/07 A3017",
      "metarTime": "2026-02-12T16:00:00.000Z",
      "taf": "",
      "tafTime": ""
    },
    "KCCB": {
      "name": "Cable Airport",
      "metar": "METAR KCCB 121555Z AUTO 00000KT 10SM CLR 11/07 A3015 RMK AO2",
      "metarTime": "2026-02-12T16:00:00.000Z",
      "taf": "",
      "tafTime": ""
    },
    "KRAL": {
      "name": "Riverside Municipal",
      "metar": "METAR KRAL 121553Z 00000KT 10SM CLR 09/08 A3016 RMK AO2 SLP204 T00890083",
      "metarTime": "2026-02-12T16:00:00.000Z",
      "taf": "",
      "tafTime": ""
    }
  }
}
