{
  "updated": "2026-07-15T22:15:00.000Z",
  "airports": {
    "KPOC": {
      "name": "Brackett Field",
      "metar": "METAR KPOC 152147Z 26009G18KT 10SM CLR 37/17 A2984",
      "metarTime": "2026-07-15T22:00:00.000Z",
      "taf": "",
      "tafTime": ""
    },
    "KCCB": {
      "name": "Cable Airport",
      "metar": "METAR KCCB 152215Z AUTO 28014G20KT 10SM CLR 36/14 A2985 RMK AO2",
      "metarTime": "2026-07-15T22:15:00.000Z",
      "taf": "",
      "tafTime": ""
    },
    "KRAL": {
      "name": "Riverside Municipal",
      "metar": "METAR KRAL 152153Z 27011G26KT 260V320 10SM CLR 39/16 A2980 RMK AO2 PK WND 27026/2149 SLP072 T03940156",
      "metarTime": "2026-07-15T22:00:00.000Z",
      "taf": "",
      "tafTime": ""
    }
  }
}
