{
  "updated": "2026-03-26T00:00:00.000Z",
  "airports": {
    "KPOC": {
      "name": "Brackett Field",
      "metar": "METAR KPOC 252347Z 26011KT 10SM CLR 27/14 A2993",
      "metarTime": "2026-03-26T00:00:00.000Z",
      "taf": "",
      "tafTime": ""
    },
    "KCCB": {
      "name": "Cable Airport",
      "metar": "METAR KCCB 252335Z AUTO 24014G23KT 8SM CLR 27/12 A2993 RMK AO2",
      "metarTime": "2026-03-25T23:35:00.000Z",
      "taf": "",
      "tafTime": ""
    },
    "KRAL": {
      "name": "Riverside Municipal",
      "metar": "METAR KRAL 252253Z 26011G16KT 10SM CLR 31/12 A2989 RMK AO2 SLP107 T03110117",
      "metarTime": "2026-03-25T23:00:00.000Z",
      "taf": "",
      "tafTime": ""
    }
  }
}
