{
  "updated": "2026-03-21T03:15:00.000Z",
  "airports": {
    "KPOC": {
      "name": "Brackett Field",
      "metar": "METAR KPOC 210247Z 25005KT 10SM CLR 28/06 A2993",
      "metarTime": "2026-03-21T03:00:00.000Z",
      "taf": "",
      "tafTime": ""
    },
    "KCCB": {
      "name": "Cable Airport",
      "metar": "METAR KCCB 210315Z AUTO 29005KT 10SM CLR 27/07 A2994 RMK AO2",
      "metarTime": "2026-03-21T03:15:00.000Z",
      "taf": "",
      "tafTime": ""
    },
    "KRAL": {
      "name": "Riverside Municipal",
      "metar": "METAR KRAL 210253Z 27007KT 10SM CLR 27/11 A2991 RMK AO2 SLP111 T02720111 53005",
      "metarTime": "2026-03-21T03:00:00.000Z",
      "taf": "",
      "tafTime": ""
    }
  }
}
