{
  "updated": "2026-04-26T20:00:00.000Z",
  "airports": {
    "KPOC": {
      "name": "Brackett Field",
      "metar": "METAR KPOC 261947Z 26009KT 10SM SCT040 17/06 A2994",
      "metarTime": "2026-04-26T20:00:00.000Z",
      "taf": "",
      "tafTime": ""
    },
    "KCCB": {
      "name": "Cable Airport",
      "metar": "METAR KCCB 261955Z AUTO 23011KT 190V260 10SM FEW060 17/04 A2993 RMK AO2",
      "metarTime": "2026-04-26T20:00:00.000Z",
      "taf": "",
      "tafTime": ""
    },
    "KRAL": {
      "name": "Riverside Municipal",
      "metar": "METAR KRAL 261953Z 22014G20KT 10SM BKN046 BKN060 18/06 A2994 RMK AO2 SLP128 T01780056",
      "metarTime": "2026-04-26T20:00:00.000Z",
      "taf": "",
      "tafTime": ""
    }
  }
}
