{
  "updated": "2026-02-18T21:00:00.000Z",
  "airports": {
    "KPOC": {
      "name": "Brackett Field",
      "metar": "METAR KPOC 182047Z 24005KT 10SM FEW050 12/M02 A3002",
      "metarTime": "2026-02-18T21:00:00.000Z",
      "taf": "",
      "tafTime": ""
    },
    "KCCB": {
      "name": "Cable Airport",
      "metar": "METAR KCCB 182055Z AUTO 25012KT 10SM FEW055 12/M03 A3000 RMK AO2",
      "metarTime": "2026-02-18T21:00:00.000Z",
      "taf": "",
      "tafTime": ""
    },
    "KRAL": {
      "name": "Riverside Municipal",
      "metar": "METAR KRAL 182053Z 24013G19KT 10SM SCT055 14/M01 A3001 RMK AO2 SLP153 T01391011 58012 $",
      "metarTime": "2026-02-18T21:00:00.000Z",
      "taf": "",
      "tafTime": ""
    }
  }
}
