{
  "updated": "2026-04-09T17:15:00.000Z",
  "airports": {
    "KPOC": {
      "name": "Brackett Field",
      "metar": "METAR KPOC 091647Z 26004KT 8SM CLR 18/13 A2998",
      "metarTime": "2026-04-09T17:00:00.000Z",
      "taf": "",
      "tafTime": ""
    },
    "KCCB": {
      "name": "Cable Airport",
      "metar": "METAR KCCB 091715Z AUTO VRB04KT 10SM CLR 19/12 A2997 RMK AO2",
      "metarTime": "2026-04-09T17:15:00.000Z",
      "taf": "",
      "tafTime": ""
    },
    "KRAL": {
      "name": "Riverside Municipal",
      "metar": "METAR KRAL 091653Z 22003KT 10SM CLR 20/12 A2997 RMK AO2 SLP134 T02000117",
      "metarTime": "2026-04-09T17:00:00.000Z",
      "taf": "",
      "tafTime": ""
    }
  }
}
