{
  "updated": "2026-04-25T07:30:00.000Z",
  "airports": {
    "KPOC": {
      "name": "Brackett Field",
      "metar": "",
      "metarTime": "",
      "taf": "",
      "tafTime": ""
    },
    "KCCB": {
      "name": "Cable Airport",
      "metar": "METAR KCCB 250730Z AUTO 23006KT 10SM 14/11 A2989 RMK AO2",
      "metarTime": "2026-04-25T07:30:00.000Z",
      "taf": "",
      "tafTime": ""
    },
    "KRAL": {
      "name": "Riverside Municipal",
      "metar": "METAR KRAL 250653Z AUTO 00000KT 10SM FEW030 14/09 A2990 RMK AO2 SLP113 T01390094",
      "metarTime": "2026-04-25T07:00:00.000Z",
      "taf": "",
      "tafTime": ""
    }
  }
}
