{
  "updated": "2026-02-20T07:15:00.000Z",
  "airports": {
    "KPOC": {
      "name": "Brackett Field",
      "metar": "",
      "metarTime": "",
      "taf": "",
      "tafTime": ""
    },
    "KCCB": {
      "name": "Cable Airport",
      "metar": "METAR KCCB 200715Z AUTO 00000KT 10SM CLR 06/06 A2989 RMK AO2",
      "metarTime": "2026-02-20T07:15:00.000Z",
      "taf": "",
      "tafTime": ""
    },
    "KRAL": {
      "name": "Riverside Municipal",
      "metar": "METAR KRAL 200653Z AUTO 22006KT 10SM OVC041 09/03 A2990 RMK AO2 SLP118 T00890028",
      "metarTime": "2026-02-20T07:00:00.000Z",
      "taf": "",
      "tafTime": ""
    }
  }
}
