{
  "updated": "2026-03-18T21:00:00.000Z",
  "airports": {
    "KPOC": {
      "name": "Brackett Field",
      "metar": "METAR KPOC 181947Z 27007KT 10SM CLR 32/07 A3006",
      "metarTime": "2026-03-18T20:00:00.000Z",
      "taf": "",
      "tafTime": ""
    },
    "KCCB": {
      "name": "Cable Airport",
      "metar": "METAR KCCB 182035Z AUTO 27009G14KT 10SM CLR 34/03 A3006 RMK AO2",
      "metarTime": "2026-03-18T20:35:00.000Z",
      "taf": "",
      "tafTime": ""
    },
    "KRAL": {
      "name": "Riverside Municipal",
      "metar": "METAR KRAL 182053Z 26007KT 10SM CLR 36/06 A3000 RMK AO2 SLP142 T03560056 58013",
      "metarTime": "2026-03-18T21:00:00.000Z",
      "taf": "",
      "tafTime": ""
    }
  }
}
