{
  "updated": "2026-04-30T20:35:00.000Z",
  "airports": {
    "KPOC": {
      "name": "Brackett Field",
      "metar": "METAR KPOC 301947Z 25010KT 10SM CLR 21/09 A2988",
      "metarTime": "2026-04-30T20:00:00.000Z",
      "taf": "",
      "tafTime": ""
    },
    "KCCB": {
      "name": "Cable Airport",
      "metar": "METAR KCCB 302035Z AUTO 25008G15KT 230V290 10SM CLR 22/09 A2986 RMK AO2",
      "metarTime": "2026-04-30T20:35:00.000Z",
      "taf": "",
      "tafTime": ""
    },
    "KRAL": {
      "name": "Riverside Municipal",
      "metar": "METAR KRAL 301953Z 25005KT 10SM CLR 23/09 A2985 RMK AO2 SLP093 T02330094",
      "metarTime": "2026-04-30T20:00:00.000Z",
      "taf": "",
      "tafTime": ""
    }
  }
}
