{
  "updated": "2026-02-17T23:15:00.000Z",
  "airports": {
    "KPOC": {
      "name": "Brackett Field",
      "metar": "METAR KPOC 172247Z 24012KT 10SM BKN025 13/07 A3007",
      "metarTime": "2026-02-17T23:00:00.000Z",
      "taf": "",
      "tafTime": ""
    },
    "KCCB": {
      "name": "Cable Airport",
      "metar": "METAR KCCB 172315Z AUTO 27009G15KT 10SM SCT026 SCT033 BKN039 12/06 A3003 RMK AO2",
      "metarTime": "2026-02-17T23:15:00.000Z",
      "taf": "",
      "tafTime": ""
    },
    "KRAL": {
      "name": "Riverside Municipal",
      "metar": "METAR KRAL 172253Z 26010G19KT 10SM FEW025 FEW034 BKN060 14/07 A3003 RMK AO2 SLP160 T01390067",
      "metarTime": "2026-02-17T23:00:00.000Z",
      "taf": "",
      "tafTime": ""
    }
  }
}
