{
  "updated": "2026-03-06T07:35:00.000Z",
  "airports": {
    "KPOC": {
      "name": "Brackett Field",
      "metar": "",
      "metarTime": "",
      "taf": "",
      "tafTime": ""
    },
    "KCCB": {
      "name": "Cable Airport",
      "metar": "METAR KCCB 060735Z AUTO 00000KT 10SM CLR 14/M04 A2997 RMK AO2",
      "metarTime": "2026-03-06T07:35:00.000Z",
      "taf": "",
      "tafTime": ""
    },
    "KRAL": {
      "name": "Riverside Municipal",
      "metar": "METAR KRAL 060653Z AUTO 04006KT 10SM CLR 14/M04 A2998 RMK AO2 SLP139 T01441044",
      "metarTime": "2026-03-06T07:00:00.000Z",
      "taf": "",
      "tafTime": ""
    }
  }
}
