{
  "updated": "2026-06-13T18:00:00.000Z",
  "airports": {
    "KPOC": {
      "name": "Brackett Field",
      "metar": "METAR KPOC 131747Z 23005KT 10SM CLR 28/17 A2993",
      "metarTime": "2026-06-13T18:00:00.000Z",
      "taf": "",
      "tafTime": ""
    },
    "KCCB": {
      "name": "Cable Airport",
      "metar": "METAR KCCB 131755Z AUTO VRB05KT 10SM CLR 28/13 A2993 RMK AO2",
      "metarTime": "2026-06-13T18:00:00.000Z",
      "taf": "",
      "tafTime": ""
    },
    "KRAL": {
      "name": "Riverside Municipal",
      "metar": "METAR KRAL 131753Z VRB05KT 10SM CLR 30/13 A2990 RMK AO2 SLP106 T03000128 10306 20178 50000",
      "metarTime": "2026-06-13T18:00:00.000Z",
      "taf": "",
      "tafTime": ""
    }
  }
}
