{
  "updated": "2026-07-16T17:00:00.000Z",
  "airports": {
    "KPOC": {
      "name": "Brackett Field",
      "metar": "METAR KPOC 161647Z 25006KT 10SM CLR 28/16 A2987",
      "metarTime": "2026-07-16T17:00:00.000Z",
      "taf": "",
      "tafTime": ""
    },
    "KCCB": {
      "name": "Cable Airport",
      "metar": "METAR KCCB 161655Z AUTO VRB04KT 10SM CLR 29/14 A2988 RMK AO2",
      "metarTime": "2026-07-16T17:00:00.000Z",
      "taf": "",
      "tafTime": ""
    },
    "KRAL": {
      "name": "Riverside Municipal",
      "metar": "METAR KRAL 161653Z VRB03KT 10SM CLR 30/15 A2985 RMK AO2 SLP088 T03000150",
      "metarTime": "2026-07-16T17:00:00.000Z",
      "taf": "",
      "tafTime": ""
    }
  }
}
