{
  "updated": "2026-02-22T09:35:00.000Z",
  "airports": {
    "KPOC": {
      "name": "Brackett Field",
      "metar": "",
      "metarTime": "",
      "taf": "",
      "tafTime": ""
    },
    "KCCB": {
      "name": "Cable Airport",
      "metar": "METAR KCCB 220935Z AUTO 00000KT 10SM CLR 11/M01 A3020 RMK AO2",
      "metarTime": "2026-02-22T09:35:00.000Z",
      "taf": "",
      "tafTime": ""
    },
    "KRAL": {
      "name": "Riverside Municipal",
      "metar": "METAR KRAL 220853Z AUTO 00000KT 10SM CLR 11/M01 A3021 RMK AO2 SLP218 T01111006 58003 $",
      "metarTime": "2026-02-22T09:00:00.000Z",
      "taf": "",
      "tafTime": ""
    }
  }
}
