{
  "updated": "2026-04-23T10:00:00.000Z",
  "airports": {
    "KPOC": {
      "name": "Brackett Field",
      "metar": "",
      "metarTime": "",
      "taf": "",
      "tafTime": ""
    },
    "KCCB": {
      "name": "Cable Airport",
      "metar": "METAR KCCB 230955Z AUTO 00000KT 10SM 11/07 A3000 RMK AO2",
      "metarTime": "2026-04-23T10:00:00.000Z",
      "taf": "",
      "tafTime": ""
    },
    "KRAL": {
      "name": "Riverside Municipal",
      "metar": "METAR KRAL 230953Z AUTO 00000KT 10SM CLR 11/07 A3002 RMK AO2 SLP153 T01110072",
      "metarTime": "2026-04-23T10:00:00.000Z",
      "taf": "",
      "tafTime": ""
    }
  }
}
