{
  "updated": "2026-05-23T17:35:00.000Z",
  "airports": {
    "KPOC": {
      "name": "Brackett Field",
      "metar": "METAR KPOC 231647Z 33003KT 5SM OVC012 16/12 A2999 HZ",
      "metarTime": "2026-05-23T17:00:00.000Z",
      "taf": "",
      "tafTime": ""
    },
    "KCCB": {
      "name": "Cable Airport",
      "metar": "METAR KCCB 231735Z AUTO 00000KT 8SM OVC015 17/13 A2998 RMK AO2",
      "metarTime": "2026-05-23T17:35:00.000Z",
      "taf": "",
      "tafTime": ""
    },
    "KRAL": {
      "name": "Riverside Municipal",
      "metar": "METAR KRAL 231653Z AUTO 00000KT 9SM OVC017 17/12 A2998 RMK AO2 SLP141 T01720117",
      "metarTime": "2026-05-23T17:00:00.000Z",
      "taf": "",
      "tafTime": ""
    }
  }
}
