{
  "updated": "2026-05-04T07:15:00.000Z",
  "airports": {
    "KPOC": {
      "name": "Brackett Field",
      "metar": "",
      "metarTime": "",
      "taf": "",
      "tafTime": ""
    },
    "KCCB": {
      "name": "Cable Airport",
      "metar": "METAR KCCB 040715Z AUTO 26008KT 10SM OVC045 13/10 A2998 RMK AO2",
      "metarTime": "2026-05-04T07:15:00.000Z",
      "taf": "",
      "tafTime": ""
    },
    "KRAL": {
      "name": "Riverside Municipal",
      "metar": "METAR KRAL 040653Z AUTO 26009KT 10SM OVC050 14/09 A2997 RMK AO2 SLP138 T01440094",
      "metarTime": "2026-05-04T07:00:00.000Z",
      "taf": "",
      "tafTime": ""
    }
  }
}
