{
  "updated": "2026-04-26T17:00:00.000Z",
  "airports": {
    "KPOC": {
      "name": "Brackett Field",
      "metar": "METAR KPOC 261647Z 24005KT 10SM SCT015 14/08 A2994",
      "metarTime": "2026-04-26T17:00:00.000Z",
      "taf": "",
      "tafTime": ""
    },
    "KCCB": {
      "name": "Cable Airport",
      "metar": "METAR KCCB 261655Z AUTO 27009KT 10SM SCT044 13/08 A2992 RMK AO2",
      "metarTime": "2026-04-26T17:00:00.000Z",
      "taf": "",
      "tafTime": ""
    },
    "KRAL": {
      "name": "Riverside Municipal",
      "metar": "METAR KRAL 261653Z 26009KT 10SM FEW019 SCT049 15/08 A2993 RMK AO2 SLP125 T01500083",
      "metarTime": "2026-04-26T17:00:00.000Z",
      "taf": "",
      "tafTime": ""
    }
  }
}
