{
  "updated": "2026-03-23T23:00:00.000Z",
  "airports": {
    "KPOC": {
      "name": "Brackett Field",
      "metar": "METAR KPOC 232247Z 24010KT 10SM CLR 28/12 A2991",
      "metarTime": "2026-03-23T23:00:00.000Z",
      "taf": "",
      "tafTime": ""
    },
    "KCCB": {
      "name": "Cable Airport",
      "metar": "METAR KCCB 232235Z AUTO 25011G16KT 10SM CLR 28/09 A2991 RMK AO2",
      "metarTime": "2026-03-23T22:35:00.000Z",
      "taf": "",
      "tafTime": ""
    },
    "KRAL": {
      "name": "Riverside Municipal",
      "metar": "METAR KRAL 232253Z 26012G19KT 10SM CLR 29/12 A2988 RMK AO2 SLP102 T02940117",
      "metarTime": "2026-03-23T23:00:00.000Z",
      "taf": "",
      "tafTime": ""
    }
  }
}
