{
  "updated": "2026-04-04T06:15:00.000Z",
  "airports": {
    "KPOC": {
      "name": "Brackett Field",
      "metar": "",
      "metarTime": "",
      "taf": "",
      "tafTime": ""
    },
    "KCCB": {
      "name": "Cable Airport",
      "metar": "METAR KCCB 040615Z AUTO 00000KT 10SM CLR 19/M13 A3006 RMK AO2",
      "metarTime": "2026-04-04T06:15:00.000Z",
      "taf": "",
      "tafTime": ""
    },
    "KRAL": {
      "name": "Riverside Municipal",
      "metar": "METAR KRAL 040553Z AUTO 05006KT 10SM CLR 21/M14 A3008 RMK AO2 SLP170 T02061139 10256 20206 51016",
      "metarTime": "2026-04-04T06:00:00.000Z",
      "taf": "",
      "tafTime": ""
    }
  }
}
