{
  "updated": "2026-03-20T16:15:00.000Z",
  "airports": {
    "KPOC": {
      "name": "Brackett Field",
      "metar": "METAR KPOC 201547Z 13003KT 10SM CLR 24/08 A3002",
      "metarTime": "2026-03-20T16:00:00.000Z",
      "taf": "",
      "tafTime": ""
    },
    "KCCB": {
      "name": "Cable Airport",
      "metar": "METAR KCCB 201615Z AUTO 00000KT 10SM CLR 28/05 A3003 RMK AO2",
      "metarTime": "2026-03-20T16:15:00.000Z",
      "taf": "",
      "tafTime": ""
    },
    "KRAL": {
      "name": "Riverside Municipal",
      "metar": "METAR KRAL 201553Z 07003KT 10SM CLR 23/10 A3000 RMK AO2 SLP143 T02280100",
      "metarTime": "2026-03-20T16:00:00.000Z",
      "taf": "",
      "tafTime": ""
    }
  }
}
