{
  "updated": "2026-03-21T08:30:00.000Z",
  "airports": {
    "KPOC": {
      "name": "Brackett Field",
      "metar": "",
      "metarTime": "",
      "taf": "",
      "tafTime": ""
    },
    "KCCB": {
      "name": "Cable Airport",
      "metar": "METAR KCCB 210830Z AUTO 07004KT 10SM 22/07 A2996 RMK AO2",
      "metarTime": "2026-03-21T08:30:00.000Z",
      "taf": "",
      "tafTime": ""
    },
    "KRAL": {
      "name": "Riverside Municipal",
      "metar": "METAR KRAL 210753Z AUTO 00000KT 10SM CLR 21/12 A2995 RMK AO2 SLP125 T02060117 403890172",
      "metarTime": "2026-03-21T08:00:00.000Z",
      "taf": "",
      "tafTime": ""
    }
  }
}
