{
  "updated": "2026-03-09T09:15:00.000Z",
  "airports": {
    "KPOC": {
      "name": "Brackett Field",
      "metar": "",
      "metarTime": "",
      "taf": "",
      "tafTime": ""
    },
    "KCCB": {
      "name": "Cable Airport",
      "metar": "METAR KCCB 090915Z AUTO 28010G15KT 10SM CLR 14/07 A2989 RMK AO2",
      "metarTime": "2026-03-09T09:15:00.000Z",
      "taf": "",
      "tafTime": ""
    },
    "KRAL": {
      "name": "Riverside Municipal",
      "metar": "METAR KRAL 090853Z AUTO 08004KT 10SM CLR 13/04 A2988 RMK AO2 SLP103 T01330039 53015",
      "metarTime": "2026-03-09T09:00:00.000Z",
      "taf": "",
      "tafTime": ""
    }
  }
}
