{
  "updated": "2026-03-28T20:00:00.000Z",
  "airports": {
    "KPOC": {
      "name": "Brackett Field",
      "metar": "METAR KPOC 281947Z 24005KT 10SM CLR 28/05 A3000",
      "metarTime": "2026-03-28T20:00:00.000Z",
      "taf": "",
      "tafTime": ""
    },
    "KCCB": {
      "name": "Cable Airport",
      "metar": "METAR KCCB 281955Z AUTO VRB05KT 10SM CLR 28/01 A3000 RMK AO2",
      "metarTime": "2026-03-28T20:00:00.000Z",
      "taf": "",
      "tafTime": ""
    },
    "KRAL": {
      "name": "Riverside Municipal",
      "metar": "METAR KRAL 281953Z VRB03KT 10SM CLR 30/M01 A2998 RMK AO2 SLP135 T03001006",
      "metarTime": "2026-03-28T20:00:00.000Z",
      "taf": "",
      "tafTime": ""
    }
  }
}
