{
  "updated": "2026-05-12T17:15:00.000Z",
  "airports": {
    "KPOC": {
      "name": "Brackett Field",
      "metar": "METAR KPOC 121647Z 25008KT 2 1/2SM BR OVC010 16/13 A3002 BR",
      "metarTime": "2026-05-12T17:00:00.000Z",
      "taf": "",
      "tafTime": ""
    },
    "KCCB": {
      "name": "Cable Airport",
      "metar": "METAR KCCB 121715Z AUTO 24010KT 3SM BR FEW013 17/14 A3001 RMK AO2",
      "metarTime": "2026-05-12T17:15:00.000Z",
      "taf": "",
      "tafTime": ""
    },
    "KRAL": {
      "name": "Riverside Municipal",
      "metar": "SPECI KRAL 121711Z 29004KT 5SM HZ OVC011 18/13 A3001 RMK AO2 T01780133",
      "metarTime": "2026-05-12T17:11:00.000Z",
      "taf": "",
      "tafTime": ""
    }
  }
}
