{
  "updated": "2026-02-13T21:00:00.000Z",
  "airports": {
    "KPOC": {
      "name": "Brackett Field",
      "metar": "METAR KPOC 132047Z 26009KT 10SM CLR 19/06 A3000",
      "metarTime": "2026-02-13T21:00:00.000Z",
      "taf": "",
      "tafTime": ""
    },
    "KCCB": {
      "name": "Cable Airport",
      "metar": "METAR KCCB 132055Z AUTO 26010G19KT 10SM CLR 19/02 A2999 RMK AO2",
      "metarTime": "2026-02-13T21:00:00.000Z",
      "taf": "",
      "tafTime": ""
    },
    "KRAL": {
      "name": "Riverside Municipal",
      "metar": "METAR KRAL 132053Z 28010KT 10SM CLR 21/06 A2996 RMK AO2 SLP135 T02110056 58014",
      "metarTime": "2026-02-13T21:00:00.000Z",
      "taf": "",
      "tafTime": ""
    }
  }
}
