{
  "updated": "2026-07-05T01:00:00.000Z",
  "airports": {
    "KPOC": {
      "name": "Brackett Field",
      "metar": "METAR KPOC 050047Z 2209KT 10SM CLR 31/11 A2996",
      "metarTime": "2026-07-05T01:00:00.000Z",
      "taf": "",
      "tafTime": ""
    },
    "KCCB": {
      "name": "Cable Airport",
      "metar": "METAR KCCB 050055Z AUTO 25010KT 10SM CLR 31/10 A2997 RMK AO2",
      "metarTime": "2026-07-05T01:00:00.000Z",
      "taf": "",
      "tafTime": ""
    },
    "KRAL": {
      "name": "Riverside Municipal",
      "metar": "METAR KRAL 050053Z 27009KT 10SM CLR 32/12 A2994 RMK AO2 SLP121 T03170117",
      "metarTime": "2026-07-05T01:00:00.000Z",
      "taf": "",
      "tafTime": ""
    }
  }
}
