{
  "updated": "2026-04-17T20:00:00.000Z",
  "airports": {
    "KPOC": {
      "name": "Brackett Field",
      "metar": "METAR KPOC 171947Z 25003KT 10SM CLR 21/08 A3000",
      "metarTime": "2026-04-17T20:00:00.000Z",
      "taf": "",
      "tafTime": ""
    },
    "KCCB": {
      "name": "Cable Airport",
      "metar": "METAR KCCB 171935Z AUTO 25008G13KT 10SM CLR 20/06 A3000 RMK AO2",
      "metarTime": "2026-04-17T19:35:00.000Z",
      "taf": "",
      "tafTime": ""
    },
    "KRAL": {
      "name": "Riverside Municipal",
      "metar": "METAR KRAL 171853Z 02012G26KT 10SM CLR 23/M09 A2999 RMK AO2 PK WND 02028/1843 SLP142 T02331089",
      "metarTime": "2026-04-17T19:00:00.000Z",
      "taf": "",
      "tafTime": ""
    }
  }
}
