{
  "updated": "2026-03-11T12:15:00.000Z",
  "airports": {
    "KPOC": {
      "name": "Brackett Field",
      "metar": "",
      "metarTime": "",
      "taf": "",
      "tafTime": ""
    },
    "KCCB": {
      "name": "Cable Airport",
      "metar": "METAR KCCB 111215Z AUTO 01004KT 10SM CLR 11/10 A3020 RMK AO2",
      "metarTime": "2026-03-11T12:15:00.000Z",
      "taf": "",
      "tafTime": ""
    },
    "KRAL": {
      "name": "Riverside Municipal",
      "metar": "METAR KRAL 111153Z AUTO 00000KT 10SM CLR 11/09 A3021 RMK AO2 SLP217 T01060089 10139 20100 53002",
      "metarTime": "2026-03-11T12:00:00.000Z",
      "taf": "",
      "tafTime": ""
    }
  }
}
