{
  "updated": "2026-06-10T04:35:00.000Z",
  "airports": {
    "KPOC": {
      "name": "Brackett Field",
      "metar": "METAR KPOC 100347Z 23006KT 10SM CLR 22/14 A2986 RMK LAST",
      "metarTime": "2026-06-10T04:00:00.000Z",
      "taf": "",
      "tafTime": ""
    },
    "KCCB": {
      "name": "Cable Airport",
      "metar": "METAR KCCB 100435Z AUTO 25006KT 10SM 21/14 A2987 RMK AO2",
      "metarTime": "2026-06-10T04:35:00.000Z",
      "taf": "",
      "tafTime": ""
    },
    "KRAL": {
      "name": "Riverside Municipal",
      "metar": "METAR KRAL 100353Z AUTO 28006KT 10SM CLR 22/12 A2985 RMK AO2 SLP093 T02220122",
      "metarTime": "2026-06-10T04:00:00.000Z",
      "taf": "",
      "tafTime": ""
    }
  }
}
