{
  "updated": "2026-02-26T15:00:00.000Z",
  "airports": {
    "KPOC": {
      "name": "Brackett Field",
      "metar": "METAR KPOC 261447Z 00000KT 10SM CLR 13/10 A3009",
      "metarTime": "2026-02-26T15:00:00.000Z",
      "taf": "",
      "tafTime": ""
    },
    "KCCB": {
      "name": "Cable Airport",
      "metar": "METAR KCCB 261455Z AUTO 00000KT 10SM CLR 16/10 A3009 RMK AO2",
      "metarTime": "2026-02-26T15:00:00.000Z",
      "taf": "",
      "tafTime": ""
    },
    "KRAL": {
      "name": "Riverside Municipal",
      "metar": "METAR KRAL 261453Z 06004KT 8SM CLR 13/11 A3009 RMK AO2 SLP177 T01280106 53012",
      "metarTime": "2026-02-26T15:00:00.000Z",
      "taf": "",
      "tafTime": ""
    }
  }
}
