{
  "updated": "2026-02-19T23:35:00.000Z",
  "airports": {
    "KPOC": {
      "name": "Brackett Field",
      "metar": "METAR KPOC 192247Z 34003KT 10SM BKN045 09/08 A2984",
      "metarTime": "2026-02-19T23:00:00.000Z",
      "taf": "",
      "tafTime": ""
    },
    "KCCB": {
      "name": "Cable Airport",
      "metar": "METAR KCCB 192335Z AUTO 26012KT 10SM FEW015 FEW020 FEW050 10/10 A2981 RMK AO2",
      "metarTime": "2026-02-19T23:35:00.000Z",
      "taf": "",
      "tafTime": ""
    },
    "KRAL": {
      "name": "Riverside Municipal",
      "metar": "SPECI KRAL 192325Z 24011G20KT 10SM SCT012 BKN023 OVC044 11/08 A2984 RMK AO2 PK WND 26027/2303 RAE17 P0002 T01060083",
      "metarTime": "2026-02-19T23:25:00.000Z",
      "taf": "",
      "tafTime": ""
    }
  }
}
