{
  "updated": "2026-03-14T17:35:00.000Z",
  "airports": {
    "KPOC": {
      "name": "Brackett Field",
      "metar": "METAR KPOC 141647Z VRB04KT 10SM CLR 22/04 A2998",
      "metarTime": "2026-03-14T17:00:00.000Z",
      "taf": "",
      "tafTime": ""
    },
    "KCCB": {
      "name": "Cable Airport",
      "metar": "METAR KCCB 141735Z AUTO VRB04KT 10SM CLR 23/01 A2998 RMK AO2",
      "metarTime": "2026-03-14T17:35:00.000Z",
      "taf": "",
      "tafTime": ""
    },
    "KRAL": {
      "name": "Riverside Municipal",
      "metar": "METAR KRAL 141653Z 00000KT 10SM CLR 21/06 A2997 RMK AO2 SLP133 T02060056",
      "metarTime": "2026-03-14T17:00:00.000Z",
      "taf": "",
      "tafTime": ""
    }
  }
}
