{
  "updated": "2026-06-14T00:00:00.000Z",
  "airports": {
    "KPOC": {
      "name": "Brackett Field",
      "metar": "METAR KPOC 132247Z 21011G16KT 10SM CLR 31/12 A2990",
      "metarTime": "2026-06-13T23:00:00.000Z",
      "taf": "",
      "tafTime": ""
    },
    "KCCB": {
      "name": "Cable Airport",
      "metar": "",
      "metarTime": "",
      "taf": "",
      "tafTime": ""
    },
    "KRAL": {
      "name": "Riverside Municipal",
      "metar": "METAR KRAL 132353Z 29008G21KT 10SM CLR 32/10 A2985 RMK AO2 SLP092 T03170100 10344 20306 58007",
      "metarTime": "2026-06-14T00:00:00.000Z",
      "taf": "",
      "tafTime": ""
    }
  }
}
