{
  "updated": "2026-04-23T13:00:00.000Z",
  "airports": {
    "KPOC": {
      "name": "Brackett Field",
      "metar": "",
      "metarTime": "",
      "taf": "",
      "tafTime": ""
    },
    "KCCB": {
      "name": "Cable Airport",
      "metar": "METAR KCCB 231235Z AUTO 35004KT 10SM CLR 11/06 A2999 RMK AO2",
      "metarTime": "2026-04-23T12:35:00.000Z",
      "taf": "",
      "tafTime": ""
    },
    "KRAL": {
      "name": "Riverside Municipal",
      "metar": "METAR KRAL 231253Z AUTO 06003KT 10SM CLR 09/06 A3001 RMK AO2 SLP150 T00940061",
      "metarTime": "2026-04-23T13:00:00.000Z",
      "taf": "",
      "tafTime": ""
    }
  }
}
