{
  "updated": "2026-06-11T20:35:00.000Z",
  "airports": {
    "KPOC": {
      "name": "Brackett Field",
      "metar": "METAR KPOC 111947Z 23008KT 10SM CLR 29/16 A2987",
      "metarTime": "2026-06-11T20:00:00.000Z",
      "taf": "",
      "tafTime": ""
    },
    "KCCB": {
      "name": "Cable Airport",
      "metar": "METAR KCCB 112035Z AUTO 23008KT 10SM CLR 30/14 A2987 RMK AO2",
      "metarTime": "2026-06-11T20:35:00.000Z",
      "taf": "",
      "tafTime": ""
    },
    "KRAL": {
      "name": "Riverside Municipal",
      "metar": "METAR KRAL 111953Z VRB06KT 10SM CLR 32/15 A2984 RMK AO2 SLP087 T03170150",
      "metarTime": "2026-06-11T20:00:00.000Z",
      "taf": "",
      "tafTime": ""
    }
  }
}
