{
  "updated": "2026-02-27T21:35:00.000Z",
  "airports": {
    "KPOC": {
      "name": "Brackett Field",
      "metar": "METAR KPOC 272047Z 29003KT 10SM CLR 31/08 A2998",
      "metarTime": "2026-02-27T21:00:00.000Z",
      "taf": "",
      "tafTime": ""
    },
    "KCCB": {
      "name": "Cable Airport",
      "metar": "METAR KCCB 272135Z AUTO VRB05G10KT 10SM CLR 31/05 A2997 RMK AO2",
      "metarTime": "2026-02-27T21:35:00.000Z",
      "taf": "",
      "tafTime": ""
    },
    "KRAL": {
      "name": "Riverside Municipal",
      "metar": "METAR KRAL 272053Z 07005KT 10SM CLR 33/08 A2995 RMK AO2 SLP125 T03280083 58024",
      "metarTime": "2026-02-27T21:00:00.000Z",
      "taf": "",
      "tafTime": ""
    }
  }
}
