{
  "updated": "2026-02-09T21:15:00.000Z",
  "airports": {
    "KPOC": {
      "name": "Brackett Field",
      "metar": "METAR KPOC 092047Z 00000KT 10SM CLR 24/02 A2999",
      "metarTime": "2026-02-09T21:00:00.000Z",
      "taf": "",
      "tafTime": ""
    },
    "KCCB": {
      "name": "Cable Airport",
      "metar": "METAR KCCB 092115Z AUTO 23007KT 10SM CLR 24/M01 A2998 RMK AO2",
      "metarTime": "2026-02-09T21:15:00.000Z",
      "taf": "",
      "tafTime": ""
    },
    "KRAL": {
      "name": "Riverside Municipal",
      "metar": "METAR KRAL 092053Z VRB03KT 10SM CLR 25/02 A2997 RMK AO2 SLP134 T02500017 58028 $",
      "metarTime": "2026-02-09T21:00:00.000Z",
      "taf": "",
      "tafTime": ""
    }
  }
}
