{
  "updated": "2026-02-12T09:15:00.000Z",
  "airports": {
    "KPOC": {
      "name": "Brackett Field",
      "metar": "",
      "metarTime": "",
      "taf": "",
      "tafTime": ""
    },
    "KCCB": {
      "name": "Cable Airport",
      "metar": "METAR KCCB 120915Z AUTO 09005KT 10SM FEW024 FEW029 SCT034 10/06 A3015 RMK AO2",
      "metarTime": "2026-02-12T09:15:00.000Z",
      "taf": "",
      "tafTime": ""
    },
    "KRAL": {
      "name": "Riverside Municipal",
      "metar": "METAR KRAL 120853Z AUTO 06003KT 10SM CLR 10/09 A3017 RMK AO2 SLP207 T01000089 50009 $",
      "metarTime": "2026-02-12T09:00:00.000Z",
      "taf": "",
      "tafTime": ""
    }
  }
}
