{
  "updated": "2026-02-11T14:03:00.000Z",
  "airports": {
    "KPOC": {
      "name": "Brackett Field",
      "metar": "",
      "metarTime": "",
      "taf": "",
      "tafTime": ""
    },
    "KCCB": {
      "name": "Cable Airport",
      "metar": "METAR KCCB 111355Z AUTO 27005KT 2SM -RA 11/11 A3004 RMK AO2 P0006",
      "metarTime": "2026-02-11T14:00:00.000Z",
      "taf": "",
      "tafTime": ""
    },
    "KRAL": {
      "name": "Riverside Municipal",
      "metar": "SPECI KRAL 111403Z AUTO 28006KT 10SM FEW014 BKN033 OVC043 12/11 A3006 RMK AO2 RAE00 P0000 T01220111 $",
      "metarTime": "2026-02-11T14:03:00.000Z",
      "taf": "",
      "tafTime": ""
    }
  }
}
