{
  "updated": "2026-03-27T14:00:00.000Z",
  "airports": {
    "KPOC": {
      "name": "Brackett Field",
      "metar": "METAR KPOC 271347Z 00000KT 7SM CLR 14/11 A2996",
      "metarTime": "2026-03-27T14:00:00.000Z",
      "taf": "",
      "tafTime": ""
    },
    "KCCB": {
      "name": "Cable Airport",
      "metar": "METAR KCCB 271355Z AUTO 00000KT 10SM CLR 18/09 A2995 RMK AO2",
      "metarTime": "2026-03-27T14:00:00.000Z",
      "taf": "",
      "tafTime": ""
    },
    "KRAL": {
      "name": "Riverside Municipal",
      "metar": "METAR KRAL 271353Z 00000KT 10SM CLR 16/10 A2995 RMK AO2 SLP128 T01560100",
      "metarTime": "2026-03-27T14:00:00.000Z",
      "taf": "",
      "tafTime": ""
    }
  }
}
