{
  "updated": "2026-03-11T22:00:00.000Z",
  "airports": {
    "KPOC": {
      "name": "Brackett Field",
      "metar": "METAR KPOC 112147Z 24006KT 10SM CLR 24/09 A3021",
      "metarTime": "2026-03-11T22:00:00.000Z",
      "taf": "",
      "tafTime": ""
    },
    "KCCB": {
      "name": "Cable Airport",
      "metar": "METAR KCCB 112135Z AUTO 27008KT 10SM CLR 25/08 A3021 RMK AO2",
      "metarTime": "2026-03-11T21:35:00.000Z",
      "taf": "",
      "tafTime": ""
    },
    "KRAL": {
      "name": "Riverside Municipal",
      "metar": "METAR KRAL 112053Z 26005KT 10SM CLR 26/09 A3021 RMK AO2 SLP218 T02560094 58014",
      "metarTime": "2026-03-11T21:00:00.000Z",
      "taf": "",
      "tafTime": ""
    }
  }
}
