{
  "updated": "2026-04-04T05:00:00.000Z",
  "airports": {
    "KPOC": {
      "name": "Brackett Field",
      "metar": "",
      "metarTime": "",
      "taf": "",
      "tafTime": ""
    },
    "KCCB": {
      "name": "Cable Airport",
      "metar": "METAR KCCB 040455Z AUTO 00000KT 10SM CLR 21/M13 A3007 RMK AO2",
      "metarTime": "2026-04-04T05:00:00.000Z",
      "taf": "",
      "tafTime": ""
    },
    "KRAL": {
      "name": "Riverside Municipal",
      "metar": "METAR KRAL 040453Z AUTO 02010G19KT 10SM CLR 22/M14 A3007 RMK AO2 SLP169 T02171139",
      "metarTime": "2026-04-04T05:00:00.000Z",
      "taf": "",
      "tafTime": ""
    }
  }
}
