{
  "updated": "2026-04-19T04:35:00.000Z",
  "airports": {
    "KPOC": {
      "name": "Brackett Field",
      "metar": "",
      "metarTime": "",
      "taf": "",
      "tafTime": ""
    },
    "KCCB": {
      "name": "Cable Airport",
      "metar": "METAR KCCB 190435Z AUTO 24006KT 10SM CLR 19/06 A2996 RMK AO2",
      "metarTime": "2026-04-19T04:35:00.000Z",
      "taf": "",
      "tafTime": ""
    },
    "KRAL": {
      "name": "Riverside Municipal",
      "metar": "METAR KRAL 190353Z AUTO 00000KT 10SM CLR 21/05 A2993 RMK AO2 SLP120 T02110050",
      "metarTime": "2026-04-19T04:00:00.000Z",
      "taf": "",
      "tafTime": ""
    }
  }
}
