{
  "updated": "2026-05-24T10:35:00.000Z",
  "airports": {
    "KPOC": {
      "name": "Brackett Field",
      "metar": "",
      "metarTime": "",
      "taf": "",
      "tafTime": ""
    },
    "KCCB": {
      "name": "Cable Airport",
      "metar": "METAR KCCB 241035Z AUTO 00000KT 7SM OVC009 15/14 A2999 RMK AO2",
      "metarTime": "2026-05-24T10:35:00.000Z",
      "taf": "",
      "tafTime": ""
    },
    "KRAL": {
      "name": "Riverside Municipal",
      "metar": "METAR KRAL 240953Z AUTO 26004KT 10SM OVC015 16/12 A2999 RMK AO2 SLP139 T01610122",
      "metarTime": "2026-05-24T10:00:00.000Z",
      "taf": "",
      "tafTime": ""
    }
  }
}
