{
  "updated": "2026-02-21T22:00:00.000Z",
  "airports": {
    "KPOC": {
      "name": "Brackett Field",
      "metar": "METAR KPOC 212147Z 12011KT 10SM CLR 19/M03 A3013",
      "metarTime": "2026-02-21T22:00:00.000Z",
      "taf": "",
      "tafTime": ""
    },
    "KCCB": {
      "name": "Cable Airport",
      "metar": "METAR KCCB 212155Z AUTO VRB05G11KT 10SM CLR 18/M07 A3012 RMK AO2",
      "metarTime": "2026-02-21T22:00:00.000Z",
      "taf": "",
      "tafTime": ""
    },
    "KRAL": {
      "name": "Riverside Municipal",
      "metar": "METAR KRAL 212153Z AUTO 04008KT 10SM CLR 19/M03 A3012 RMK AO2 SLP191 T01941033 $",
      "metarTime": "2026-02-21T22:00:00.000Z",
      "taf": "",
      "tafTime": ""
    }
  }
}
