{
  "updated": "2026-04-26T04:00:00.000Z",
  "airports": {
    "KPOC": {
      "name": "Brackett Field",
      "metar": "METAR KPOC 260247Z VRB05KT 2SM OVC015 12/11 A2990 BR -RA",
      "metarTime": "2026-04-26T03:00:00.000Z",
      "taf": "",
      "tafTime": ""
    },
    "KCCB": {
      "name": "Cable Airport",
      "metar": "METAR KCCB 260355Z AUTO 25005KT 10SM SCT025 BKN030 OVC070 12/12 A2989 RMK AO2",
      "metarTime": "2026-04-26T04:00:00.000Z",
      "taf": "",
      "tafTime": ""
    },
    "KRAL": {
      "name": "Riverside Municipal",
      "metar": "METAR KRAL 260353Z AUTO 25010KT 10SM FEW050 OVC070 13/08 A2990 RMK AO2 RAE30 SLP114 P0000 T01330083",
      "metarTime": "2026-04-26T04:00:00.000Z",
      "taf": "",
      "tafTime": ""
    }
  }
}
