{
  "updated": "2026-03-26T11:35:00.000Z",
  "airports": {
    "KPOC": {
      "name": "Brackett Field",
      "metar": "",
      "metarTime": "",
      "taf": "",
      "tafTime": ""
    },
    "KCCB": {
      "name": "Cable Airport",
      "metar": "METAR KCCB 261135Z AUTO 27009KT 10SM 16/07 A2994 RMK AO2",
      "metarTime": "2026-03-26T11:35:00.000Z",
      "taf": "",
      "tafTime": ""
    },
    "KRAL": {
      "name": "Riverside Municipal",
      "metar": "METAR KRAL 261053Z AUTO 00000KT 8SM CLR 15/12 A2992 RMK AO2 SLP117 T01500122",
      "metarTime": "2026-03-26T11:00:00.000Z",
      "taf": "",
      "tafTime": ""
    }
  }
}
