{
  "updated": "2026-03-29T22:00:00.000Z",
  "airports": {
    "KPOC": {
      "name": "Brackett Field",
      "metar": "METAR KPOC 292147Z 18009KT 10SM CLR 31/M02 A2994",
      "metarTime": "2026-03-29T22:00:00.000Z",
      "taf": "",
      "tafTime": ""
    },
    "KCCB": {
      "name": "Cable Airport",
      "metar": "METAR KCCB 292135Z AUTO 21010KT 10SM CLR 31/M08 A2995 RMK AO2",
      "metarTime": "2026-03-29T21:35:00.000Z",
      "taf": "",
      "tafTime": ""
    },
    "KRAL": {
      "name": "Riverside Municipal",
      "metar": "METAR KRAL 292053Z 26008KT 10SM CLR 33/M03 A2993 RMK AO2 SLP118 T03331028 58009",
      "metarTime": "2026-03-29T21:00:00.000Z",
      "taf": "",
      "tafTime": ""
    }
  }
}
