{
  "updated": "2026-06-07T11:35:00.000Z",
  "airports": {
    "KPOC": {
      "name": "Brackett Field",
      "metar": "",
      "metarTime": "",
      "taf": "",
      "tafTime": ""
    },
    "KCCB": {
      "name": "Cable Airport",
      "metar": "METAR KCCB 071135Z AUTO 00000KT 10SM OVC013 16/14 A2983 RMK AO2",
      "metarTime": "2026-06-07T11:35:00.000Z",
      "taf": "",
      "tafTime": ""
    },
    "KRAL": {
      "name": "Riverside Municipal",
      "metar": "METAR KRAL 071053Z AUTO 26003KT 10SM OVC016 17/13 A2983 RMK AO2 SLP086 T01670128",
      "metarTime": "2026-06-07T11:00:00.000Z",
      "taf": "",
      "tafTime": ""
    }
  }
}
