{
  "updated": "2026-03-28T23:15:00.000Z",
  "airports": {
    "KPOC": {
      "name": "Brackett Field",
      "metar": "",
      "metarTime": "",
      "taf": "",
      "tafTime": ""
    },
    "KCCB": {
      "name": "Cable Airport",
      "metar": "METAR KCCB 282315Z AUTO 25010KT 10SM CLR 29/05 A2995 RMK AO2",
      "metarTime": "2026-03-28T23:15:00.000Z",
      "taf": "",
      "tafTime": ""
    },
    "KRAL": {
      "name": "Riverside Municipal",
      "metar": "METAR KRAL 282253Z AUTO 27007KT 240V320 10SM CLR 33/01 A2991 RMK AO2 SLP113 T03330006",
      "metarTime": "2026-03-28T23:00:00.000Z",
      "taf": "",
      "tafTime": ""
    }
  }
}
