{
  "updated": "2026-07-05T20:00:00.000Z",
  "airports": {
    "KPOC": {
      "name": "Brackett Field",
      "metar": "METAR KPOC 051947Z 26010KT 5SM HZ CLR 28/16 A2999",
      "metarTime": "2026-07-05T20:00:00.000Z",
      "taf": "",
      "tafTime": ""
    },
    "KCCB": {
      "name": "Cable Airport",
      "metar": "METAR KCCB 051955Z AUTO 26009KT 7SM CLR 28/14 A2999 RMK AO2",
      "metarTime": "2026-07-05T20:00:00.000Z",
      "taf": "",
      "tafTime": ""
    },
    "KRAL": {
      "name": "Riverside Municipal",
      "metar": "METAR KRAL 051953Z 24006KT 10SM CLR 31/15 A2995 RMK AO2 SLP126 T03110150",
      "metarTime": "2026-07-05T20:00:00.000Z",
      "taf": "",
      "tafTime": ""
    }
  }
}
