{
  "updated": "2026-05-11T05:35:00.000Z",
  "airports": {
    "KPOC": {
      "name": "Brackett Field",
      "metar": "",
      "metarTime": "",
      "taf": "",
      "tafTime": ""
    },
    "KCCB": {
      "name": "Cable Airport",
      "metar": "METAR KCCB 110535Z AUTO 27005KT 10SM CLR 18/15 A2998 RMK AO2",
      "metarTime": "2026-05-11T05:35:00.000Z",
      "taf": "",
      "tafTime": ""
    },
    "KRAL": {
      "name": "Riverside Municipal",
      "metar": "METAR KRAL 110453Z AUTO 27006KT 10SM CLR 19/13 A2997 RMK AO2 SLP137 T01890133",
      "metarTime": "2026-05-11T05:00:00.000Z",
      "taf": "",
      "tafTime": ""
    }
  }
}
