{
  "updated": "2026-04-18T11:35:00.000Z",
  "airports": {
    "KPOC": {
      "name": "Brackett Field",
      "metar": "",
      "metarTime": "",
      "taf": "",
      "tafTime": ""
    },
    "KCCB": {
      "name": "Cable Airport",
      "metar": "METAR KCCB 181135Z AUTO 00000KT 10SM CLR 15/04 A2995 RMK AO2",
      "metarTime": "2026-04-18T11:35:00.000Z",
      "taf": "",
      "tafTime": ""
    },
    "KRAL": {
      "name": "Riverside Municipal",
      "metar": "METAR KRAL 181053Z AUTO 00000KT 10SM CLR 12/M05 A2996 RMK AO2 SLP131 T01171050",
      "metarTime": "2026-04-18T11:00:00.000Z",
      "taf": "",
      "tafTime": ""
    }
  }
}
