{
  "updated": "2026-04-14T07:00:00.000Z",
  "airports": {
    "KPOC": {
      "name": "Brackett Field",
      "metar": "",
      "metarTime": "",
      "taf": "",
      "tafTime": ""
    },
    "KCCB": {
      "name": "Cable Airport",
      "metar": "METAR KCCB 140655Z AUTO 35004KT 10SM OVC021 11/07 A3008 RMK AO2",
      "metarTime": "2026-04-14T07:00:00.000Z",
      "taf": "",
      "tafTime": ""
    },
    "KRAL": {
      "name": "Riverside Municipal",
      "metar": "METAR KRAL 140653Z AUTO 00000KT 10SM BKN048 12/07 A3008 RMK AO2 SLP177 T01220067",
      "metarTime": "2026-04-14T07:00:00.000Z",
      "taf": "",
      "tafTime": ""
    }
  }
}
