{
  "updated": "2026-02-22T06:00:00.000Z",
  "airports": {
    "KPOC": {
      "name": "Brackett Field",
      "metar": "METAR KPOC 220447Z 00000KT 10SM CLR 13/01 A3019",
      "metarTime": "2026-02-22T05:00:00.000Z",
      "taf": "",
      "tafTime": ""
    },
    "KCCB": {
      "name": "Cable Airport",
      "metar": "METAR KCCB 220555Z AUTO 01006KT 10SM CLR 11/M01 A3021 RMK AO2",
      "metarTime": "2026-02-22T06:00:00.000Z",
      "taf": "",
      "tafTime": ""
    },
    "KRAL": {
      "name": "Riverside Municipal",
      "metar": "METAR KRAL 220553Z AUTO 00000KT 10SM CLR 13/M03 A3022 RMK AO2 SLP221 T01331033 10200 20122 51017 $",
      "metarTime": "2026-02-22T06:00:00.000Z",
      "taf": "",
      "tafTime": ""
    }
  }
}
