{
  "updated": "2026-02-10T11:35:00.000Z",
  "airports": {
    "KPOC": {
      "name": "Brackett Field",
      "metar": "",
      "metarTime": "",
      "taf": "",
      "tafTime": ""
    },
    "KCCB": {
      "name": "Cable Airport",
      "metar": "METAR KCCB 101135Z AUTO 00000KT 10SM CLR 15/03 A2991 RMK AO2",
      "metarTime": "2026-02-10T11:35:00.000Z",
      "taf": "",
      "tafTime": ""
    },
    "KRAL": {
      "name": "Riverside Municipal",
      "metar": "METAR KRAL 101053Z AUTO 12004KT 10SM CLR 12/05 A2991 RMK AO2 SLP116 T01170050 $",
      "metarTime": "2026-02-10T11:00:00.000Z",
      "taf": "",
      "tafTime": ""
    }
  }
}
