{
  "updated": "2026-03-20T03:35:00.000Z",
  "airports": {
    "KPOC": {
      "name": "Brackett Field",
      "metar": "METAR KPOC 200247Z 26006KT 10SM CLR 28/14 A2998",
      "metarTime": "2026-03-20T03:00:00.000Z",
      "taf": "",
      "tafTime": ""
    },
    "KCCB": {
      "name": "Cable Airport",
      "metar": "METAR KCCB 200335Z AUTO 26005KT 9SM CLR 28/04 A3000 RMK AO2",
      "metarTime": "2026-03-20T03:35:00.000Z",
      "taf": "",
      "tafTime": ""
    },
    "KRAL": {
      "name": "Riverside Municipal",
      "metar": "METAR KRAL 200253Z AUTO 24005KT 10SM CLR 30/13 A2996 RMK AO2 SLP129 T03000128 53006",
      "metarTime": "2026-03-20T03:00:00.000Z",
      "taf": "",
      "tafTime": ""
    }
  }
}
