{
  "updated": "2026-02-07T14:35:00.000Z",
  "airports": {
    "KPOC": {
      "name": "Brackett Field",
      "metar": "",
      "metarTime": "",
      "taf": "",
      "tafTime": ""
    },
    "KCCB": {
      "name": "Cable Airport",
      "metar": "METAR KCCB 071435Z AUTO 07004KT 3SM BR FEW003 11/11 A3018 RMK AO2",
      "metarTime": "2026-02-07T14:35:00.000Z",
      "taf": "",
      "tafTime": ""
    },
    "KRAL": {
      "name": "Riverside Municipal",
      "metar": "SPECI KRAL 071421Z AUTO 02005KT 3SM BR FEW008 09/08 A3018 RMK AO2 T00890083",
      "metarTime": "2026-02-07T14:21:00.000Z",
      "taf": "",
      "tafTime": ""
    }
  }
}
