{
  "updated": "2026-02-03T18:35:00.000Z",
  "airports": {
    "KPOC": {
      "name": "Brackett Field",
      "metar": "METAR KPOC 031747Z 10003KT 10SM CLR 20/06 A3024",
      "metarTime": "2026-02-03T18:00:00.000Z",
      "taf": "",
      "tafTime": ""
    },
    "KCCB": {
      "name": "Cable Airport",
      "metar": "METAR KCCB 031835Z AUTO 00000KT 10SM CLR 24/01 A3023 RMK AO2",
      "metarTime": "2026-02-03T18:35:00.000Z",
      "taf": "",
      "tafTime": ""
    },
    "KRAL": {
      "name": "Riverside Municipal",
      "metar": "METAR KRAL 031753Z 13003KT 10SM CLR 20/06 A3023 RMK AO2 SLP224 T02000056 10200 20072 51005",
      "metarTime": "2026-02-03T18:00:00.000Z",
      "taf": "",
      "tafTime": ""
    }
  }
}
