{
  "updated": "2026-05-09T16:09:00.000Z",
  "airports": {
    "KPOC": {
      "name": "Brackett Field",
      "metar": "METAR KPOC 091547Z 00000KT 2SM BKN006 17/14 A2995 BR",
      "metarTime": "2026-05-09T16:00:00.000Z",
      "taf": "",
      "tafTime": ""
    },
    "KCCB": {
      "name": "Cable Airport",
      "metar": "METAR KCCB 091555Z AUTO 00000KT 2 1/2SM BR CLR 16/15 A2994 RMK AO2",
      "metarTime": "2026-05-09T16:00:00.000Z",
      "taf": "",
      "tafTime": ""
    },
    "KRAL": {
      "name": "Riverside Municipal",
      "metar": "SPECI KRAL 091609Z 00000KT 4SM BR OVC006 16/14 A2995 RMK AO2 T01610139",
      "metarTime": "2026-05-09T16:09:00.000Z",
      "taf": "",
      "tafTime": ""
    }
  }
}
