{
  "updated": "2026-04-18T05:00:00.000Z",
  "airports": {
    "KPOC": {
      "name": "Brackett Field",
      "metar": "METAR KPOC 180347Z 25004KT 10SM CLR 19/10 A2996 RMK LAST",
      "metarTime": "2026-04-18T04:00:00.000Z",
      "taf": "",
      "tafTime": ""
    },
    "KCCB": {
      "name": "Cable Airport",
      "metar": "METAR KCCB 180455Z AUTO 00000KT 10SM FEW050 19/05 A2998 RMK AO2",
      "metarTime": "2026-04-18T05:00:00.000Z",
      "taf": "",
      "tafTime": ""
    },
    "KRAL": {
      "name": "Riverside Municipal",
      "metar": "METAR KRAL 180453Z AUTO 00000KT 10SM CLR 19/11 A2997 RMK AO2 SLP136 T01890106",
      "metarTime": "2026-04-18T05:00:00.000Z",
      "taf": "",
      "tafTime": ""
    }
  }
}
