{
  "updated": "2026-02-27T16:35:00.000Z",
  "airports": {
    "KPOC": {
      "name": "Brackett Field",
      "metar": "",
      "metarTime": "",
      "taf": "",
      "tafTime": ""
    },
    "KCCB": {
      "name": "Cable Airport",
      "metar": "METAR KCCB 271635Z AUTO 00000KT 10SM CLR 24/08 A3004 RMK AO2",
      "metarTime": "2026-02-27T16:35:00.000Z",
      "taf": "",
      "tafTime": ""
    },
    "KRAL": {
      "name": "Riverside Municipal",
      "metar": "METAR KRAL 271553Z 07004KT 10SM CLR 18/10 A3003 RMK AO2 SLP155 T01830100",
      "metarTime": "2026-02-27T16:00:00.000Z",
      "taf": "",
      "tafTime": ""
    }
  }
}
