{
  "updated": "2026-04-21T10:00:00.000Z",
  "airports": {
    "KPOC": {
      "name": "Brackett Field",
      "metar": "",
      "metarTime": "",
      "taf": "",
      "tafTime": ""
    },
    "KCCB": {
      "name": "Cable Airport",
      "metar": "METAR KCCB 210935Z AUTO 30003KT 10SM 12/04 A3001 RMK AO2",
      "metarTime": "2026-04-21T09:35:00.000Z",
      "taf": "",
      "tafTime": ""
    },
    "KRAL": {
      "name": "Riverside Municipal",
      "metar": "METAR KRAL 210953Z AUTO 27003KT 10SM CLR 13/08 A3002 RMK AO2 SLP151 T01280083",
      "metarTime": "2026-04-21T10:00:00.000Z",
      "taf": "",
      "tafTime": ""
    }
  }
}
