{
  "updated": "2026-05-21T10:00:00.000Z",
  "airports": {
    "KPOC": {
      "name": "Brackett Field",
      "metar": "",
      "metarTime": "",
      "taf": "",
      "tafTime": ""
    },
    "KCCB": {
      "name": "Cable Airport",
      "metar": "",
      "metarTime": "",
      "taf": "",
      "tafTime": ""
    },
    "KRAL": {
      "name": "Riverside Municipal",
      "metar": "METAR KRAL 210953Z AUTO 00000KT 10SM CLR 17/03 A2987 RMK AO2 SLP099 T01670028",
      "metarTime": "2026-05-21T10:00:00.000Z",
      "taf": "",
      "tafTime": ""
    }
  }
}
