{
  "updated": "2026-03-14T07:35:00.000Z",
  "airports": {
    "KPOC": {
      "name": "Brackett Field",
      "metar": "",
      "metarTime": "",
      "taf": "",
      "tafTime": ""
    },
    "KCCB": {
      "name": "Cable Airport",
      "metar": "METAR KCCB 140735Z AUTO 07006KT 10SM 22/02 A2995 RMK AO2",
      "metarTime": "2026-03-14T07:35:00.000Z",
      "taf": "",
      "tafTime": ""
    },
    "KRAL": {
      "name": "Riverside Municipal",
      "metar": "METAR KRAL 140653Z AUTO 00000KT 10SM CLR 19/05 A2994 RMK AO2 SLP121 T01890050",
      "metarTime": "2026-03-14T07:00:00.000Z",
      "taf": "",
      "tafTime": ""
    }
  }
}
