{
  "updated": "2026-06-01T23:25:00.000Z",
  "airports": {
    "KPOC": {
      "name": "Brackett Field",
      "metar": "METAR KPOC 012247Z 26010KT 10SM CLR 28/11 A2993",
      "metarTime": "2026-06-01T23:00:00.000Z",
      "taf": "",
      "tafTime": ""
    },
    "KCCB": {
      "name": "Cable Airport",
      "metar": "METAR KCCB 012325Z AUTO 25016G21KT 10SM CLR 27/11 A2993 RMK AO2",
      "metarTime": "2026-06-01T23:25:00.000Z",
      "taf": "",
      "tafTime": ""
    },
    "KRAL": {
      "name": "Riverside Municipal",
      "metar": "METAR KRAL 012253Z 27016G23KT 10SM CLR 29/12 A2989 RMK AO2 SLP106 T02890117",
      "metarTime": "2026-06-01T23:00:00.000Z",
      "taf": "",
      "tafTime": ""
    }
  }
}
