{
  "updated": "2026-05-02T04:15:00.000Z",
  "airports": {
    "KPOC": {
      "name": "Brackett Field",
      "metar": "METAR KPOC 020347Z 26007KT 10SM CLR 17/13 A2993 RMK LAST",
      "metarTime": "2026-05-02T04:00:00.000Z",
      "taf": "",
      "tafTime": ""
    },
    "KCCB": {
      "name": "Cable Airport",
      "metar": "METAR KCCB 020415Z AUTO 26007KT 10SM CLR 18/14 A2993 RMK AO2",
      "metarTime": "2026-05-02T04:15:00.000Z",
      "taf": "",
      "tafTime": ""
    },
    "KRAL": {
      "name": "Riverside Municipal",
      "metar": "METAR KRAL 020353Z AUTO 27005KT 10SM CLR 18/13 A2992 RMK AO2 SLP120 T01830128",
      "metarTime": "2026-05-02T04:00:00.000Z",
      "taf": "",
      "tafTime": ""
    }
  }
}
