{
  "updated": "2026-02-06T03:35:00.000Z",
  "airports": {
    "KPOC": {
      "name": "Brackett Field",
      "metar": "METAR KPOC 060247Z 00000KT 10SM CLR 19/02 A3007",
      "metarTime": "2026-02-06T03:00:00.000Z",
      "taf": "",
      "tafTime": ""
    },
    "KCCB": {
      "name": "Cable Airport",
      "metar": "METAR KCCB 060335Z AUTO 00000KT 10SM BKN120 20/M03 A3009 RMK AO2",
      "metarTime": "2026-02-06T03:35:00.000Z",
      "taf": "",
      "tafTime": ""
    },
    "KRAL": {
      "name": "Riverside Municipal",
      "metar": "METAR KRAL 060253Z 07003KT 10SM SCT120 22/M01 A3006 RMK AO2 SLP167 T02171011 53017",
      "metarTime": "2026-02-06T03:00:00.000Z",
      "taf": "",
      "tafTime": ""
    }
  }
}
