{
  "updated": "2026-04-28T17:00:00.000Z",
  "airports": {
    "KPOC": {
      "name": "Brackett Field",
      "metar": "METAR KPOC 281647Z 14004KT 10SM CLR 16/06 A3008",
      "metarTime": "2026-04-28T17:00:00.000Z",
      "taf": "",
      "tafTime": ""
    },
    "KCCB": {
      "name": "Cable Airport",
      "metar": "METAR KCCB 281635Z AUTO 25004KT 10SM CLR 14/05 A3007 RMK AO2",
      "metarTime": "2026-04-28T16:35:00.000Z",
      "taf": "",
      "tafTime": ""
    },
    "KRAL": {
      "name": "Riverside Municipal",
      "metar": "METAR KRAL 281553Z 00000KT 10SM CLR 14/06 A3007 RMK AO2 SLP174 T01390061",
      "metarTime": "2026-04-28T16:00:00.000Z",
      "taf": "",
      "tafTime": ""
    }
  }
}
