{
  "updated": "2026-07-17T11:00:00.000Z",
  "airports": {
    "KPOC": {
      "name": "Brackett Field",
      "metar": "",
      "metarTime": "",
      "taf": "",
      "tafTime": ""
    },
    "KCCB": {
      "name": "Cable Airport",
      "metar": "METAR KCCB 171055Z AUTO 27006KT 10SM 21/15 A2991 RMK AO2",
      "metarTime": "2026-07-17T11:00:00.000Z",
      "taf": "",
      "tafTime": ""
    },
    "KRAL": {
      "name": "Riverside Municipal",
      "metar": "METAR KRAL 171053Z AUTO 26003KT 10SM CLR 21/17 A2990 RMK AO2 SLP106 T02110167",
      "metarTime": "2026-07-17T11:00:00.000Z",
      "taf": "",
      "tafTime": ""
    }
  }
}
