{
  "updated": "2026-04-04T20:30:00.000Z",
  "airports": {
    "KPOC": {
      "name": "Brackett Field",
      "metar": "METAR KPOC 041947Z 00000KT 10SM CLR 28/M11 A3004",
      "metarTime": "2026-04-04T20:00:00.000Z",
      "taf": "",
      "tafTime": ""
    },
    "KCCB": {
      "name": "Cable Airport",
      "metar": "METAR KCCB 042030Z AUTO VRB04KT 10SM CLR 28/M19 A3002 RMK AO2",
      "metarTime": "2026-04-04T20:30:00.000Z",
      "taf": "",
      "tafTime": ""
    },
    "KRAL": {
      "name": "Riverside Municipal",
      "metar": "METAR KRAL 041953Z 01007G21KT 330V060 10SM CLR 29/M09 A3002 RMK AO2 SLP150 T02941094",
      "metarTime": "2026-04-04T20:00:00.000Z",
      "taf": "",
      "tafTime": ""
    }
  }
}
