{
  "updated": "2026-02-09T09:35:00.000Z",
  "airports": {
    "KPOC": {
      "name": "Brackett Field",
      "metar": "",
      "metarTime": "",
      "taf": "",
      "tafTime": ""
    },
    "KCCB": {
      "name": "Cable Airport",
      "metar": "METAR KCCB 090935Z AUTO 05003KT 10SM CLR 16/M03 A3011 RMK AO2",
      "metarTime": "2026-02-09T09:35:00.000Z",
      "taf": "",
      "tafTime": ""
    },
    "KRAL": {
      "name": "Riverside Municipal",
      "metar": "METAR KRAL 090853Z AUTO 03006KT 10SM CLR 14/03 A3012 RMK AO2 SLP183 T01440028 58008 $",
      "metarTime": "2026-02-09T09:00:00.000Z",
      "taf": "",
      "tafTime": ""
    }
  }
}
