{
  "updated": "2026-02-07T13:00:00.000Z",
  "airports": {
    "KPOC": {
      "name": "Brackett Field",
      "metar": "",
      "metarTime": "",
      "taf": "",
      "tafTime": ""
    },
    "KCCB": {
      "name": "Cable Airport",
      "metar": "METAR KCCB 071255Z AUTO 07004KT 4SM BR FEW004 11/11 A3015 RMK AO2",
      "metarTime": "2026-02-07T13:00:00.000Z",
      "taf": "",
      "tafTime": ""
    },
    "KRAL": {
      "name": "Riverside Municipal",
      "metar": "METAR KRAL 071253Z AUTO 00000KT 6SM BR CLR 10/09 A3016 RMK AO2 SLP203 T01000089",
      "metarTime": "2026-02-07T13:00:00.000Z",
      "taf": "",
      "tafTime": ""
    }
  }
}
