{
  "updated": "2026-02-07T05:35:00.000Z",
  "airports": {
    "KPOC": {
      "name": "Brackett Field",
      "metar": "METAR KPOC 070447Z 27006KT 10SM CLR 14/11 A3016 RMK LAST",
      "metarTime": "2026-02-07T05:00:00.000Z",
      "taf": "",
      "tafTime": ""
    },
    "KCCB": {
      "name": "Cable Airport",
      "metar": "METAR KCCB 070535Z AUTO 00000KT 10SM CLR 13/13 A3016 RMK AO2",
      "metarTime": "2026-02-07T05:35:00.000Z",
      "taf": "",
      "tafTime": ""
    },
    "KRAL": {
      "name": "Riverside Municipal",
      "metar": "METAR KRAL 070453Z AUTO 27005KT 10SM CLR 14/11 A3016 RMK AO2 SLP202 T01390111",
      "metarTime": "2026-02-07T05:00:00.000Z",
      "taf": "",
      "tafTime": ""
    }
  }
}
