{
  "updated": "2026-07-16T22:00:00.000Z",
  "airports": {
    "KPOC": {
      "name": "Brackett Field",
      "metar": "METAR KPOC 162147Z 24011KT 10SM CLR 34/18 A2983",
      "metarTime": "2026-07-16T22:00:00.000Z",
      "taf": "",
      "tafTime": ""
    },
    "KCCB": {
      "name": "Cable Airport",
      "metar": "METAR KCCB 162135Z AUTO 28011G17KT 10SM CLR 34/16 A2984 RMK AO2",
      "metarTime": "2026-07-16T21:35:00.000Z",
      "taf": "",
      "tafTime": ""
    },
    "KRAL": {
      "name": "Riverside Municipal",
      "metar": "METAR KRAL 162053Z 27012G21KT 10SM CLR 38/15 A2980 RMK AO2 SLP071 T03780150 58013",
      "metarTime": "2026-07-16T21:00:00.000Z",
      "taf": "",
      "tafTime": ""
    }
  }
}
