{
  "updated": "2026-03-08T07:35:00.000Z",
  "airports": {
    "KPOC": {
      "name": "Brackett Field",
      "metar": "",
      "metarTime": "",
      "taf": "",
      "tafTime": ""
    },
    "KCCB": {
      "name": "Cable Airport",
      "metar": "METAR KCCB 080735Z AUTO 04013G22KT 10SM 21/M14 A2996 RMK AO2",
      "metarTime": "2026-03-08T07:35:00.000Z",
      "taf": "",
      "tafTime": ""
    },
    "KRAL": {
      "name": "Riverside Municipal",
      "metar": "METAR KRAL 080653Z AUTO 03010G21KT 10SM CLR 19/M11 A2997 RMK AO2 SLP136 T01891111",
      "metarTime": "2026-03-08T07:00:00.000Z",
      "taf": "",
      "tafTime": ""
    }
  }
}
