{
  "updated": "2026-05-19T02:00:00.000Z",
  "airports": {
    "KPOC": {
      "name": "Brackett Field",
      "metar": "METAR KPOC 190147Z 23009KT 10SM CLR 21/12 A2986",
      "metarTime": "2026-05-19T02:00:00.000Z",
      "taf": "",
      "tafTime": ""
    },
    "KCCB": {
      "name": "Cable Airport",
      "metar": "METAR KCCB 190155Z AUTO 25013KT 8SM CLR 20/12 A2989 RMK AO2",
      "metarTime": "2026-05-19T02:00:00.000Z",
      "taf": "",
      "tafTime": ""
    },
    "KRAL": {
      "name": "Riverside Municipal",
      "metar": "METAR KRAL 190153Z 27013G22KT 10SM CLR 21/10 A2986 RMK AO2 SLP099 T02110100",
      "metarTime": "2026-05-19T02:00:00.000Z",
      "taf": "",
      "tafTime": ""
    }
  }
}
