{
  "updated": "2026-07-08T07:15:00.000Z",
  "airports": {
    "KPOC": {
      "name": "Brackett Field",
      "metar": "",
      "metarTime": "",
      "taf": "",
      "tafTime": ""
    },
    "KCCB": {
      "name": "Cable Airport",
      "metar": "METAR KCCB 080715Z AUTO 00000KT 10SM 21/13 A2997 RMK AO2",
      "metarTime": "2026-07-08T07:15:00.000Z",
      "taf": "",
      "tafTime": ""
    },
    "KRAL": {
      "name": "Riverside Municipal",
      "metar": "METAR KRAL 080653Z AUTO 00000KT 10SM CLR 22/13 A2996 RMK AO2 SLP127 T02170128",
      "metarTime": "2026-07-08T07:00:00.000Z",
      "taf": "",
      "tafTime": ""
    }
  }
}
