{
  "updated": "2026-03-13T20:15:00.000Z",
  "airports": {
    "KPOC": {
      "name": "Brackett Field",
      "metar": "METAR KPOC 131947Z 17004KT 10SM CLR 31/M02 A3001",
      "metarTime": "2026-03-13T20:00:00.000Z",
      "taf": "",
      "tafTime": ""
    },
    "KCCB": {
      "name": "Cable Airport",
      "metar": "METAR KCCB 132015Z AUTO VRB04KT 10SM CLR 31/M08 A2999 RMK AO2",
      "metarTime": "2026-03-13T20:15:00.000Z",
      "taf": "",
      "tafTime": ""
    },
    "KRAL": {
      "name": "Riverside Municipal",
      "metar": "METAR KRAL 131953Z 00000KT 10SM CLR 33/M03 A2997 RMK AO2 SLP134 T03281028",
      "metarTime": "2026-03-13T20:00:00.000Z",
      "taf": "",
      "tafTime": ""
    }
  }
}
