{
  "updated": "2026-07-10T21:00:00.000Z",
  "airports": {
    "KPOC": {
      "name": "Brackett Field",
      "metar": "METAR KPOC 102047Z 28010KT 10SM CLR 28/16 A2991",
      "metarTime": "2026-07-10T21:00:00.000Z",
      "taf": "",
      "tafTime": ""
    },
    "KCCB": {
      "name": "Cable Airport",
      "metar": "METAR KCCB 102055Z AUTO 26015G21KT 9SM CLR 29/14 A2990 RMK AO2",
      "metarTime": "2026-07-10T21:00:00.000Z",
      "taf": "",
      "tafTime": ""
    },
    "KRAL": {
      "name": "Riverside Municipal",
      "metar": "METAR KRAL 102053Z 27012G20KT 10SM CLR 32/14 A2987 RMK AO2 SLP097 T03220144 58004",
      "metarTime": "2026-07-10T21:00:00.000Z",
      "taf": "",
      "tafTime": ""
    }
  }
}
