{
  "updated": "2026-02-19T07:35:00.000Z",
  "airports": {
    "KPOC": {
      "name": "Brackett Field",
      "metar": "",
      "metarTime": "",
      "taf": "",
      "tafTime": ""
    },
    "KCCB": {
      "name": "Cable Airport",
      "metar": "METAR KCCB 190735Z AUTO 26003KT 10SM BKN050 08/05 A3000 RMK AO2",
      "metarTime": "2026-02-19T07:35:00.000Z",
      "taf": "",
      "tafTime": ""
    },
    "KRAL": {
      "name": "Riverside Municipal",
      "metar": "METAR KRAL 190653Z AUTO 12004KT 10SM CLR 07/03 A3001 RMK AO2 SLP154 T00670028 $",
      "metarTime": "2026-02-19T07:00:00.000Z",
      "taf": "",
      "tafTime": ""
    }
  }
}
