{
  "updated": "2026-03-25T20:15:00.000Z",
  "airports": {
    "KPOC": {
      "name": "Brackett Field",
      "metar": "METAR KPOC 251947Z 24005KT 10SM CLR 27/15 A2998",
      "metarTime": "2026-03-25T20:00:00.000Z",
      "taf": "",
      "tafTime": ""
    },
    "KCCB": {
      "name": "Cable Airport",
      "metar": "METAR KCCB 252015Z AUTO 26008KT 230V300 10SM CLR 28/10 A2998 RMK AO2",
      "metarTime": "2026-03-25T20:15:00.000Z",
      "taf": "",
      "tafTime": ""
    },
    "KRAL": {
      "name": "Riverside Municipal",
      "metar": "METAR KRAL 251953Z VRB04KT 10SM CLR 29/10 A2996 RMK AO2 SLP128 T02940100",
      "metarTime": "2026-03-25T20:00:00.000Z",
      "taf": "",
      "tafTime": ""
    }
  }
}
