{
  "updated": "2026-02-06T22:00:00.000Z",
  "airports": {
    "KPOC": {
      "name": "Brackett Field",
      "metar": "METAR KPOC 062147Z 26009KT 10SM CLR 20/11 A3011",
      "metarTime": "2026-02-06T22:00:00.000Z",
      "taf": "",
      "tafTime": ""
    },
    "KCCB": {
      "name": "Cable Airport",
      "metar": "METAR KCCB 062155Z AUTO 27012KT 10SM CLR 19/09 A3009 RMK AO2",
      "metarTime": "2026-02-06T22:00:00.000Z",
      "taf": "",
      "tafTime": ""
    },
    "KRAL": {
      "name": "Riverside Municipal",
      "metar": "METAR KRAL 062153Z 26011KT 10SM CLR 21/09 A3008 RMK AO2 SLP175 T02110094",
      "metarTime": "2026-02-06T22:00:00.000Z",
      "taf": "",
      "tafTime": ""
    }
  }
}
