{
  "updated": "2026-03-26T09:35:00.000Z",
  "airports": {
    "KPOC": {
      "name": "Brackett Field",
      "metar": "",
      "metarTime": "",
      "taf": "",
      "tafTime": ""
    },
    "KCCB": {
      "name": "Cable Airport",
      "metar": "METAR KCCB 260935Z AUTO 04006KT 10SM CLR 17/10 A2995 RMK AO2",
      "metarTime": "2026-03-26T09:35:00.000Z",
      "taf": "",
      "tafTime": ""
    },
    "KRAL": {
      "name": "Riverside Municipal",
      "metar": "METAR KRAL 260853Z AUTO 00000KT 8SM CLR 16/13 A2996 RMK AO2 SLP130 T01560133 50002",
      "metarTime": "2026-03-26T09:00:00.000Z",
      "taf": "",
      "tafTime": ""
    }
  }
}
