{
  "updated": "2026-03-01T04:00:00.000Z",
  "airports": {
    "KPOC": {
      "name": "Brackett Field",
      "metar": "",
      "metarTime": "",
      "taf": "",
      "tafTime": ""
    },
    "KCCB": {
      "name": "Cable Airport",
      "metar": "METAR KCCB 010355Z AUTO 28005KT 10SM CLR 22/08 A2994 RMK AO2",
      "metarTime": "2026-03-01T04:00:00.000Z",
      "taf": "",
      "tafTime": ""
    },
    "KRAL": {
      "name": "Riverside Municipal",
      "metar": "METAR KRAL 010353Z AUTO 07003KT 10SM CLR 22/07 A2993 RMK AO2 SLP120 T02170067",
      "metarTime": "2026-03-01T04:00:00.000Z",
      "taf": "",
      "tafTime": ""
    }
  }
}
