{
  "updated": "2026-02-14T09:15:00.000Z",
  "airports": {
    "KPOC": {
      "name": "Brackett Field",
      "metar": "",
      "metarTime": "",
      "taf": "",
      "tafTime": ""
    },
    "KCCB": {
      "name": "Cable Airport",
      "metar": "METAR KCCB 140915Z AUTO 01006KT 10SM CLR 11/05 A3008 RMK AO2",
      "metarTime": "2026-02-14T09:15:00.000Z",
      "taf": "",
      "tafTime": ""
    },
    "KRAL": {
      "name": "Riverside Municipal",
      "metar": "METAR KRAL 140853Z AUTO 00000KT 10SM CLR 11/08 A3009 RMK AO2 SLP177 T01060078 50004",
      "metarTime": "2026-02-14T09:00:00.000Z",
      "taf": "",
      "tafTime": ""
    }
  }
}
