{
  "updated": "2026-04-01T17:35:00.000Z",
  "airports": {
    "KPOC": {
      "name": "Brackett Field",
      "metar": "METAR KPOC 011647Z 22005KT 10SM SCT025 17/12 A3001",
      "metarTime": "2026-04-01T17:00:00.000Z",
      "taf": "",
      "tafTime": ""
    },
    "KCCB": {
      "name": "Cable Airport",
      "metar": "METAR KCCB 011735Z AUTO 23006G11KT 10SM FEW038 SCT055 17/12 A3000 RMK AO2",
      "metarTime": "2026-04-01T17:35:00.000Z",
      "taf": "",
      "tafTime": ""
    },
    "KRAL": {
      "name": "Riverside Municipal",
      "metar": "SPECI KRAL 011713Z VRB03KT 10SM BKN024 BKN065 18/12 A3000 RMK AO2 T01780122",
      "metarTime": "2026-04-01T17:13:00.000Z",
      "taf": "",
      "tafTime": ""
    }
  }
}
