{
  "updated": "2026-03-24T05:00:00.000Z",
  "airports": {
    "KPOC": {
      "name": "Brackett Field",
      "metar": "",
      "metarTime": "",
      "taf": "",
      "tafTime": ""
    },
    "KCCB": {
      "name": "Cable Airport",
      "metar": "METAR KCCB 240455Z AUTO 26005KT 10SM 19/14 A2998 RMK AO2",
      "metarTime": "2026-03-24T05:00:00.000Z",
      "taf": "",
      "tafTime": ""
    },
    "KRAL": {
      "name": "Riverside Municipal",
      "metar": "METAR KRAL 240453Z AUTO 28003KT 10SM CLR 19/12 A2997 RMK AO2 SLP135 T01940117",
      "metarTime": "2026-03-24T05:00:00.000Z",
      "taf": "",
      "tafTime": ""
    }
  }
}
