{
  "updated": "2026-03-27T18:00:00.000Z",
  "airports": {
    "KPOC": {
      "name": "Brackett Field",
      "metar": "METAR KPOC 271747Z VRB03KT 6SM HZ CLR 26/12 A2999",
      "metarTime": "2026-03-27T18:00:00.000Z",
      "taf": "",
      "tafTime": ""
    },
    "KCCB": {
      "name": "Cable Airport",
      "metar": "METAR KCCB 271755Z AUTO 13005KT 9SM CLR 26/09 A2999 RMK AO2",
      "metarTime": "2026-03-27T18:00:00.000Z",
      "taf": "",
      "tafTime": ""
    },
    "KRAL": {
      "name": "Riverside Municipal",
      "metar": "METAR KRAL 271753Z 28004KT 9SM CLR 26/10 A2997 RMK AO2 SLP132 T02560100 10256 20150 58001",
      "metarTime": "2026-03-27T18:00:00.000Z",
      "taf": "",
      "tafTime": ""
    }
  }
}
