{
  "updated": "2026-02-28T05:15:00.000Z",
  "airports": {
    "KPOC": {
      "name": "Brackett Field",
      "metar": "METAR KPOC 280447Z 00000KT 10SM CLR 22/11 A2994 RMK LAST",
      "metarTime": "2026-02-28T05:00:00.000Z",
      "taf": "",
      "tafTime": ""
    },
    "KCCB": {
      "name": "Cable Airport",
      "metar": "METAR KCCB 280515Z AUTO 01005KT 10SM CLR 26/05 A2995 RMK AO2",
      "metarTime": "2026-02-28T05:15:00.000Z",
      "taf": "",
      "tafTime": ""
    },
    "KRAL": {
      "name": "Riverside Municipal",
      "metar": "METAR KRAL 280453Z AUTO 00000KT 10SM CLR 23/11 A2993 RMK AO2 SLP119 T02330111",
      "metarTime": "2026-02-28T05:00:00.000Z",
      "taf": "",
      "tafTime": ""
    }
  }
}
