{
  "updated": "2026-05-09T15:15:00.000Z",
  "airports": {
    "KPOC": {
      "name": "Brackett Field",
      "metar": "METAR KPOC 091447Z 00000KT 1SM OVC008 15/13 A2996 BR",
      "metarTime": "2026-05-09T15:00:00.000Z",
      "taf": "",
      "tafTime": ""
    },
    "KCCB": {
      "name": "Cable Airport",
      "metar": "METAR KCCB 091515Z AUTO 00000KT 3SM BR CLR 15/15 A2994 RMK AO2",
      "metarTime": "2026-05-09T15:15:00.000Z",
      "taf": "",
      "tafTime": ""
    },
    "KRAL": {
      "name": "Riverside Municipal",
      "metar": "SPECI KRAL 091511Z 00000KT 2 1/2SM BR OVC003 15/14 A2995 RMK AO2 T01500139",
      "metarTime": "2026-05-09T15:11:00.000Z",
      "taf": "",
      "tafTime": ""
    }
  }
}
