{
  "updated": "2026-06-18T11:15:00.000Z",
  "airports": {
    "KPOC": {
      "name": "Brackett Field",
      "metar": "",
      "metarTime": "",
      "taf": "",
      "tafTime": ""
    },
    "KCCB": {
      "name": "Cable Airport",
      "metar": "METAR KCCB 181115Z AUTO 00000KT 10SM 16/16 A2993 RMK AO2",
      "metarTime": "2026-06-18T11:15:00.000Z",
      "taf": "",
      "tafTime": ""
    },
    "KRAL": {
      "name": "Riverside Municipal",
      "metar": "METAR KRAL 181053Z AUTO 28003KT 10SM OVC014 17/14 A2993 RMK AO2 SLP118 T01720139",
      "metarTime": "2026-06-18T11:00:00.000Z",
      "taf": "",
      "tafTime": ""
    }
  }
}
