{
  "updated": "2026-06-07T06:35:00.000Z",
  "airports": {
    "KPOC": {
      "name": "Brackett Field",
      "metar": "",
      "metarTime": "",
      "taf": "",
      "tafTime": ""
    },
    "KCCB": {
      "name": "Cable Airport",
      "metar": "METAR KCCB 070635Z AUTO 26009KT 10SM 17/15 A2986 RMK AO2",
      "metarTime": "2026-06-07T06:35:00.000Z",
      "taf": "",
      "tafTime": ""
    },
    "KRAL": {
      "name": "Riverside Municipal",
      "metar": "SPECI KRAL 070621Z AUTO VRB03KT 10SM BKN018 17/13 A2986 RMK AO2 T01670133",
      "metarTime": "2026-06-07T06:21:00.000Z",
      "taf": "",
      "tafTime": ""
    }
  }
}
