{
  "updated": "2026-02-23T12:15:00.000Z",
  "airports": {
    "KPOC": {
      "name": "Brackett Field",
      "metar": "",
      "metarTime": "",
      "taf": "",
      "tafTime": ""
    },
    "KCCB": {
      "name": "Cable Airport",
      "metar": "METAR KCCB 231215Z AUTO 06004KT 10SM CLR 14/M03 A3016 RMK AO2",
      "metarTime": "2026-02-23T12:15:00.000Z",
      "taf": "",
      "tafTime": ""
    },
    "KRAL": {
      "name": "Riverside Municipal",
      "metar": "METAR KRAL 231153Z AUTO 09003KT 10SM CLR 11/02 A3017 RMK AO2 SLP204 T01060017 10150 20083 58008 $",
      "metarTime": "2026-02-23T12:00:00.000Z",
      "taf": "",
      "tafTime": ""
    }
  }
}
