{
  "updated": "2026-05-14T15:15:00.000Z",
  "airports": {
    "KPOC": {
      "name": "Brackett Field",
      "metar": "METAR KPOC 141447Z 00000KT 10SM SCT020 14/11 A3004",
      "metarTime": "2026-05-14T15:00:00.000Z",
      "taf": "",
      "tafTime": ""
    },
    "KCCB": {
      "name": "Cable Airport",
      "metar": "METAR KCCB 141515Z AUTO VRB03KT 10SM CLR 14/12 A3003 RMK AO2",
      "metarTime": "2026-05-14T15:15:00.000Z",
      "taf": "",
      "tafTime": ""
    },
    "KRAL": {
      "name": "Riverside Municipal",
      "metar": "METAR KRAL 141453Z 00000KT 10SM CLR 15/11 A3003 RMK AO2 SLP157 T01500111 53005",
      "metarTime": "2026-05-14T15:00:00.000Z",
      "taf": "",
      "tafTime": ""
    }
  }
}
