{
  "updated": "2026-02-12T18:35:00.000Z",
  "airports": {
    "KPOC": {
      "name": "Brackett Field",
      "metar": "METAR KPOC 121747Z 00000KT 10SM CLR 14/09 A3017",
      "metarTime": "2026-02-12T18:00:00.000Z",
      "taf": "",
      "tafTime": ""
    },
    "KCCB": {
      "name": "Cable Airport",
      "metar": "METAR KCCB 121835Z AUTO 21003KT 10SM CLR 14/08 A3015 RMK AO2",
      "metarTime": "2026-02-12T18:35:00.000Z",
      "taf": "",
      "tafTime": ""
    },
    "KRAL": {
      "name": "Riverside Municipal",
      "metar": "METAR KRAL 121753Z 00000KT 10SM CLR 14/09 A3017 RMK AO2 SLP205 T01390089 10144 20083 51003",
      "metarTime": "2026-02-12T18:00:00.000Z",
      "taf": "",
      "tafTime": ""
    }
  }
}
