{
  "updated": "2026-05-11T23:00:00.000Z",
  "airports": {
    "KPOC": {
      "name": "Brackett Field",
      "metar": "METAR KPOC 112247Z 28009KT 10SM CLR 32/10 A2995",
      "metarTime": "2026-05-11T23:00:00.000Z",
      "taf": "",
      "tafTime": ""
    },
    "KCCB": {
      "name": "Cable Airport",
      "metar": "METAR KCCB 112255Z AUTO 26011KT 10SM CLR 33/03 A2995 RMK AO2",
      "metarTime": "2026-05-11T23:00:00.000Z",
      "taf": "",
      "tafTime": ""
    },
    "KRAL": {
      "name": "Riverside Municipal",
      "metar": "METAR KRAL 112253Z 27013G24KT 10SM CLR 35/05 A2990 RMK AO2 SLP109 T03500050",
      "metarTime": "2026-05-11T23:00:00.000Z",
      "taf": "",
      "tafTime": ""
    }
  }
}
