{
  "updated": "2026-07-15T20:00:00.000Z",
  "airports": {
    "KPOC": {
      "name": "Brackett Field",
      "metar": "METAR KPOC 151947Z 26008KT 10SM CLR 34/15 A2988",
      "metarTime": "2026-07-15T20:00:00.000Z",
      "taf": "",
      "tafTime": ""
    },
    "KCCB": {
      "name": "Cable Airport",
      "metar": "METAR KCCB 151955Z AUTO 26011KT 10SM CLR 35/13 A2989 RMK AO2",
      "metarTime": "2026-07-15T20:00:00.000Z",
      "taf": "",
      "tafTime": ""
    },
    "KRAL": {
      "name": "Riverside Municipal",
      "metar": "METAR KRAL 151953Z 28007KT 10SM CLR 38/13 A2984 RMK AO2 SLP086 T03780133",
      "metarTime": "2026-07-15T20:00:00.000Z",
      "taf": "",
      "tafTime": ""
    }
  }
}
