{
  "updated": "2026-02-20T20:00:00.000Z",
  "airports": {
    "KPOC": {
      "name": "Brackett Field",
      "metar": "METAR KPOC 201947Z VRB05KT 10SM CLR 11/02 A3003",
      "metarTime": "2026-02-20T20:00:00.000Z",
      "taf": "",
      "tafTime": ""
    },
    "KCCB": {
      "name": "Cable Airport",
      "metar": "METAR KCCB 201955Z AUTO 00000KT 10SM CLR 10/01 A3001 RMK AO2",
      "metarTime": "2026-02-20T20:00:00.000Z",
      "taf": "",
      "tafTime": ""
    },
    "KRAL": {
      "name": "Riverside Municipal",
      "metar": "METAR KRAL 201953Z 00000KT 10SM CLR 12/00 A3002 RMK AO2 SLP159 T01170000",
      "metarTime": "2026-02-20T20:00:00.000Z",
      "taf": "",
      "tafTime": ""
    }
  }
}
