{
  "updated": "2026-03-19T04:00:00.000Z",
  "airports": {
    "KPOC": {
      "name": "Brackett Field",
      "metar": "METAR KPOC 190347Z 26003KT 10SM CLR 25/09 A3005",
      "metarTime": "2026-03-19T04:00:00.000Z",
      "taf": "",
      "tafTime": ""
    },
    "KCCB": {
      "name": "Cable Airport",
      "metar": "METAR KCCB 190335Z AUTO 27006KT 10SM 27/07 A3005 RMK AO2",
      "metarTime": "2026-03-19T03:35:00.000Z",
      "taf": "",
      "tafTime": ""
    },
    "KRAL": {
      "name": "Riverside Municipal",
      "metar": "METAR KRAL 190353Z AUTO 33003KT 10SM CLR 27/09 A3004 RMK AO2 SLP156 T02670094",
      "metarTime": "2026-03-19T04:00:00.000Z",
      "taf": "",
      "tafTime": ""
    }
  }
}
