{
  "updated": "2026-05-16T10:35:00.000Z",
  "airports": {
    "KPOC": {
      "name": "Brackett Field",
      "metar": "",
      "metarTime": "",
      "taf": "",
      "tafTime": ""
    },
    "KCCB": {
      "name": "Cable Airport",
      "metar": "METAR KCCB 161035Z AUTO 31004KT 8SM OVC011 15/15 A2992 RMK AO2",
      "metarTime": "2026-05-16T10:35:00.000Z",
      "taf": "",
      "tafTime": ""
    },
    "KRAL": {
      "name": "Riverside Municipal",
      "metar": "SPECI KRAL 161030Z AUTO VRB03KT 10SM OVC013 16/13 A2991 RMK AO2 T01560133",
      "metarTime": "2026-05-16T10:30:00.000Z",
      "taf": "",
      "tafTime": ""
    }
  }
}
