{
  "updated": "2026-02-28T09:35:00.000Z",
  "airports": {
    "KPOC": {
      "name": "Brackett Field",
      "metar": "",
      "metarTime": "",
      "taf": "",
      "tafTime": ""
    },
    "KCCB": {
      "name": "Cable Airport",
      "metar": "METAR KCCB 280935Z AUTO 00000KT 10SM CLR 22/04 A2994 RMK AO2",
      "metarTime": "2026-02-28T09:35:00.000Z",
      "taf": "",
      "tafTime": ""
    },
    "KRAL": {
      "name": "Riverside Municipal",
      "metar": "METAR KRAL 280853Z AUTO 05006KT 10SM CLR 19/09 A2993 RMK AO2 SLP118 T01890089 58001",
      "metarTime": "2026-02-28T09:00:00.000Z",
      "taf": "",
      "tafTime": ""
    }
  }
}
