{
  "updated": "2026-04-07T17:35:00.000Z",
  "airports": {
    "KPOC": {
      "name": "Brackett Field",
      "metar": "METAR KPOC 071647Z 26006KT 10SM CLR 18/12 A3002",
      "metarTime": "2026-04-07T17:00:00.000Z",
      "taf": "",
      "tafTime": ""
    },
    "KCCB": {
      "name": "Cable Airport",
      "metar": "METAR KCCB 071735Z AUTO 20005KT 9SM CLR 19/10 A3001 RMK AO2",
      "metarTime": "2026-04-07T17:35:00.000Z",
      "taf": "",
      "tafTime": ""
    },
    "KRAL": {
      "name": "Riverside Municipal",
      "metar": "METAR KRAL 071653Z VRB03KT 10SM CLR 19/09 A3001 RMK AO2 SLP149 T01890094",
      "metarTime": "2026-04-07T17:00:00.000Z",
      "taf": "",
      "tafTime": ""
    }
  }
}
