{
  "updated": "2026-05-02T22:00:00.000Z",
  "airports": {
    "KPOC": {
      "name": "Brackett Field",
      "metar": "METAR KPOC 022147Z 25015KT 10SM CLR 24/13 A2989",
      "metarTime": "2026-05-02T22:00:00.000Z",
      "taf": "",
      "tafTime": ""
    },
    "KCCB": {
      "name": "Cable Airport",
      "metar": "METAR KCCB 022155Z AUTO 27012KT 9SM CLR 25/13 A2989 RMK AO2",
      "metarTime": "2026-05-02T22:00:00.000Z",
      "taf": "",
      "tafTime": ""
    },
    "KRAL": {
      "name": "Riverside Municipal",
      "metar": "METAR KRAL 022153Z 28011G18KT 10SM CLR 28/13 A2986 RMK AO2 SLP096 T02780128",
      "metarTime": "2026-05-02T22:00:00.000Z",
      "taf": "",
      "tafTime": ""
    }
  }
}
