{
  "updated": "2026-04-04T10:00:00.000Z",
  "airports": {
    "KPOC": {
      "name": "Brackett Field",
      "metar": "",
      "metarTime": "",
      "taf": "",
      "tafTime": ""
    },
    "KCCB": {
      "name": "Cable Airport",
      "metar": "METAR KCCB 040935Z AUTO 34004KT 10SM CLR 18/M13 A3004 RMK AO2",
      "metarTime": "2026-04-04T09:35:00.000Z",
      "taf": "",
      "tafTime": ""
    },
    "KRAL": {
      "name": "Riverside Municipal",
      "metar": "METAR KRAL 040953Z AUTO 08003KT 10SM CLR 16/M09 A3005 RMK AO2 SLP162 T01611089",
      "metarTime": "2026-04-04T10:00:00.000Z",
      "taf": "",
      "tafTime": ""
    }
  }
}
