{
  "updated": "2026-05-21T06:15:00.000Z",
  "airports": {
    "KPOC": {
      "name": "Brackett Field",
      "metar": "",
      "metarTime": "",
      "taf": "",
      "tafTime": ""
    },
    "KCCB": {
      "name": "Cable Airport",
      "metar": "METAR KCCB 210615Z AUTO 04004KT 10SM CLR 22/01 A2989 RMK AO2",
      "metarTime": "2026-05-21T06:15:00.000Z",
      "taf": "",
      "tafTime": ""
    },
    "KRAL": {
      "name": "Riverside Municipal",
      "metar": "METAR KRAL 210553Z AUTO 00000KT 10SM CLR 21/02 A2988 RMK AO2 SLP101 T02110017 10311 20211 51017",
      "metarTime": "2026-05-21T06:00:00.000Z",
      "taf": "",
      "tafTime": ""
    }
  }
}
