{
  "updated": "2026-06-12T00:00:00.000Z",
  "airports": {
    "KPOC": {
      "name": "Brackett Field",
      "metar": "METAR KPOC 112347Z 23013KT 10SM CLR 31/17 A2983",
      "metarTime": "2026-06-12T00:00:00.000Z",
      "taf": "",
      "tafTime": ""
    },
    "KCCB": {
      "name": "Cable Airport",
      "metar": "METAR KCCB 112355Z AUTO 25012G19KT 10SM CLR 31/15 A2984 RMK AO2",
      "metarTime": "2026-06-12T00:00:00.000Z",
      "taf": "",
      "tafTime": ""
    },
    "KRAL": {
      "name": "Riverside Municipal",
      "metar": "METAR KRAL 112353Z 28010G22KT 10SM CLR 32/14 A2980 RMK AO2 SLP074 T03170139 10344 20272 56010",
      "metarTime": "2026-06-12T00:00:00.000Z",
      "taf": "",
      "tafTime": ""
    }
  }
}
