{
  "updated": "2026-03-21T15:35:00.000Z",
  "airports": {
    "KPOC": {
      "name": "Brackett Field",
      "metar": "METAR KPOC 211447Z 00000KT 10SM CLR 17/10 A2997",
      "metarTime": "2026-03-21T15:00:00.000Z",
      "taf": "",
      "tafTime": ""
    },
    "KCCB": {
      "name": "Cable Airport",
      "metar": "METAR KCCB 211535Z AUTO 00000KT 10SM CLR 23/07 A2998 RMK AO2",
      "metarTime": "2026-03-21T15:35:00.000Z",
      "taf": "",
      "tafTime": ""
    },
    "KRAL": {
      "name": "Riverside Municipal",
      "metar": "METAR KRAL 211453Z 00000KT 10SM CLR 18/11 A2996 RMK AO2 SLP129 T01780106 53013",
      "metarTime": "2026-03-21T15:00:00.000Z",
      "taf": "",
      "tafTime": ""
    }
  }
}
