{
  "updated": "2026-06-30T17:08:00.000Z",
  "airports": {
    "KPOC": {
      "name": "Brackett Field",
      "metar": "METAR KPOC 301647Z 24005KT 5SM BR OVC015 18/12 A2997 BR",
      "metarTime": "2026-06-30T17:00:00.000Z",
      "taf": "",
      "tafTime": ""
    },
    "KCCB": {
      "name": "Cable Airport",
      "metar": "METAR KCCB 301705Z AUTO 24004KT 10SM FEW020 BKN027 17/13 A2996 RMK AO2",
      "metarTime": "2026-06-30T17:05:00.000Z",
      "taf": "",
      "tafTime": ""
    },
    "KRAL": {
      "name": "Riverside Municipal",
      "metar": "SPECI KRAL 301708Z 00000KT 10SM OVC032 18/12 A2996 RMK AO2 T01830117",
      "metarTime": "2026-06-30T17:08:00.000Z",
      "taf": "",
      "tafTime": ""
    }
  }
}
