{
  "updated": "2026-02-17T06:00:00.000Z",
  "airports": {
    "KPOC": {
      "name": "Brackett Field",
      "metar": "",
      "metarTime": "",
      "taf": "",
      "tafTime": ""
    },
    "KCCB": {
      "name": "Cable Airport",
      "metar": "METAR KCCB 170555Z AUTO 28007KT 10SM OVC045 09/09 A2989 RMK AO2",
      "metarTime": "2026-02-17T06:00:00.000Z",
      "taf": "",
      "tafTime": ""
    },
    "KRAL": {
      "name": "Riverside Municipal",
      "metar": "METAR KRAL 170553Z AUTO 23004KT 10SM FEW042 BKN050 11/08 A2990 RMK AO2 SLP116 60024 T01060083 10111 20094 51028",
      "metarTime": "2026-02-17T06:00:00.000Z",
      "taf": "",
      "tafTime": ""
    }
  }
}
