{
  "updated": "2026-02-07T07:35:00.000Z",
  "airports": {
    "KPOC": {
      "name": "Brackett Field",
      "metar": "",
      "metarTime": "",
      "taf": "",
      "tafTime": ""
    },
    "KCCB": {
      "name": "Cable Airport",
      "metar": "METAR KCCB 070735Z AUTO 28004KT 10SM SCT006 13/12 A3017 RMK AO2",
      "metarTime": "2026-02-07T07:35:00.000Z",
      "taf": "",
      "tafTime": ""
    },
    "KRAL": {
      "name": "Riverside Municipal",
      "metar": "METAR KRAL 070653Z AUTO 19004KT 10SM CLR 13/11 A3017 RMK AO2 SLP207 T01280106",
      "metarTime": "2026-02-07T07:00:00.000Z",
      "taf": "",
      "tafTime": ""
    }
  }
}
