{
  "updated": "2026-03-05T13:35:00.000Z",
  "airports": {
    "KPOC": {
      "name": "Brackett Field",
      "metar": "",
      "metarTime": "",
      "taf": "",
      "tafTime": ""
    },
    "KCCB": {
      "name": "Cable Airport",
      "metar": "METAR KCCB 051335Z AUTO 00000KT 4SM BR BKN007 OVC011 12/12 A2989 RMK AO2",
      "metarTime": "2026-03-05T13:35:00.000Z",
      "taf": "",
      "tafTime": ""
    },
    "KRAL": {
      "name": "Riverside Municipal",
      "metar": "SPECI KRAL 051327Z AUTO 00000KT 6SM BR SCT013 12/11 A2989 RMK AO2 T01220106",
      "metarTime": "2026-03-05T13:27:00.000Z",
      "taf": "",
      "tafTime": ""
    }
  }
}
