{
  "updated": "2026-04-20T17:35:00.000Z",
  "airports": {
    "KPOC": {
      "name": "Brackett Field",
      "metar": "METAR KPOC 201647Z 00000KT 10SM CLR 18/10 A3002",
      "metarTime": "2026-04-20T17:00:00.000Z",
      "taf": "",
      "tafTime": ""
    },
    "KCCB": {
      "name": "Cable Airport",
      "metar": "METAR KCCB 201735Z AUTO 19005KT 10SM CLR 19/08 A3001 RMK AO2",
      "metarTime": "2026-04-20T17:35:00.000Z",
      "taf": "",
      "tafTime": ""
    },
    "KRAL": {
      "name": "Riverside Municipal",
      "metar": "METAR KRAL 201653Z 00000KT 10SM CLR 19/09 A3001 RMK AO2 SLP149 T01940089",
      "metarTime": "2026-04-20T17:00:00.000Z",
      "taf": "",
      "tafTime": ""
    }
  }
}
