{
  "updated": "2026-04-10T08:35:00.000Z",
  "airports": {
    "KPOC": {
      "name": "Brackett Field",
      "metar": "",
      "metarTime": "",
      "taf": "",
      "tafTime": ""
    },
    "KCCB": {
      "name": "Cable Airport",
      "metar": "METAR KCCB 100835Z AUTO 26005KT 4SM BR OVC006 16/16 A2997 RMK AO2",
      "metarTime": "2026-04-10T08:35:00.000Z",
      "taf": "",
      "tafTime": ""
    },
    "KRAL": {
      "name": "Riverside Municipal",
      "metar": "METAR KRAL 100753Z AUTO 28004KT 10SM CLR 17/14 A2997 RMK AO2 SLP133 T01670144 402670139",
      "metarTime": "2026-04-10T08:00:00.000Z",
      "taf": "",
      "tafTime": ""
    }
  }
}
