{
  "updated": "2026-02-04T13:35:00.000Z",
  "airports": {
    "KPOC": {
      "name": "Brackett Field",
      "metar": "",
      "metarTime": "",
      "taf": "",
      "tafTime": ""
    },
    "KCCB": {
      "name": "Cable Airport",
      "metar": "METAR KCCB 041335Z AUTO 30009KT 10SM CLR 19/M09 A3016 RMK AO2",
      "metarTime": "2026-02-04T13:35:00.000Z",
      "taf": "",
      "tafTime": ""
    },
    "KRAL": {
      "name": "Riverside Municipal",
      "metar": "METAR KRAL 041253Z AUTO 07005KT 10SM CLR 18/M06 A3018 RMK AO2 SLP204 T01781061",
      "metarTime": "2026-02-04T13:00:00.000Z",
      "taf": "",
      "tafTime": ""
    }
  }
}
