{
  "updated": "2026-06-02T15:16:00.000Z",
  "airports": {
    "KPOC": {
      "name": "Brackett Field",
      "metar": "METAR KPOC 021447Z 20005KT 5SM HZ OVC020 16/13 A3001",
      "metarTime": "2026-06-02T15:00:00.000Z",
      "taf": "",
      "tafTime": ""
    },
    "KCCB": {
      "name": "Cable Airport",
      "metar": "",
      "metarTime": "",
      "taf": "",
      "tafTime": ""
    },
    "KRAL": {
      "name": "Riverside Municipal",
      "metar": "SPECI KRAL 021516Z AUTO 00000KT 4SM HZ OVC011 16/13 A3001 RMK AO2 T01610128",
      "metarTime": "2026-06-02T15:16:00.000Z",
      "taf": "",
      "tafTime": ""
    }
  }
}
