{
  "updated": "2026-02-24T12:15:00.000Z",
  "airports": {
    "KPOC": {
      "name": "Brackett Field",
      "metar": "",
      "metarTime": "",
      "taf": "",
      "tafTime": ""
    },
    "KCCB": {
      "name": "Cable Airport",
      "metar": "METAR KCCB 241215Z AUTO 05003KT 10SM CLR 15/02 A3007 RMK AO2",
      "metarTime": "2026-02-24T12:15:00.000Z",
      "taf": "",
      "tafTime": ""
    },
    "KRAL": {
      "name": "Riverside Municipal",
      "metar": "METAR KRAL 241153Z AUTO 04004KT 10SM CLR 12/06 A3007 RMK AO2 SLP169 T01220056 10161 20106 58008",
      "metarTime": "2026-02-24T12:00:00.000Z",
      "taf": "",
      "tafTime": ""
    }
  }
}
