{
  "updated": "2026-06-15T22:15:00.000Z",
  "airports": {
    "KPOC": {
      "name": "Brackett Field",
      "metar": "METAR KPOC 152147Z 24012KT 10SM CLR 30/15 A2999",
      "metarTime": "2026-06-15T22:00:00.000Z",
      "taf": "",
      "tafTime": ""
    },
    "KCCB": {
      "name": "Cable Airport",
      "metar": "METAR KCCB 152215Z AUTO 27014KT 10SM CLR 31/12 A2998 RMK AO2",
      "metarTime": "2026-06-15T22:15:00.000Z",
      "taf": "",
      "tafTime": ""
    },
    "KRAL": {
      "name": "Riverside Municipal",
      "metar": "METAR KRAL 152153Z 27013G24KT 10SM CLR 34/14 A2995 RMK AO2 SLP125 T03390144",
      "metarTime": "2026-06-15T22:00:00.000Z",
      "taf": "",
      "tafTime": ""
    }
  }
}
