{
  "updated": "2026-03-24T12:35:00.000Z",
  "airports": {
    "KPOC": {
      "name": "Brackett Field",
      "metar": "",
      "metarTime": "",
      "taf": "",
      "tafTime": ""
    },
    "KCCB": {
      "name": "Cable Airport",
      "metar": "METAR KCCB 241235Z AUTO 00000KT 10SM 16/13 A2997 RMK AO2",
      "metarTime": "2026-03-24T12:35:00.000Z",
      "taf": "",
      "tafTime": ""
    },
    "KRAL": {
      "name": "Riverside Municipal",
      "metar": "METAR KRAL 241153Z AUTO 00000KT 9SM CLR 16/14 A2996 RMK AO2 SLP131 T01560139 10172 20144 56005",
      "metarTime": "2026-03-24T12:00:00.000Z",
      "taf": "",
      "tafTime": ""
    }
  }
}
