{
  "updated": "2026-02-11T12:35:00.000Z",
  "airports": {
    "KPOC": {
      "name": "Brackett Field",
      "metar": "",
      "metarTime": "",
      "taf": "",
      "tafTime": ""
    },
    "KCCB": {
      "name": "Cable Airport",
      "metar": "METAR KCCB 111230Z AUTO 24006KT 2SM RA 12/12 A3000 RMK AO2",
      "metarTime": "2026-02-11T12:30:00.000Z",
      "taf": "",
      "tafTime": ""
    },
    "KRAL": {
      "name": "Riverside Municipal",
      "metar": "SPECI KRAL 111235Z AUTO 26005KT 2 1/2SM RA BR BKN015 OVC022 13/12 A3001 RMK AO2 P0010 T01280122 $",
      "metarTime": "2026-02-11T12:35:00.000Z",
      "taf": "",
      "tafTime": ""
    }
  }
}
