{
  "updated": "2026-04-02T12:26:00.000Z",
  "airports": {
    "KPOC": {
      "name": "Brackett Field",
      "metar": "",
      "metarTime": "",
      "taf": "",
      "tafTime": ""
    },
    "KCCB": {
      "name": "Cable Airport",
      "metar": "",
      "metarTime": "",
      "taf": "",
      "tafTime": ""
    },
    "KRAL": {
      "name": "Riverside Municipal",
      "metar": "SPECI KRAL 021226Z AUTO 00000KT 10SM BKN013 BKN050 13/10 A2996 RMK AO2 T01280100",
      "metarTime": "2026-04-02T12:26:00.000Z",
      "taf": "",
      "tafTime": ""
    }
  }
}
