{
  "updated": "2026-03-08T13:00:00.000Z",
  "airports": {
    "KPOC": {
      "name": "Brackett Field",
      "metar": "",
      "metarTime": "",
      "taf": "",
      "tafTime": ""
    },
    "KCCB": {
      "name": "Cable Airport",
      "metar": "METAR KCCB 081255Z AUTO 00000KT 10SM SCT019 SCT024 SCT030 19/M12 A2994 RMK AO2",
      "metarTime": "2026-03-08T13:00:00.000Z",
      "taf": "",
      "tafTime": ""
    },
    "KRAL": {
      "name": "Riverside Municipal",
      "metar": "METAR KRAL 081253Z AUTO VRB04KT 10SM CLR 16/M08 A2995 RMK AO2 SLP128 T01611083",
      "metarTime": "2026-03-08T13:00:00.000Z",
      "taf": "",
      "tafTime": ""
    }
  }
}
