{
  "updated": "2026-03-28T19:00:00.000Z",
  "airports": {
    "KPOC": {
      "name": "Brackett Field",
      "metar": "METAR KPOC 281847Z 20003KT 10SM CLR 27/08 A3002",
      "metarTime": "2026-03-28T19:00:00.000Z",
      "taf": "",
      "tafTime": ""
    },
    "KCCB": {
      "name": "Cable Airport",
      "metar": "METAR KCCB 281855Z AUTO 23003KT 10SM CLR 27/01 A3002 RMK AO2",
      "metarTime": "2026-03-28T19:00:00.000Z",
      "taf": "",
      "tafTime": ""
    },
    "KRAL": {
      "name": "Riverside Municipal",
      "metar": "METAR KRAL 281853Z VRB03KT 10SM CLR 28/03 A3000 RMK AO2 SLP142 T02780028",
      "metarTime": "2026-03-28T19:00:00.000Z",
      "taf": "",
      "tafTime": ""
    }
  }
}
