{
  "updated": "2026-04-03T01:00:00.000Z",
  "airports": {
    "KPOC": {
      "name": "Brackett Field",
      "metar": "METAR KPOC 030047Z 22009KT 10SM OVC040 18/11 A2992",
      "metarTime": "2026-04-03T01:00:00.000Z",
      "taf": "",
      "tafTime": ""
    },
    "KCCB": {
      "name": "Cable Airport",
      "metar": "METAR KCCB 030055Z AUTO 22010KT 10SM OVC029 17/10 A2991 RMK AO2",
      "metarTime": "2026-04-03T01:00:00.000Z",
      "taf": "",
      "tafTime": ""
    },
    "KRAL": {
      "name": "Riverside Municipal",
      "metar": "METAR KRAL 030053Z AUTO 27007KT 10SM SCT055 19/10 A2990 RMK AO2 SLP111 T01940100",
      "metarTime": "2026-04-03T01:00:00.000Z",
      "taf": "",
      "tafTime": ""
    }
  }
}
