{
  "updated": "2026-04-13T09:00:00.000Z",
  "airports": {
    "KPOC": {
      "name": "Brackett Field",
      "metar": "",
      "metarTime": "",
      "taf": "",
      "tafTime": ""
    },
    "KCCB": {
      "name": "Cable Airport",
      "metar": "METAR KCCB 130855Z AUTO 00000KT 10SM SCT015 10/08 A3003 RMK AO2",
      "metarTime": "2026-04-13T09:00:00.000Z",
      "taf": "",
      "tafTime": ""
    },
    "KRAL": {
      "name": "Riverside Municipal",
      "metar": "METAR KRAL 130853Z AUTO 01003KT 10SM SCT050 11/08 A3004 RMK AO2 SLP162 T01110083 58001",
      "metarTime": "2026-04-13T09:00:00.000Z",
      "taf": "",
      "tafTime": ""
    }
  }
}
