{
  "updated": "2026-02-07T10:35:00.000Z",
  "airports": {
    "KPOC": {
      "name": "Brackett Field",
      "metar": "",
      "metarTime": "",
      "taf": "",
      "tafTime": ""
    },
    "KCCB": {
      "name": "Cable Airport",
      "metar": "METAR KCCB 071035Z AUTO 00000KT 10SM 11/11 A3016 RMK AO2",
      "metarTime": "2026-02-07T10:35:00.000Z",
      "taf": "",
      "tafTime": ""
    },
    "KRAL": {
      "name": "Riverside Municipal",
      "metar": "METAR KRAL 070953Z AUTO 15003KT 9SM SCT009 11/09 A3018 RMK AO2 SLP209 T01060094",
      "metarTime": "2026-02-07T10:00:00.000Z",
      "taf": "",
      "tafTime": ""
    }
  }
}
