{
  "updated": "2026-06-20T06:35:00.000Z",
  "airports": {
    "KPOC": {
      "name": "Brackett Field",
      "metar": "",
      "metarTime": "",
      "taf": "",
      "tafTime": ""
    },
    "KCCB": {
      "name": "Cable Airport",
      "metar": "METAR KCCB 200635Z AUTO 28003KT 5SM BR CLR 15/14 A3000 RMK AO2",
      "metarTime": "2026-06-20T06:35:00.000Z",
      "taf": "",
      "tafTime": ""
    },
    "KRAL": {
      "name": "Riverside Municipal",
      "metar": "METAR KRAL 200553Z AUTO 27004KT 10SM CLR 17/12 A3000 RMK AO2 SLP147 T01670122 10272 20167 51013",
      "metarTime": "2026-06-20T06:00:00.000Z",
      "taf": "",
      "tafTime": ""
    }
  }
}
