{
  "updated": "2026-03-25T08:15:00.000Z",
  "airports": {
    "KPOC": {
      "name": "Brackett Field",
      "metar": "",
      "metarTime": "",
      "taf": "",
      "tafTime": ""
    },
    "KCCB": {
      "name": "Cable Airport",
      "metar": "METAR KCCB 250815Z AUTO 00000KT 6SM BR CLR 16/16 A3002 RMK AO2",
      "metarTime": "2026-03-25T08:15:00.000Z",
      "taf": "",
      "tafTime": ""
    },
    "KRAL": {
      "name": "Riverside Municipal",
      "metar": "METAR KRAL 250753Z AUTO 28003KT 10SM CLR 17/14 A3002 RMK AO2 SLP149 T01670139 403110144",
      "metarTime": "2026-03-25T08:00:00.000Z",
      "taf": "",
      "tafTime": ""
    }
  }
}
