{
  "updated": "2026-03-26T19:35:00.000Z",
  "airports": {
    "KPOC": {
      "name": "Brackett Field",
      "metar": "METAR KPOC 261847Z 00000KT 5SM CLR 25/11 A2997 HZ",
      "metarTime": "2026-03-26T19:00:00.000Z",
      "taf": "",
      "tafTime": ""
    },
    "KCCB": {
      "name": "Cable Airport",
      "metar": "METAR KCCB 261935Z AUTO 00000KT 10SM CLR 26/07 A2995 RMK AO2",
      "metarTime": "2026-03-26T19:35:00.000Z",
      "taf": "",
      "tafTime": ""
    },
    "KRAL": {
      "name": "Riverside Municipal",
      "metar": "METAR KRAL 261853Z 21003KT 10SM CLR 27/07 A2994 RMK AO2 SLP125 T02670072",
      "metarTime": "2026-03-26T19:00:00.000Z",
      "taf": "",
      "tafTime": ""
    }
  }
}
