{
  "updated": "2026-04-30T17:00:00.000Z",
  "airports": {
    "KPOC": {
      "name": "Brackett Field",
      "metar": "METAR KPOC 301647Z 28003KT 10SM CLR 16/11 A2993",
      "metarTime": "2026-04-30T17:00:00.000Z",
      "taf": "",
      "tafTime": ""
    },
    "KCCB": {
      "name": "Cable Airport",
      "metar": "METAR KCCB 301635Z AUTO 00000KT 10SM CLR 16/10 A2992 RMK AO2",
      "metarTime": "2026-04-30T16:35:00.000Z",
      "taf": "",
      "tafTime": ""
    },
    "KRAL": {
      "name": "Riverside Municipal",
      "metar": "METAR KRAL 301553Z VRB03KT 10SM FEW017 16/11 A2992 RMK AO2 SLP121 T01560106",
      "metarTime": "2026-04-30T16:00:00.000Z",
      "taf": "",
      "tafTime": ""
    }
  }
}
