{
  "updated": "2026-07-14T09:00:00.000Z",
  "airports": {
    "KPOC": {
      "name": "Brackett Field",
      "metar": "",
      "metarTime": "",
      "taf": "",
      "tafTime": ""
    },
    "KCCB": {
      "name": "Cable Airport",
      "metar": "METAR KCCB 140835Z AUTO 08008KT 10SM CLR 21/16 A3000 RMK AO2",
      "metarTime": "2026-07-14T08:35:00.000Z",
      "taf": "",
      "tafTime": ""
    },
    "KRAL": {
      "name": "Riverside Municipal",
      "metar": "METAR KRAL 140853Z AUTO 00000KT 10SM CLR 22/14 A2998 RMK AO2 SLP137 T02220139 58004",
      "metarTime": "2026-07-14T09:00:00.000Z",
      "taf": "",
      "tafTime": ""
    }
  }
}
