{
  "updated": "2026-03-04T16:00:00.000Z",
  "airports": {
    "KPOC": {
      "name": "Brackett Field",
      "metar": "METAR KPOC 041547Z 00000KT 10SM CLR 13/09 A3004",
      "metarTime": "2026-03-04T16:00:00.000Z",
      "taf": "",
      "tafTime": ""
    },
    "KCCB": {
      "name": "Cable Airport",
      "metar": "METAR KCCB 041555Z AUTO 00000KT 9SM CLR 14/10 A3003 RMK AO2",
      "metarTime": "2026-03-04T16:00:00.000Z",
      "taf": "",
      "tafTime": ""
    },
    "KRAL": {
      "name": "Riverside Municipal",
      "metar": "METAR KRAL 041553Z 00000KT 10SM CLR 12/09 A3004 RMK AO2 SLP162 T01170089",
      "metarTime": "2026-03-04T16:00:00.000Z",
      "taf": "",
      "tafTime": ""
    }
  }
}
