{
  "updated": "2026-03-31T17:35:00.000Z",
  "airports": {
    "KPOC": {
      "name": "Brackett Field",
      "metar": "METAR KPOC 311647Z 00000KT 05SM HZ OVC015 18/14 A3002",
      "metarTime": "2026-03-31T17:00:00.000Z",
      "taf": "",
      "tafTime": ""
    },
    "KCCB": {
      "name": "Cable Airport",
      "metar": "METAR KCCB 311735Z AUTO VRB03G10KT 6SM BR BKN015 18/16 A3000 RMK AO2",
      "metarTime": "2026-03-31T17:35:00.000Z",
      "taf": "",
      "tafTime": ""
    },
    "KRAL": {
      "name": "Riverside Municipal",
      "metar": "METAR KRAL 311653Z 24005KT 10SM FEW017 19/14 A3000 RMK AO2 SLP145 T01940139",
      "metarTime": "2026-03-31T17:00:00.000Z",
      "taf": "",
      "tafTime": ""
    }
  }
}
