{
  "updated": "2026-05-01T16:35:00.000Z",
  "airports": {
    "KPOC": {
      "name": "Brackett Field",
      "metar": "METAR KPOC 011547Z 06004KT 6SM BR OVC014 16/12 A2999",
      "metarTime": "2026-05-01T16:00:00.000Z",
      "taf": "",
      "tafTime": ""
    },
    "KCCB": {
      "name": "Cable Airport",
      "metar": "METAR KCCB 011635Z AUTO 00000KT 4SM BR FEW010 15/14 A2998 RMK AO2",
      "metarTime": "2026-05-01T16:35:00.000Z",
      "taf": "",
      "tafTime": ""
    },
    "KRAL": {
      "name": "Riverside Municipal",
      "metar": "METAR KRAL 011553Z 00000KT 8SM OVC011 16/12 A2998 RMK AO2 SLP141 T01560122",
      "metarTime": "2026-05-01T16:00:00.000Z",
      "taf": "",
      "tafTime": ""
    }
  }
}
