{
  "updated": "2026-04-28T05:15:00.000Z",
  "airports": {
    "KPOC": {
      "name": "Brackett Field",
      "metar": "",
      "metarTime": "",
      "taf": "",
      "tafTime": ""
    },
    "KCCB": {
      "name": "Cable Airport",
      "metar": "METAR KCCB 280515Z AUTO 28005KT 10SM CLR 12/06 A3005 RMK AO2",
      "metarTime": "2026-04-28T05:15:00.000Z",
      "taf": "",
      "tafTime": ""
    },
    "KRAL": {
      "name": "Riverside Municipal",
      "metar": "METAR KRAL 280453Z AUTO 27007KT 10SM CLR 13/06 A3005 RMK AO2 SLP166 T01280056",
      "metarTime": "2026-04-28T05:00:00.000Z",
      "taf": "",
      "tafTime": ""
    }
  }
}
