{
  "updated": "2026-05-23T20:35:00.000Z",
  "airports": {
    "KPOC": {
      "name": "Brackett Field",
      "metar": "METAR KPOC 231947Z 29007KT 8SM CLR 21/12 A2998",
      "metarTime": "2026-05-23T20:00:00.000Z",
      "taf": "",
      "tafTime": ""
    },
    "KCCB": {
      "name": "Cable Airport",
      "metar": "METAR KCCB 232035Z AUTO 27006KT 10SM CLR 21/11 A2996 RMK AO2",
      "metarTime": "2026-05-23T20:35:00.000Z",
      "taf": "",
      "tafTime": ""
    },
    "KRAL": {
      "name": "Riverside Municipal",
      "metar": "METAR KRAL 231953Z VRB06KT 10SM CLR 23/12 A2996 RMK AO2 SLP132 T02280117",
      "metarTime": "2026-05-23T20:00:00.000Z",
      "taf": "",
      "tafTime": ""
    }
  }
}
