{
  "updated": "2026-04-11T21:15:00.000Z",
  "airports": {
    "KPOC": {
      "name": "Brackett Field",
      "metar": "METAR KPOC 112047Z 22012G17KT 10SM SCT045 21/08 A2998",
      "metarTime": "2026-04-11T21:00:00.000Z",
      "taf": "",
      "tafTime": ""
    },
    "KCCB": {
      "name": "Cable Airport",
      "metar": "METAR KCCB 112115Z AUTO 24008KT 10SM SCT050 20/07 A2997 RMK AO2",
      "metarTime": "2026-04-11T21:15:00.000Z",
      "taf": "",
      "tafTime": ""
    },
    "KRAL": {
      "name": "Riverside Municipal",
      "metar": "METAR KRAL 112053Z 27010G18KT 10SM FEW055 23/08 A2996 RMK AO2 SLP134 60000 T02280078 58021",
      "metarTime": "2026-04-11T21:00:00.000Z",
      "taf": "",
      "tafTime": ""
    }
  }
}
