{
  "updated": "2026-06-12T22:00:00.000Z",
  "airports": {
    "KPOC": {
      "name": "Brackett Field",
      "metar": "",
      "metarTime": "",
      "taf": "",
      "tafTime": ""
    },
    "KCCB": {
      "name": "Cable Airport",
      "metar": "METAR KCCB 122155Z AUTO 27010KT 10SM CLR 33/09 A2985 RMK AO2",
      "metarTime": "2026-06-12T22:00:00.000Z",
      "taf": "",
      "tafTime": ""
    },
    "KRAL": {
      "name": "Riverside Municipal",
      "metar": "METAR KRAL 122153Z 27011G19KT 10SM CLR 37/10 A2980 RMK AO2 SLP073 T03720100",
      "metarTime": "2026-06-12T22:00:00.000Z",
      "taf": "",
      "tafTime": ""
    }
  }
}
