{
  "updated": "2026-04-30T15:00:00.000Z",
  "airports": {
    "KPOC": {
      "name": "Brackett Field",
      "metar": "METAR KPOC 301447Z 00000KT 8SM BKN020 14/10 A2994",
      "metarTime": "2026-04-30T15:00:00.000Z",
      "taf": "",
      "tafTime": ""
    },
    "KCCB": {
      "name": "Cable Airport",
      "metar": "METAR KCCB 301455Z AUTO 24004KT 9SM SCT011 13/12 A2993 RMK AO2",
      "metarTime": "2026-04-30T15:00:00.000Z",
      "taf": "",
      "tafTime": ""
    },
    "KRAL": {
      "name": "Riverside Municipal",
      "metar": "METAR KRAL 301453Z 00000KT 10SM SCT011 14/11 A2994 RMK AO2 SLP125 T01440106 53003",
      "metarTime": "2026-04-30T15:00:00.000Z",
      "taf": "",
      "tafTime": ""
    }
  }
}
