{
  "updated": "2026-05-02T09:15:00.000Z",
  "airports": {
    "KPOC": {
      "name": "Brackett Field",
      "metar": "",
      "metarTime": "",
      "taf": "",
      "tafTime": ""
    },
    "KCCB": {
      "name": "Cable Airport",
      "metar": "METAR KCCB 020915Z AUTO 00000KT 10SM CLR 15/13 A2992 RMK AO2",
      "metarTime": "2026-05-02T09:15:00.000Z",
      "taf": "",
      "tafTime": ""
    },
    "KRAL": {
      "name": "Riverside Municipal",
      "metar": "METAR KRAL 020853Z AUTO 00000KT 10SM CLR 15/13 A2993 RMK AO2 SLP122 T01500128 58005",
      "metarTime": "2026-05-02T09:00:00.000Z",
      "taf": "",
      "tafTime": ""
    }
  }
}
