{
  "updated": "2026-05-01T12:00:00.000Z",
  "airports": {
    "KPOC": {
      "name": "Brackett Field",
      "metar": "",
      "metarTime": "",
      "taf": "",
      "tafTime": ""
    },
    "KCCB": {
      "name": "Cable Airport",
      "metar": "METAR KCCB 011155Z AUTO 00000KT 7SM OVC006 13/13 A2993 RMK AO2",
      "metarTime": "2026-05-01T12:00:00.000Z",
      "taf": "",
      "tafTime": ""
    },
    "KRAL": {
      "name": "Riverside Municipal",
      "metar": "METAR KRAL 011153Z AUTO 00000KT 10SM OVC011 14/12 A2993 RMK AO2 SLP123 T01390122 10161 20128 55001",
      "metarTime": "2026-05-01T12:00:00.000Z",
      "taf": "",
      "tafTime": ""
    }
  }
}
