{
  "updated": "2026-06-18T20:00:00.000Z",
  "airports": {
    "KPOC": {
      "name": "Brackett Field",
      "metar": "METAR KPOC 181847Z 28006KT 7SM OVC022 19/14 A3000",
      "metarTime": "2026-06-18T19:00:00.000Z",
      "taf": "",
      "tafTime": ""
    },
    "KCCB": {
      "name": "Cable Airport",
      "metar": "METAR KCCB 181935Z AUTO 28009KT 10SM OVC018 19/15 A2999 RMK AO2",
      "metarTime": "2026-06-18T19:35:00.000Z",
      "taf": "",
      "tafTime": ""
    },
    "KRAL": {
      "name": "Riverside Municipal",
      "metar": "METAR KRAL 181953Z 27010G14KT 10SM CLR 24/13 A2997 RMK AO2 SLP133 T02440133",
      "metarTime": "2026-06-18T20:00:00.000Z",
      "taf": "",
      "tafTime": ""
    }
  }
}
