{
  "updated": "2026-06-13T11:35:00.000Z",
  "airports": {
    "KPOC": {
      "name": "Brackett Field",
      "metar": "",
      "metarTime": "",
      "taf": "",
      "tafTime": ""
    },
    "KCCB": {
      "name": "Cable Airport",
      "metar": "METAR KCCB 131135Z AUTO 01004KT 10SM CLR 20/12 A2988 RMK AO2",
      "metarTime": "2026-06-13T11:35:00.000Z",
      "taf": "",
      "tafTime": ""
    },
    "KRAL": {
      "name": "Riverside Municipal",
      "metar": "METAR KRAL 131053Z AUTO 00000KT 10SM CLR 19/16 A2987 RMK AO2 SLP098 T01940161",
      "metarTime": "2026-06-13T11:00:00.000Z",
      "taf": "",
      "tafTime": ""
    }
  }
}
