{
  "updated": "2026-06-13T21:00:00.000Z",
  "airports": {
    "KPOC": {
      "name": "Brackett Field",
      "metar": "METAR KPOC 132047Z 26010KT 10SM CLR 31/13 A2991",
      "metarTime": "2026-06-13T21:00:00.000Z",
      "taf": "",
      "tafTime": ""
    },
    "KCCB": {
      "name": "Cable Airport",
      "metar": "METAR KCCB 132045Z AUTO 26012KT 10SM CLR 31/11 A2992 RMK AO2",
      "metarTime": "2026-06-13T21:00:00.000Z",
      "taf": "",
      "tafTime": ""
    },
    "KRAL": {
      "name": "Riverside Municipal",
      "metar": "METAR KRAL 132053Z 28008G19KT 250V320 10SM CLR 34/10 A2988 RMK AO2 SLP099 T03390100 58007",
      "metarTime": "2026-06-13T21:00:00.000Z",
      "taf": "",
      "tafTime": ""
    }
  }
}
