{
  "updated": "2026-03-08T03:15:00.000Z",
  "airports": {
    "KPOC": {
      "name": "Brackett Field",
      "metar": "METAR KPOC 080247Z VRB04KT 10SM CLR 20/M10 A3001",
      "metarTime": "2026-03-08T03:00:00.000Z",
      "taf": "",
      "tafTime": ""
    },
    "KCCB": {
      "name": "Cable Airport",
      "metar": "METAR KCCB 080315Z AUTO 06012G19KT 10SM CLR 20/M16 A3000 RMK AO2",
      "metarTime": "2026-03-08T03:15:00.000Z",
      "taf": "",
      "tafTime": ""
    },
    "KRAL": {
      "name": "Riverside Municipal",
      "metar": "METAR KRAL 080253Z 03009G23KT 10SM CLR 21/M11 A3000 RMK AO2 SLP145 T02061111 53010",
      "metarTime": "2026-03-08T03:00:00.000Z",
      "taf": "",
      "tafTime": ""
    }
  }
}
