{
  "updated": "2026-05-10T21:15:00.000Z",
  "airports": {
    "KPOC": {
      "name": "Brackett Field",
      "metar": "METAR KPOC 102047Z 26007KT 10SM CLR 28/13 A2993",
      "metarTime": "2026-05-10T21:00:00.000Z",
      "taf": "",
      "tafTime": ""
    },
    "KCCB": {
      "name": "Cable Airport",
      "metar": "METAR KCCB 102115Z AUTO 26010KT 10SM CLR 28/10 A2993 RMK AO2",
      "metarTime": "2026-05-10T21:15:00.000Z",
      "taf": "",
      "tafTime": ""
    },
    "KRAL": {
      "name": "Riverside Municipal",
      "metar": "METAR KRAL 102053Z 27010G14KT 10SM CLR 31/13 A2990 RMK AO2 SLP108 T03110128 57011",
      "metarTime": "2026-05-10T21:00:00.000Z",
      "taf": "",
      "tafTime": ""
    }
  }
}
