{
  "updated": "2026-06-13T13:15:00.000Z",
  "airports": {
    "KPOC": {
      "name": "Brackett Field",
      "metar": "",
      "metarTime": "",
      "taf": "",
      "tafTime": ""
    },
    "KCCB": {
      "name": "Cable Airport",
      "metar": "METAR KCCB 131315Z AUTO 00000KT 10SM CLR 20/14 A2989 RMK AO2",
      "metarTime": "2026-06-13T13:15:00.000Z",
      "taf": "",
      "tafTime": ""
    },
    "KRAL": {
      "name": "Riverside Municipal",
      "metar": "METAR KRAL 131253Z AUTO 21003KT 10SM CLR 18/16 A2988 RMK AO2 SLP102 T01830156",
      "metarTime": "2026-06-13T13:00:00.000Z",
      "taf": "",
      "tafTime": ""
    }
  }
}
