{
  "updated": "2026-04-19T23:00:00.000Z",
  "airports": {
    "KPOC": {
      "name": "Brackett Field",
      "metar": "METAR KPOC 192247Z 26010KT 10SM CLR 26/07 A2989",
      "metarTime": "2026-04-19T23:00:00.000Z",
      "taf": "",
      "tafTime": ""
    },
    "KCCB": {
      "name": "Cable Airport",
      "metar": "METAR KCCB 192255Z AUTO 24008G14KT 10SM CLR 27/04 A2988 RMK AO2",
      "metarTime": "2026-04-19T23:00:00.000Z",
      "taf": "",
      "tafTime": ""
    },
    "KRAL": {
      "name": "Riverside Municipal",
      "metar": "METAR KRAL 192253Z 28008G21KT 250V320 10SM CLR 28/07 A2985 RMK AO2 SLP094 T02830072",
      "metarTime": "2026-04-19T23:00:00.000Z",
      "taf": "",
      "tafTime": ""
    }
  }
}
