{
  "updated": "2026-03-04T23:00:00.000Z",
  "airports": {
    "KPOC": {
      "name": "Brackett Field",
      "metar": "METAR KPOC 042247Z 25006KT 10SM CLR 19/11 A2999",
      "metarTime": "2026-03-04T23:00:00.000Z",
      "taf": "",
      "tafTime": ""
    },
    "KCCB": {
      "name": "Cable Airport",
      "metar": "METAR KCCB 042255Z AUTO 24009KT 10SM CLR 19/10 A2996 RMK AO2",
      "metarTime": "2026-03-04T23:00:00.000Z",
      "taf": "",
      "tafTime": ""
    },
    "KRAL": {
      "name": "Riverside Municipal",
      "metar": "METAR KRAL 042253Z VRB05KT 10SM CLR 22/11 A2994 RMK AO2 SLP128 T02170111",
      "metarTime": "2026-03-04T23:00:00.000Z",
      "taf": "",
      "tafTime": ""
    }
  }
}
