{
  "updated": "2026-03-07T23:35:00.000Z",
  "airports": {
    "KPOC": {
      "name": "Brackett Field",
      "metar": "METAR KPOC 072247Z 06010G22KT 10SM CLR 23/M09 A3001",
      "metarTime": "2026-03-07T23:00:00.000Z",
      "taf": "",
      "tafTime": ""
    },
    "KCCB": {
      "name": "Cable Airport",
      "metar": "METAR KCCB 072335Z AUTO 04016G26KT 10SM CLR 22/M14 A2997 RMK AO2",
      "metarTime": "2026-03-07T23:35:00.000Z",
      "taf": "",
      "tafTime": ""
    },
    "KRAL": {
      "name": "Riverside Municipal",
      "metar": "METAR KRAL 072253Z 04016G30KT 10SM CLR 23/M09 A2997 RMK AO2 PK WND 03035/2240 SLP136 T02281094",
      "metarTime": "2026-03-07T23:00:00.000Z",
      "taf": "",
      "tafTime": ""
    }
  }
}
