{
  "updated": "2026-04-06T08:00:00.000Z",
  "airports": {
    "KPOC": {
      "name": "Brackett Field",
      "metar": "",
      "metarTime": "",
      "taf": "",
      "tafTime": ""
    },
    "KCCB": {
      "name": "Cable Airport",
      "metar": "METAR KCCB 060755Z AUTO 00000KT 10SM CLR 19/02 A3000 RMK AO2",
      "metarTime": "2026-04-06T08:00:00.000Z",
      "taf": "",
      "tafTime": ""
    },
    "KRAL": {
      "name": "Riverside Municipal",
      "metar": "METAR KRAL 060753Z AUTO 00000KT 10SM CLR 19/04 A3000 RMK AO2 SLP140 T01890044 403220117",
      "metarTime": "2026-04-06T08:00:00.000Z",
      "taf": "",
      "tafTime": ""
    }
  }
}
