{
  "updated": "2026-04-14T22:00:00.000Z",
  "airports": {
    "KPOC": {
      "name": "Brackett Field",
      "metar": "METAR KPOC 142147Z 25009KT 9SM CLR 21/07 A3006",
      "metarTime": "2026-04-14T22:00:00.000Z",
      "taf": "",
      "tafTime": ""
    },
    "KCCB": {
      "name": "Cable Airport",
      "metar": "METAR KCCB 142155Z AUTO 23009G15KT 200V260 10SM CLR 20/06 A3004 RMK AO2",
      "metarTime": "2026-04-14T22:00:00.000Z",
      "taf": "",
      "tafTime": ""
    },
    "KRAL": {
      "name": "Riverside Municipal",
      "metar": "METAR KRAL 142153Z 27009G14KT 10SM CLR 23/06 A3004 RMK AO2 SLP159 T02280061",
      "metarTime": "2026-04-14T22:00:00.000Z",
      "taf": "",
      "tafTime": ""
    }
  }
}
