{
  "updated": "2026-05-28T05:35:00.000Z",
  "airports": {
    "KPOC": {
      "name": "Brackett Field",
      "metar": "",
      "metarTime": "",
      "taf": "",
      "tafTime": ""
    },
    "KCCB": {
      "name": "Cable Airport",
      "metar": "METAR KCCB 280535Z AUTO 26009KT 10SM FEW019 SCT031 BKN038 13/11 A2992 RMK AO2",
      "metarTime": "2026-05-28T05:35:00.000Z",
      "taf": "",
      "tafTime": ""
    },
    "KRAL": {
      "name": "Riverside Municipal",
      "metar": "METAR KRAL 280453Z AUTO 27007KT 10SM FEW065 13/08 A2991 RMK AO2 SLP118 T01330083",
      "metarTime": "2026-05-28T05:00:00.000Z",
      "taf": "",
      "tafTime": ""
    }
  }
}
