{
  "updated": "2026-02-24T11:15:00.000Z",
  "airports": {
    "KPOC": {
      "name": "Brackett Field",
      "metar": "",
      "metarTime": "",
      "taf": "",
      "tafTime": ""
    },
    "KCCB": {
      "name": "Cable Airport",
      "metar": "METAR KCCB 241115Z AUTO 05003KT 10SM CLR 15/02 A3007 RMK AO2",
      "metarTime": "2026-02-24T11:15:00.000Z",
      "taf": "",
      "tafTime": ""
    },
    "KRAL": {
      "name": "Riverside Municipal",
      "metar": "METAR KRAL 241053Z AUTO 00000KT 10SM CLR 11/07 A3009 RMK AO2 SLP176 T01110067",
      "metarTime": "2026-02-24T11:00:00.000Z",
      "taf": "",
      "tafTime": ""
    }
  }
}
