{
  "updated": "2026-02-17T17:35:00.000Z",
  "airports": {
    "KPOC": {
      "name": "Brackett Field",
      "metar": "METAR KPOC 171647Z VRB04KT 2 3/4SM BKN009 BKN030 09/07 A3009 BR",
      "metarTime": "2026-02-17T17:00:00.000Z",
      "taf": "",
      "tafTime": ""
    },
    "KCCB": {
      "name": "Cable Airport",
      "metar": "METAR KCCB 171735Z AUTO 00000KT 2SM BR FEW008 SCT013 SCT034 09/09 A3009 RMK AO2",
      "metarTime": "2026-02-17T17:35:00.000Z",
      "taf": "",
      "tafTime": ""
    },
    "KRAL": {
      "name": "Riverside Municipal",
      "metar": "METAR KRAL 171653Z 00000KT 10SM FEW047 OVC060 11/08 A3008 RMK AO2 SLP177 T01110078",
      "metarTime": "2026-02-17T17:00:00.000Z",
      "taf": "",
      "tafTime": ""
    }
  }
}
