{
  "updated": "2026-02-28T23:00:00.000Z",
  "airports": {
    "KPOC": {
      "name": "Brackett Field",
      "metar": "METAR KPOC 282247Z 20006KT 10SM CLR 29/10 A2991",
      "metarTime": "2026-02-28T23:00:00.000Z",
      "taf": "",
      "tafTime": ""
    },
    "KCCB": {
      "name": "Cable Airport",
      "metar": "METAR KCCB 282255Z AUTO 22008G13KT 10SM CLR 29/09 A2991 RMK AO2",
      "metarTime": "2026-02-28T23:00:00.000Z",
      "taf": "",
      "tafTime": ""
    },
    "KRAL": {
      "name": "Riverside Municipal",
      "metar": "METAR KRAL 282253Z 28007KT 10SM CLR 31/11 A2988 RMK AO2 SLP104 T03060106",
      "metarTime": "2026-02-28T23:00:00.000Z",
      "taf": "",
      "tafTime": ""
    }
  }
}
