{
  "updated": "2026-07-20T22:35:00.000Z",
  "airports": {
    "KPOC": {
      "name": "Brackett Field",
      "metar": "METAR KPOC 202147Z 27008KT 10SM CLR 31/12 A2994",
      "metarTime": "2026-07-20T22:00:00.000Z",
      "taf": "",
      "tafTime": ""
    },
    "KCCB": {
      "name": "Cable Airport",
      "metar": "METAR KCCB 202235Z AUTO 29008KT 10SM CLR 30/10 A2994 RMK AO2",
      "metarTime": "2026-07-20T22:35:00.000Z",
      "taf": "",
      "tafTime": ""
    },
    "KRAL": {
      "name": "Riverside Municipal",
      "metar": "METAR KRAL 202153Z VRB05KT 10SM CLR 33/09 A2991 RMK AO2 SLP110 T03280094",
      "metarTime": "2026-07-20T22:00:00.000Z",
      "taf": "",
      "tafTime": ""
    }
  }
}
