{
  "updated": "2026-06-03T05:15:00.000Z",
  "airports": {
    "KPOC": {
      "name": "Brackett Field",
      "metar": "",
      "metarTime": "",
      "taf": "",
      "tafTime": ""
    },
    "KCCB": {
      "name": "Cable Airport",
      "metar": "METAR KCCB 030515Z AUTO 28008KT 10SM CLR 17/14 A3001 RMK AO2",
      "metarTime": "2026-06-03T05:15:00.000Z",
      "taf": "",
      "tafTime": ""
    },
    "KRAL": {
      "name": "Riverside Municipal",
      "metar": "METAR KRAL 030453Z AUTO 27006KT 10SM CLR 18/12 A3000 RMK AO2 SLP146 T01830122",
      "metarTime": "2026-06-03T05:00:00.000Z",
      "taf": "",
      "tafTime": ""
    }
  }
}
