{
  "updated": "2026-02-15T04:00:00.000Z",
  "airports": {
    "KPOC": {
      "name": "Brackett Field",
      "metar": "METAR KPOC 150247Z 25004KT 10SM CLR 13/10 A3007",
      "metarTime": "2026-02-15T03:00:00.000Z",
      "taf": "",
      "tafTime": ""
    },
    "KCCB": {
      "name": "Cable Airport",
      "metar": "METAR KCCB 150335Z AUTO 26006KT 10SM CLR 13/11 A3005 RMK AO2",
      "metarTime": "2026-02-15T03:35:00.000Z",
      "taf": "",
      "tafTime": ""
    },
    "KRAL": {
      "name": "Riverside Municipal",
      "metar": "METAR KRAL 150353Z AUTO 00000KT 10SM CLR 14/10 A3006 RMK AO2 SLP172 T01390100",
      "metarTime": "2026-02-15T04:00:00.000Z",
      "taf": "",
      "tafTime": ""
    }
  }
}
