{
  "updated": "2026-05-31T09:35:00.000Z",
  "airports": {
    "KPOC": {
      "name": "Brackett Field",
      "metar": "",
      "metarTime": "",
      "taf": "",
      "tafTime": ""
    },
    "KCCB": {
      "name": "Cable Airport",
      "metar": "METAR KCCB 310935Z AUTO 00000KT 10SM 17/10 A2992 RMK AO2",
      "metarTime": "2026-05-31T09:35:00.000Z",
      "taf": "",
      "tafTime": ""
    },
    "KRAL": {
      "name": "Riverside Municipal",
      "metar": "METAR KRAL 310853Z AUTO 00000KT 10SM CLR 17/12 A2992 RMK AO2 SLP118 T01670117 58011",
      "metarTime": "2026-05-31T09:00:00.000Z",
      "taf": "",
      "tafTime": ""
    }
  }
}
