{
  "updated": "2026-03-30T08:00:00.000Z",
  "airports": {
    "KPOC": {
      "name": "Brackett Field",
      "metar": "",
      "metarTime": "",
      "taf": "",
      "tafTime": ""
    },
    "KCCB": {
      "name": "Cable Airport",
      "metar": "METAR KCCB 300755Z AUTO 05004KT 10SM 19/M00 A2996 RMK AO2",
      "metarTime": "2026-03-30T08:00:00.000Z",
      "taf": "",
      "tafTime": ""
    },
    "KRAL": {
      "name": "Riverside Municipal",
      "metar": "METAR KRAL 300753Z AUTO 07003KT 10SM CLR 17/06 A2995 RMK AO2 SLP126 T01670056 403440144",
      "metarTime": "2026-03-30T08:00:00.000Z",
      "taf": "",
      "tafTime": ""
    }
  }
}
