{
  "updated": "2026-03-12T21:00:00.000Z",
  "airports": {
    "KPOC": {
      "name": "Brackett Field",
      "metar": "METAR KPOC 122047Z 25005KT 10SM CLR 31/03 A3014",
      "metarTime": "2026-03-12T21:00:00.000Z",
      "taf": "",
      "tafTime": ""
    },
    "KCCB": {
      "name": "Cable Airport",
      "metar": "METAR KCCB 122035Z AUTO VRB06KT 10SM CLR 30/M02 A3015 RMK AO2",
      "metarTime": "2026-03-12T20:35:00.000Z",
      "taf": "",
      "tafTime": ""
    },
    "KRAL": {
      "name": "Riverside Municipal",
      "metar": "METAR KRAL 122053Z 02008G19KT 10SM CLR 33/M01 A3011 RMK AO2 SLP179 T03281011 58033",
      "metarTime": "2026-03-12T21:00:00.000Z",
      "taf": "",
      "tafTime": ""
    }
  }
}
