{
  "updated": "2026-06-06T11:00:00.000Z",
  "airports": {
    "KPOC": {
      "name": "Brackett Field",
      "metar": "",
      "metarTime": "",
      "taf": "",
      "tafTime": ""
    },
    "KCCB": {
      "name": "Cable Airport",
      "metar": "METAR KCCB 061055Z AUTO 27003KT 8SM CLR 15/15 A2984 RMK AO2",
      "metarTime": "2026-06-06T11:00:00.000Z",
      "taf": "",
      "tafTime": ""
    },
    "KRAL": {
      "name": "Riverside Municipal",
      "metar": "METAR KRAL 061053Z AUTO 00000KT 10SM CLR 16/13 A2984 RMK AO2 SLP089 T01560133",
      "metarTime": "2026-06-06T11:00:00.000Z",
      "taf": "",
      "tafTime": ""
    }
  }
}
