{
  "updated": "2026-05-21T16:15:00.000Z",
  "airports": {
    "KPOC": {
      "name": "Brackett Field",
      "metar": "METAR KPOC 211547Z 26005KT 7SM CLR 19/11 A2992",
      "metarTime": "2026-05-21T16:00:00.000Z",
      "taf": "",
      "tafTime": ""
    },
    "KCCB": {
      "name": "Cable Airport",
      "metar": "METAR KCCB 211615Z AUTO 23005KT 10SM CLR 21/07 A2991 RMK AO2",
      "metarTime": "2026-05-21T16:15:00.000Z",
      "taf": "",
      "tafTime": ""
    },
    "KRAL": {
      "name": "Riverside Municipal",
      "metar": "METAR KRAL 211553Z 00000KT 10SM CLR 21/08 A2990 RMK AO2 SLP109 T02110083",
      "metarTime": "2026-05-21T16:00:00.000Z",
      "taf": "",
      "tafTime": ""
    }
  }
}
