{
  "updated": "2026-05-08T14:15:00.000Z",
  "airports": {
    "KPOC": {
      "name": "Brackett Field",
      "metar": "METAR KPOC 081347Z 20004KT 02SM OVC007 14/13 A3003 BR",
      "metarTime": "2026-05-08T14:00:00.000Z",
      "taf": "",
      "tafTime": ""
    },
    "KCCB": {
      "name": "Cable Airport",
      "metar": "METAR KCCB 081415Z AUTO 00000KT 1 1/4SM BR OVC003 13/13 A3002 RMK AO2",
      "metarTime": "2026-05-08T14:15:00.000Z",
      "taf": "",
      "tafTime": ""
    },
    "KRAL": {
      "name": "Riverside Municipal",
      "metar": "METAR KRAL 081353Z 29003KT 3SM BR OVC004 14/13 A3002 RMK AO2 SLP153 T01390128",
      "metarTime": "2026-05-08T14:00:00.000Z",
      "taf": "",
      "tafTime": ""
    }
  }
}
