{
  "updated": "2026-07-04T21:15:00.000Z",
  "airports": {
    "KPOC": {
      "name": "Brackett Field",
      "metar": "METAR KPOC 042047Z 25008KT 10SM CLR 28/14 A3003",
      "metarTime": "2026-07-04T21:00:00.000Z",
      "taf": "",
      "tafTime": ""
    },
    "KCCB": {
      "name": "Cable Airport",
      "metar": "METAR KCCB 042115Z AUTO 29008KT 10SM CLR 30/11 A3003 RMK AO2",
      "metarTime": "2026-07-04T21:15:00.000Z",
      "taf": "",
      "tafTime": ""
    },
    "KRAL": {
      "name": "Riverside Municipal",
      "metar": "METAR KRAL 042053Z 28008KT 10SM CLR 33/07 A2999 RMK AO2 SLP139 T03280067 57009",
      "metarTime": "2026-07-04T21:00:00.000Z",
      "taf": "",
      "tafTime": ""
    }
  }
}
