{
  "updated": "2026-03-27T22:00:00.000Z",
  "airports": {
    "KPOC": {
      "name": "Brackett Field",
      "metar": "METAR KPOC 272147Z 26008KT 10SM CLR 28/12 A2993",
      "metarTime": "2026-03-27T22:00:00.000Z",
      "taf": "",
      "tafTime": ""
    },
    "KCCB": {
      "name": "Cable Airport",
      "metar": "METAR KCCB 272135Z AUTO 24010KT 10SM CLR 29/07 A2994 RMK AO2",
      "metarTime": "2026-03-27T21:35:00.000Z",
      "taf": "",
      "tafTime": ""
    },
    "KRAL": {
      "name": "Riverside Municipal",
      "metar": "METAR KRAL 272053Z 19006KT 10SM CLR 31/12 A2991 RMK AO2 SLP114 T03110122 56018",
      "metarTime": "2026-03-27T21:00:00.000Z",
      "taf": "",
      "tafTime": ""
    }
  }
}
