{
  "updated": "2026-02-09T17:35:00.000Z",
  "airports": {
    "KPOC": {
      "name": "Brackett Field",
      "metar": "METAR KPOC 091647Z VRB05KT 10SM CLR 17/02 A3007",
      "metarTime": "2026-02-09T17:00:00.000Z",
      "taf": "",
      "tafTime": ""
    },
    "KCCB": {
      "name": "Cable Airport",
      "metar": "METAR KCCB 091735Z AUTO 13004KT 10SM CLR 20/M02 A3006 RMK AO2",
      "metarTime": "2026-02-09T17:35:00.000Z",
      "taf": "",
      "tafTime": ""
    },
    "KRAL": {
      "name": "Riverside Municipal",
      "metar": "METAR KRAL 091653Z 00000KT 10SM CLR 16/03 A3007 RMK AO2 SLP170 T01560028 $",
      "metarTime": "2026-02-09T17:00:00.000Z",
      "taf": "",
      "tafTime": ""
    }
  }
}
