{
  "updated": "2026-07-20T23:35:00.000Z",
  "airports": {
    "KPOC": {
      "name": "Brackett Field",
      "metar": "METAR KPOC 202247Z 26006KT 10SM CLR 31/11 A2992",
      "metarTime": "2026-07-20T23:00:00.000Z",
      "taf": "",
      "tafTime": ""
    },
    "KCCB": {
      "name": "Cable Airport",
      "metar": "METAR KCCB 202335Z AUTO 22008KT 10SM CLR 30/13 A2992 RMK AO2",
      "metarTime": "2026-07-20T23:35:00.000Z",
      "taf": "",
      "tafTime": ""
    },
    "KRAL": {
      "name": "Riverside Municipal",
      "metar": "",
      "metarTime": "",
      "taf": "",
      "tafTime": ""
    }
  }
}
