{
  "updated": "2026-03-19T21:15:00.000Z",
  "airports": {
    "KPOC": {
      "name": "Brackett Field",
      "metar": "METAR KPOC 192047Z 23007KT 10SM CLR 34/11 A3004",
      "metarTime": "2026-03-19T21:00:00.000Z",
      "taf": "",
      "tafTime": ""
    },
    "KCCB": {
      "name": "Cable Airport",
      "metar": "METAR KCCB 192115Z AUTO 23006G11KT 10SM CLR 35/05 A3004 RMK AO2",
      "metarTime": "2026-03-19T21:15:00.000Z",
      "taf": "",
      "tafTime": ""
    },
    "KRAL": {
      "name": "Riverside Municipal",
      "metar": "METAR KRAL 192053Z 28004KT 10SM CLR 36/07 A3001 RMK AO2 SLP145 T03610072 58024",
      "metarTime": "2026-03-19T21:00:00.000Z",
      "taf": "",
      "tafTime": ""
    }
  }
}
