{
  "updated": "2026-02-19T09:15:00.000Z",
  "airports": {
    "KPOC": {
      "name": "Brackett Field",
      "metar": "",
      "metarTime": "",
      "taf": "",
      "tafTime": ""
    },
    "KCCB": {
      "name": "Cable Airport",
      "metar": "METAR KCCB 190915Z AUTO 00000KT 10SM CLR 07/04 A2999 RMK AO2",
      "metarTime": "2026-02-19T09:15:00.000Z",
      "taf": "",
      "tafTime": ""
    },
    "KRAL": {
      "name": "Riverside Municipal",
      "metar": "METAR KRAL 190853Z AUTO 00000KT 10SM BKN039 BKN055 07/03 A3001 RMK AO2 SLP155 T00720033 50000 $",
      "metarTime": "2026-02-19T09:00:00.000Z",
      "taf": "",
      "tafTime": ""
    }
  }
}
