{
  "updated": "2026-03-20T12:15:00.000Z",
  "airports": {
    "KPOC": {
      "name": "Brackett Field",
      "metar": "",
      "metarTime": "",
      "taf": "",
      "tafTime": ""
    },
    "KCCB": {
      "name": "Cable Airport",
      "metar": "METAR KCCB 201215Z AUTO 00000KT 10SM CLR 22/03 A2999 RMK AO2",
      "metarTime": "2026-03-20T12:15:00.000Z",
      "taf": "",
      "tafTime": ""
    },
    "KRAL": {
      "name": "Riverside Municipal",
      "metar": "METAR KRAL 201153Z AUTO 00000KT 10SM CLR 18/13 A2998 RMK AO2 SLP134 T01780128 10244 20178 56010",
      "metarTime": "2026-03-20T12:00:00.000Z",
      "taf": "",
      "tafTime": ""
    }
  }
}
