{
  "updated": "2026-02-08T19:15:00.000Z",
  "airports": {
    "KPOC": {
      "name": "Brackett Field",
      "metar": "METAR KPOC 081847Z 12004KT 10SM CLR 23/01 A3025",
      "metarTime": "2026-02-08T19:00:00.000Z",
      "taf": "",
      "tafTime": ""
    },
    "KCCB": {
      "name": "Cable Airport",
      "metar": "METAR KCCB 081915Z AUTO 00000KT 10SM CLR 23/M02 A3025 RMK AO2",
      "metarTime": "2026-02-08T19:15:00.000Z",
      "taf": "",
      "tafTime": ""
    },
    "KRAL": {
      "name": "Riverside Municipal",
      "metar": "METAR KRAL 081853Z VRB05KT 10SM CLR 26/M01 A3023 RMK AO2 SLP224 T02611006 $",
      "metarTime": "2026-02-08T19:00:00.000Z",
      "taf": "",
      "tafTime": ""
    }
  }
}
