{
  "updated": "2026-05-17T15:15:00.000Z",
  "airports": {
    "KPOC": {
      "name": "Brackett Field",
      "metar": "METAR KPOC 171447Z 23006KT 6SM BR OVC025 15/12 A2982",
      "metarTime": "2026-05-17T15:00:00.000Z",
      "taf": "",
      "tafTime": ""
    },
    "KCCB": {
      "name": "Cable Airport",
      "metar": "METAR KCCB 171515Z AUTO 26009KT 6SM BR BKN012 BKN028 14/14 A2981 RMK AO2",
      "metarTime": "2026-05-17T15:15:00.000Z",
      "taf": "",
      "tafTime": ""
    },
    "KRAL": {
      "name": "Riverside Municipal",
      "metar": "METAR KRAL 171453Z 28004KT 10SM OVC033 16/12 A2980 RMK AO2 SLP080 T01560122 53002",
      "metarTime": "2026-05-17T15:00:00.000Z",
      "taf": "",
      "tafTime": ""
    }
  }
}
