{
  "updated": "2026-06-29T12:35:00.000Z",
  "airports": {
    "KPOC": {
      "name": "Brackett Field",
      "metar": "",
      "metarTime": "",
      "taf": "",
      "tafTime": ""
    },
    "KCCB": {
      "name": "Cable Airport",
      "metar": "METAR KCCB 291235Z AUTO 30004KT 10SM OVC018 16/14 A2989 RMK AO2",
      "metarTime": "2026-06-29T12:35:00.000Z",
      "taf": "",
      "tafTime": ""
    },
    "KRAL": {
      "name": "Riverside Municipal",
      "metar": "METAR KRAL 291153Z AUTO 00000KT 10SM OVC028 17/12 A2988 RMK AO2 SLP104 T01670122 10167 20161 53005",
      "metarTime": "2026-06-29T12:00:00.000Z",
      "taf": "",
      "tafTime": ""
    }
  }
}
