{
  "updated": "2026-07-12T12:35:00.000Z",
  "airports": {
    "KPOC": {
      "name": "Brackett Field",
      "metar": "",
      "metarTime": "",
      "taf": "",
      "tafTime": ""
    },
    "KCCB": {
      "name": "Cable Airport",
      "metar": "METAR KCCB 121235Z AUTO 00000KT 10SM 21/10 A2996 RMK AO2",
      "metarTime": "2026-07-12T12:35:00.000Z",
      "taf": "",
      "tafTime": ""
    },
    "KRAL": {
      "name": "Riverside Municipal",
      "metar": "METAR KRAL 121153Z AUTO 00000KT 10SM CLR 19/15 A2996 RMK AO2 SLP128 T01940150 10228 20194 53013",
      "metarTime": "2026-07-12T12:00:00.000Z",
      "taf": "",
      "tafTime": ""
    }
  }
}
