{
  "updated": "2026-02-10T15:15:00.000Z",
  "airports": {
    "KPOC": {
      "name": "Brackett Field",
      "metar": "",
      "metarTime": "",
      "taf": "",
      "tafTime": ""
    },
    "KCCB": {
      "name": "Cable Airport",
      "metar": "METAR KCCB 101515Z AUTO 30006KT 10SM CLR 13/05 A2995 RMK AO2",
      "metarTime": "2026-02-10T15:15:00.000Z",
      "taf": "",
      "tafTime": ""
    },
    "KRAL": {
      "name": "Riverside Municipal",
      "metar": "METAR KRAL 101453Z 27006KT 10SM CLR 11/06 A2995 RMK AO2 PRESRR SLP131 T01110056 53010 $",
      "metarTime": "2026-02-10T15:00:00.000Z",
      "taf": "",
      "tafTime": ""
    }
  }
}
