{
  "updated": "2026-04-14T21:00:00.000Z",
  "airports": {
    "KPOC": {
      "name": "Brackett Field",
      "metar": "METAR KPOC 142047Z 25008KT 10SM CLR 21/08 A3008",
      "metarTime": "2026-04-14T21:00:00.000Z",
      "taf": "",
      "tafTime": ""
    },
    "KCCB": {
      "name": "Cable Airport",
      "metar": "METAR KCCB 142055Z AUTO 24009KT 10SM CLR 20/07 A3007 RMK AO2",
      "metarTime": "2026-04-14T21:00:00.000Z",
      "taf": "",
      "tafTime": ""
    },
    "KRAL": {
      "name": "Riverside Municipal",
      "metar": "METAR KRAL 142053Z 31004KT 10SM CLR 22/07 A3006 RMK AO2 SLP167 T02170072 58020",
      "metarTime": "2026-04-14T21:00:00.000Z",
      "taf": "",
      "tafTime": ""
    }
  }
}
