{
  "updated": "2026-07-02T11:00:00.000Z",
  "airports": {
    "KPOC": {
      "name": "Brackett Field",
      "metar": "",
      "metarTime": "",
      "taf": "",
      "tafTime": ""
    },
    "KCCB": {
      "name": "Cable Airport",
      "metar": "METAR KCCB 021055Z AUTO 31004KT 7SM OVC007 15/15 A2993 RMK AO2",
      "metarTime": "2026-07-02T11:00:00.000Z",
      "taf": "",
      "tafTime": ""
    },
    "KRAL": {
      "name": "Riverside Municipal",
      "metar": "METAR KRAL 021053Z AUTO 25004KT 9SM OVC010 16/14 A2993 RMK AO2 SLP118 T01610139",
      "metarTime": "2026-07-02T11:00:00.000Z",
      "taf": "",
      "tafTime": ""
    }
  }
}
