{
  "updated": "2026-06-15T20:15:00.000Z",
  "airports": {
    "KPOC": {
      "name": "Brackett Field",
      "metar": "METAR KPOC 151947Z 26010KT 10SM CLR 29/15 A3002",
      "metarTime": "2026-06-15T20:00:00.000Z",
      "taf": "",
      "tafTime": ""
    },
    "KCCB": {
      "name": "Cable Airport",
      "metar": "METAR KCCB 152015Z AUTO 25012KT 10SM CLR 30/13 A3001 RMK AO2",
      "metarTime": "2026-06-15T20:15:00.000Z",
      "taf": "",
      "tafTime": ""
    },
    "KRAL": {
      "name": "Riverside Municipal",
      "metar": "METAR KRAL 151953Z COR 25007KT 10SM CLR 32/14 A2998 RMK AO2 SLP136 T03220144",
      "metarTime": "2026-06-15T20:00:00.000Z",
      "taf": "",
      "tafTime": ""
    }
  }
}
