{
  "updated": "2026-04-06T21:00:00.000Z",
  "airports": {
    "KPOC": {
      "name": "Brackett Field",
      "metar": "METAR KPOC 062047Z 26010KT 10SM CLR 26/06 A3001",
      "metarTime": "2026-04-06T21:00:00.000Z",
      "taf": "",
      "tafTime": ""
    },
    "KCCB": {
      "name": "Cable Airport",
      "metar": "METAR KCCB 062055Z AUTO 27007G14KT 10SM CLR 24/06 A3001 RMK AO2",
      "metarTime": "2026-04-06T21:00:00.000Z",
      "taf": "",
      "tafTime": ""
    },
    "KRAL": {
      "name": "Riverside Municipal",
      "metar": "METAR KRAL 062053Z 30007KT 10SM CLR 27/02 A2999 RMK AO2 SLP140 T02720022 58019",
      "metarTime": "2026-04-06T21:00:00.000Z",
      "taf": "",
      "tafTime": ""
    }
  }
}
