{
  "updated": "2026-04-04T18:00:00.000Z",
  "airports": {
    "KPOC": {
      "name": "Brackett Field",
      "metar": "METAR KPOC 041747Z 21003KT 10SM CLR 26/M06 A3007",
      "metarTime": "2026-04-04T18:00:00.000Z",
      "taf": "",
      "tafTime": ""
    },
    "KCCB": {
      "name": "Cable Airport",
      "metar": "METAR KCCB 041735Z AUTO 23005KT 10SM CLR 24/M15 A3007 RMK AO2",
      "metarTime": "2026-04-04T17:35:00.000Z",
      "taf": "",
      "tafTime": ""
    },
    "KRAL": {
      "name": "Riverside Municipal",
      "metar": "METAR KRAL 041753Z AUTO 02012G19KT 10SM CLR 27/M08 A3007 RMK AO2 SLP165 T02721083 10272 20139 50004",
      "metarTime": "2026-04-04T18:00:00.000Z",
      "taf": "",
      "tafTime": ""
    }
  }
}
