{
  "updated": "2026-03-16T23:35:00.000Z",
  "airports": {
    "KPOC": {
      "name": "Brackett Field",
      "metar": "METAR KPOC 162247Z 25008KT 10SM CLR 33/04 A2994",
      "metarTime": "2026-03-16T23:00:00.000Z",
      "taf": "",
      "tafTime": ""
    },
    "KCCB": {
      "name": "Cable Airport",
      "metar": "METAR KCCB 162335Z AUTO 28007KT 10SM CLR 32/M00 A2994 RMK AO2",
      "metarTime": "2026-03-16T23:35:00.000Z",
      "taf": "",
      "tafTime": ""
    },
    "KRAL": {
      "name": "Riverside Municipal",
      "metar": "METAR KRAL 162253Z AUTO 35011G24KT 10SM CLR 35/M01 A2990 RMK AO2 SLP108 T03501006",
      "metarTime": "2026-03-16T23:00:00.000Z",
      "taf": "",
      "tafTime": ""
    }
  }
}
