{
  "updated": "2026-04-09T13:00:00.000Z",
  "airports": {
    "KPOC": {
      "name": "Brackett Field",
      "metar": "",
      "metarTime": "",
      "taf": "",
      "tafTime": ""
    },
    "KCCB": {
      "name": "Cable Airport",
      "metar": "METAR KCCB 091235Z AUTO 00000KT 10SM CLR 15/10 A2993 RMK AO2",
      "metarTime": "2026-04-09T12:35:00.000Z",
      "taf": "",
      "tafTime": ""
    },
    "KRAL": {
      "name": "Riverside Municipal",
      "metar": "METAR KRAL 091253Z AUTO 00000KT 10SM CLR 15/12 A2992 RMK AO2 SLP119 T01500117",
      "metarTime": "2026-04-09T13:00:00.000Z",
      "taf": "",
      "tafTime": ""
    }
  }
}
