{
  "updated": "2026-06-24T17:15:00.000Z",
  "airports": {
    "KPOC": {
      "name": "Brackett Field",
      "metar": "METAR KPOC 241647Z 26003KT 7SM CLR 23/16 A3002 HZ",
      "metarTime": "2026-06-24T17:00:00.000Z",
      "taf": "",
      "tafTime": ""
    },
    "KCCB": {
      "name": "Cable Airport",
      "metar": "METAR KCCB 241715Z AUTO 27005KT 9SM CLR 24/14 A3002 RMK AO2",
      "metarTime": "2026-06-24T17:15:00.000Z",
      "taf": "",
      "tafTime": ""
    },
    "KRAL": {
      "name": "Riverside Municipal",
      "metar": "METAR KRAL 241653Z 28003KT 10SM CLR 24/14 A3000 RMK AO2 SLP144 T02390144",
      "metarTime": "2026-06-24T17:00:00.000Z",
      "taf": "",
      "tafTime": ""
    }
  }
}
