{
  "updated": "2026-02-23T18:35:00.000Z",
  "airports": {
    "KPOC": {
      "name": "Brackett Field",
      "metar": "METAR KPOC 231747Z VRB05KT 10SM CLR 18/03 A3020",
      "metarTime": "2026-02-23T18:00:00.000Z",
      "taf": "",
      "tafTime": ""
    },
    "KCCB": {
      "name": "Cable Airport",
      "metar": "METAR KCCB 231835Z AUTO 25003KT 10SM CLR 21/M01 A3019 RMK AO2",
      "metarTime": "2026-02-23T18:35:00.000Z",
      "taf": "",
      "tafTime": ""
    },
    "KRAL": {
      "name": "Riverside Municipal",
      "metar": "METAR KRAL 231753Z 00000KT 10SM CLR 22/02 A3018 RMK AO2 SLP207 T02170017 10217 20094 58002",
      "metarTime": "2026-02-23T18:00:00.000Z",
      "taf": "",
      "tafTime": ""
    }
  }
}
