{
  "updated": "2026-04-10T19:00:00.000Z",
  "airports": {
    "KPOC": {
      "name": "Brackett Field",
      "metar": "METAR KPOC 101847Z 28004KT 10SM SCT023 21/12 A2999",
      "metarTime": "2026-04-10T19:00:00.000Z",
      "taf": "",
      "tafTime": ""
    },
    "KCCB": {
      "name": "Cable Airport",
      "metar": "METAR KCCB 101855Z AUTO VRB06KT 9SM CLR 21/11 A2999 RMK AO2",
      "metarTime": "2026-04-10T19:00:00.000Z",
      "taf": "",
      "tafTime": ""
    },
    "KRAL": {
      "name": "Riverside Municipal",
      "metar": "METAR KRAL 101853Z VRB05KT 10SM CLR 23/12 A2997 RMK AO2 SLP134 T02330122",
      "metarTime": "2026-04-10T19:00:00.000Z",
      "taf": "",
      "tafTime": ""
    }
  }
}
