{
  "updated": "2026-03-04T07:35:00.000Z",
  "airports": {
    "KPOC": {
      "name": "Brackett Field",
      "metar": "",
      "metarTime": "",
      "taf": "",
      "tafTime": ""
    },
    "KCCB": {
      "name": "Cable Airport",
      "metar": "METAR KCCB 040735Z AUTO 36003KT 10SM 13/10 A3002 RMK AO2",
      "metarTime": "2026-03-04T07:35:00.000Z",
      "taf": "",
      "tafTime": ""
    },
    "KRAL": {
      "name": "Riverside Municipal",
      "metar": "METAR KRAL 040653Z AUTO 00000KT 10SM CLR 14/09 A3002 RMK AO2 SLP154 T01390094",
      "metarTime": "2026-03-04T07:00:00.000Z",
      "taf": "",
      "tafTime": ""
    }
  }
}
