{
  "updated": "2026-04-17T22:15:00.000Z",
  "airports": {
    "KPOC": {
      "name": "Brackett Field",
      "metar": "METAR KPOC 172147Z 26007KT 10SM CLR 24/06 A2998",
      "metarTime": "2026-04-17T22:00:00.000Z",
      "taf": "",
      "tafTime": ""
    },
    "KCCB": {
      "name": "Cable Airport",
      "metar": "METAR KCCB 172215Z AUTO 28004KT 10SM CLR 23/02 A2997 RMK AO2",
      "metarTime": "2026-04-17T22:15:00.000Z",
      "taf": "",
      "tafTime": ""
    },
    "KRAL": {
      "name": "Riverside Municipal",
      "metar": "METAR KRAL 172153Z 36008G16KT 10SM CLR 27/M08 A2995 RMK AO2 SLP129 T02671078",
      "metarTime": "2026-04-17T22:00:00.000Z",
      "taf": "",
      "tafTime": ""
    }
  }
}
