{
  "updated": "2026-02-14T07:35:00.000Z",
  "airports": {
    "KPOC": {
      "name": "Brackett Field",
      "metar": "",
      "metarTime": "",
      "taf": "",
      "tafTime": ""
    },
    "KCCB": {
      "name": "Cable Airport",
      "metar": "METAR KCCB 140735Z AUTO 34005KT 10SM CLR 11/09 A3008 RMK AO2",
      "metarTime": "2026-02-14T07:35:00.000Z",
      "taf": "",
      "tafTime": ""
    },
    "KRAL": {
      "name": "Riverside Municipal",
      "metar": "METAR KRAL 140653Z AUTO 00000KT 10SM CLR 11/07 A3009 RMK AO2 SLP180 T01060072",
      "metarTime": "2026-02-14T07:00:00.000Z",
      "taf": "",
      "tafTime": ""
    }
  }
}
