{
  "updated": "2026-06-17T18:00:00.000Z",
  "airports": {
    "KPOC": {
      "name": "Brackett Field",
      "metar": "METAR KPOC 171747Z 24006KT 10SM CLR 22/14 A2995",
      "metarTime": "2026-06-17T18:00:00.000Z",
      "taf": "",
      "tafTime": ""
    },
    "KCCB": {
      "name": "Cable Airport",
      "metar": "METAR KCCB 171755Z AUTO 27008G13KT 9SM CLR 22/14 A2994 RMK AO2",
      "metarTime": "2026-06-17T18:00:00.000Z",
      "taf": "",
      "tafTime": ""
    },
    "KRAL": {
      "name": "Riverside Municipal",
      "metar": "METAR KRAL 171753Z VRB05KT 10SM CLR 24/14 A2992 RMK AO2 SLP117 T02440144 10244 20144 58006",
      "metarTime": "2026-06-17T18:00:00.000Z",
      "taf": "",
      "tafTime": ""
    }
  }
}
