{
  "updated": "2026-07-23T20:00:00.000Z",
  "airports": {
    "KPOC": {
      "name": "Brackett Field",
      "metar": "METAR KPOC 231947Z 25011KT 10SM CLR 32/18 A2989",
      "metarTime": "2026-07-23T20:00:00.000Z",
      "taf": "",
      "tafTime": ""
    },
    "KCCB": {
      "name": "Cable Airport",
      "metar": "METAR KCCB 231955Z AUTO 24010KT 10SM CLR 33/16 A2989 RMK AO2",
      "metarTime": "2026-07-23T20:00:00.000Z",
      "taf": "",
      "tafTime": ""
    },
    "KRAL": {
      "name": "Riverside Municipal",
      "metar": "METAR KRAL 231953Z VRB06KT 10SM CLR 36/15 A2985 RMK AO2 SLP090 T03560150",
      "metarTime": "2026-07-23T20:00:00.000Z",
      "taf": "",
      "tafTime": ""
    }
  }
}
