{
  "updated": "2026-07-12T18:35:00.000Z",
  "airports": {
    "KPOC": {
      "name": "Brackett Field",
      "metar": "METAR KPOC 121747Z 28009KT 10SM CLR 25/14 A2997",
      "metarTime": "2026-07-12T18:00:00.000Z",
      "taf": "",
      "tafTime": ""
    },
    "KCCB": {
      "name": "Cable Airport",
      "metar": "METAR KCCB 121835Z AUTO 22007KT 10SM CLR 25/14 A2995 RMK AO2",
      "metarTime": "2026-07-12T18:35:00.000Z",
      "taf": "",
      "tafTime": ""
    },
    "KRAL": {
      "name": "Riverside Municipal",
      "metar": "METAR KRAL 121753Z 27005KT 10SM CLR 24/15 A2995 RMK AO2 SLP125 T02390150 10239 20189 58014",
      "metarTime": "2026-07-12T18:00:00.000Z",
      "taf": "",
      "tafTime": ""
    }
  }
}
