{
  "updated": "2026-02-17T01:00:00.000Z",
  "airports": {
    "KPOC": {
      "name": "Brackett Field",
      "metar": "METAR KPOC 170047Z VRB03KT 10SM FEW015 OVC040 10/08 A2979",
      "metarTime": "2026-02-17T01:00:00.000Z",
      "taf": "",
      "tafTime": ""
    },
    "KCCB": {
      "name": "Cable Airport",
      "metar": "METAR KCCB 170055Z AUTO 00000KT 10SM FEW016 BKN022 OVC028 10/09 A2977 RMK AO2",
      "metarTime": "2026-02-17T01:00:00.000Z",
      "taf": "",
      "tafTime": ""
    },
    "KRAL": {
      "name": "Riverside Municipal",
      "metar": "SPECI KRAL 170100Z 19006KT 9SM -RA SCT008 BKN046 OVC100 09/09 A2980 RMK AO2 P0000 T00940089",
      "metarTime": "2026-02-17T01:00:00.000Z",
      "taf": "",
      "tafTime": ""
    }
  }
}
