{
  "updated": "2026-03-07T03:15:00.000Z",
  "airports": {
    "KPOC": {
      "name": "Brackett Field",
      "metar": "METAR KPOC 070247Z VRB03KT 10SM CLR 19/M09 A3001",
      "metarTime": "2026-03-07T03:00:00.000Z",
      "taf": "",
      "tafTime": ""
    },
    "KCCB": {
      "name": "Cable Airport",
      "metar": "METAR KCCB 070315Z AUTO 00000KT 10SM CLR 18/M13 A3001 RMK AO2",
      "metarTime": "2026-03-07T03:15:00.000Z",
      "taf": "",
      "tafTime": ""
    },
    "KRAL": {
      "name": "Riverside Municipal",
      "metar": "METAR KRAL 070253Z 00000KT 10SM CLR 18/M09 A3002 RMK AO2 SLP152 T01831089 53009",
      "metarTime": "2026-03-07T03:00:00.000Z",
      "taf": "",
      "tafTime": ""
    }
  }
}
