{
  "updated": "2026-04-05T19:00:00.000Z",
  "airports": {
    "KPOC": {
      "name": "Brackett Field",
      "metar": "METAR KPOC 051847Z 27007KT 10SM CLR 27/M02 A3003",
      "metarTime": "2026-04-05T19:00:00.000Z",
      "taf": "",
      "tafTime": ""
    },
    "KCCB": {
      "name": "Cable Airport",
      "metar": "METAR KCCB 051855Z AUTO 24007KT 10SM CLR 26/M08 A3003 RMK AO2",
      "metarTime": "2026-04-05T19:00:00.000Z",
      "taf": "",
      "tafTime": ""
    },
    "KRAL": {
      "name": "Riverside Municipal",
      "metar": "METAR KRAL 051853Z COR 30004KT 10SM CLR 29/M06 A3000 RMK AO2 SLP143 T02941056",
      "metarTime": "2026-04-05T19:00:00.000Z",
      "taf": "",
      "tafTime": ""
    }
  }
}
