{
  "updated": "2026-04-28T18:00:00.000Z",
  "airports": {
    "KPOC": {
      "name": "Brackett Field",
      "metar": "METAR KPOC 281747Z 00000KT 10SM CLR 17/06 A3007",
      "metarTime": "2026-04-28T18:00:00.000Z",
      "taf": "",
      "tafTime": ""
    },
    "KCCB": {
      "name": "Cable Airport",
      "metar": "METAR KCCB 281755Z AUTO 27004KT 10SM CLR 17/04 A3006 RMK AO2",
      "metarTime": "2026-04-28T18:00:00.000Z",
      "taf": "",
      "tafTime": ""
    },
    "KRAL": {
      "name": "Riverside Municipal",
      "metar": "METAR KRAL 281753Z VRB03KT 10SM CLR 18/04 A3006 RMK AO2 SLP168 T01830044 10183 20078 58007",
      "metarTime": "2026-04-28T18:00:00.000Z",
      "taf": "",
      "tafTime": ""
    }
  }
}
