{
  "updated": "2026-07-12T21:15:00.000Z",
  "airports": {
    "KPOC": {
      "name": "Brackett Field",
      "metar": "METAR KPOC 122047Z 25009KT 10SM CLR 27/14 A2997",
      "metarTime": "2026-07-12T21:00:00.000Z",
      "taf": "",
      "tafTime": ""
    },
    "KCCB": {
      "name": "Cable Airport",
      "metar": "METAR KCCB 122115Z AUTO 26008KT 10SM CLR 27/14 A2997 RMK AO2",
      "metarTime": "2026-07-12T21:15:00.000Z",
      "taf": "",
      "tafTime": ""
    },
    "KRAL": {
      "name": "Riverside Municipal",
      "metar": "METAR KRAL 122053Z 28009G15KT 260V320 10SM CLR 30/16 A2994 RMK AO2 SLP120 T03000156 55003",
      "metarTime": "2026-07-12T21:00:00.000Z",
      "taf": "",
      "tafTime": ""
    }
  }
}
