{
  "updated": "2026-06-23T05:15:00.000Z",
  "airports": {
    "KPOC": {
      "name": "Brackett Field",
      "metar": "",
      "metarTime": "",
      "taf": "",
      "tafTime": ""
    },
    "KCCB": {
      "name": "Cable Airport",
      "metar": "METAR KCCB 230515Z AUTO 26006KT 10SM 20/14 A2999 RMK AO2",
      "metarTime": "2026-06-23T05:15:00.000Z",
      "taf": "",
      "tafTime": ""
    },
    "KRAL": {
      "name": "Riverside Municipal",
      "metar": "METAR KRAL 230453Z AUTO 27006KT 10SM FU CLR 21/13 A2997 RMK AO2 SLP135 T02110133",
      "metarTime": "2026-06-23T05:00:00.000Z",
      "taf": "",
      "tafTime": ""
    }
  }
}
