{
  "updated": "2026-03-08T01:00:00.000Z",
  "airports": {
    "KPOC": {
      "name": "Brackett Field",
      "metar": "METAR KPOC 080047Z 04011G23KT 10SM CLR 23/M11 A2998",
      "metarTime": "2026-03-08T01:00:00.000Z",
      "taf": "",
      "tafTime": ""
    },
    "KCCB": {
      "name": "Cable Airport",
      "metar": "METAR KCCB 080055Z AUTO 06021G32KT 10SM CLR 21/M15 A2996 RMK AO2",
      "metarTime": "2026-03-08T01:00:00.000Z",
      "taf": "",
      "tafTime": ""
    },
    "KRAL": {
      "name": "Riverside Municipal",
      "metar": "METAR KRAL 080053Z 04011G22KT 10SM CLR 22/M10 A2997 RMK AO2 PK WND 05027/0017 SLP135 T02221100",
      "metarTime": "2026-03-08T01:00:00.000Z",
      "taf": "",
      "tafTime": ""
    }
  }
}
