{
  "updated": "2026-04-08T20:00:00.000Z",
  "airports": {
    "KPOC": {
      "name": "Brackett Field",
      "metar": "METAR KPOC 081947Z 27007KT 10SM CLR 24/13 A2992",
      "metarTime": "2026-04-08T20:00:00.000Z",
      "taf": "",
      "tafTime": ""
    },
    "KCCB": {
      "name": "Cable Airport",
      "metar": "METAR KCCB 081955Z AUTO 00000KT 10SM CLR 24/10 A2992 RMK AO2",
      "metarTime": "2026-04-08T20:00:00.000Z",
      "taf": "",
      "tafTime": ""
    },
    "KRAL": {
      "name": "Riverside Municipal",
      "metar": "METAR KRAL 081953Z 28005KT 10SM CLR 26/11 A2989 RMK AO2 SLP108 T02610111",
      "metarTime": "2026-04-08T20:00:00.000Z",
      "taf": "",
      "tafTime": ""
    }
  }
}
