{
  "updated": "2026-05-09T19:10:00.000Z",
  "airports": {
    "KPOC": {
      "name": "Brackett Field",
      "metar": "METAR KPOC 091847Z 26006KT 4SM CLR 23/14 A2994 HZ",
      "metarTime": "2026-05-09T19:00:00.000Z",
      "taf": "",
      "tafTime": ""
    },
    "KCCB": {
      "name": "Cable Airport",
      "metar": "METAR KCCB 091910Z AUTO VRB05KT 9SM CLR 25/13 A2993 RMK AO2",
      "metarTime": "2026-05-09T19:10:00.000Z",
      "taf": "",
      "tafTime": ""
    },
    "KRAL": {
      "name": "Riverside Municipal",
      "metar": "METAR KRAL 091853Z COR 26006KT 10SM CLR 25/13 A2991 RMK AO2 SLP116 T02500133 $",
      "metarTime": "2026-05-09T19:00:00.000Z",
      "taf": "",
      "tafTime": ""
    }
  }
}
