{
  "updated": "2026-03-24T15:30:00.000Z",
  "airports": {
    "KPOC": {
      "name": "Brackett Field",
      "metar": "SPECI KPOC 241530Z 27003KT 03SM BR CLR 17/14 A3002",
      "metarTime": "2026-03-24T15:30:00.000Z",
      "taf": "",
      "tafTime": ""
    },
    "KCCB": {
      "name": "Cable Airport",
      "metar": "METAR KCCB 241515Z AUTO 07003KT 8SM CLR 19/14 A3001 RMK AO2",
      "metarTime": "2026-03-24T15:15:00.000Z",
      "taf": "",
      "tafTime": ""
    },
    "KRAL": {
      "name": "Riverside Municipal",
      "metar": "METAR KRAL 241453Z 00000KT 7SM CLR 16/14 A3000 RMK AO2 SLP146 T01560139 53012",
      "metarTime": "2026-03-24T15:00:00.000Z",
      "taf": "",
      "tafTime": ""
    }
  }
}
