{
  "updated": "2026-06-18T00:00:00.000Z",
  "airports": {
    "KPOC": {
      "name": "Brackett Field",
      "metar": "METAR KPOC 172347Z 22009KT 10SM CLR 26/13 A2990",
      "metarTime": "2026-06-18T00:00:00.000Z",
      "taf": "",
      "tafTime": ""
    },
    "KCCB": {
      "name": "Cable Airport",
      "metar": "METAR KCCB 172335Z AUTO 24015G20KT 10SM CLR 26/13 A2990 RMK AO2",
      "metarTime": "2026-06-17T23:35:00.000Z",
      "taf": "",
      "tafTime": ""
    },
    "KRAL": {
      "name": "Riverside Municipal",
      "metar": "METAR KRAL 172253Z 28010G23KT 10SM CLR 29/12 A2988 RMK AO2 SLP102 T02890122",
      "metarTime": "2026-06-17T23:00:00.000Z",
      "taf": "",
      "tafTime": ""
    }
  }
}
