{
  "updated": "2026-03-01T08:35:00.000Z",
  "airports": {
    "KPOC": {
      "name": "Brackett Field",
      "metar": "",
      "metarTime": "",
      "taf": "",
      "tafTime": ""
    },
    "KCCB": {
      "name": "Cable Airport",
      "metar": "METAR KCCB 010835Z AUTO 01005KT 10SM CLR 19/06 A2997 RMK AO2",
      "metarTime": "2026-03-01T08:35:00.000Z",
      "taf": "",
      "tafTime": ""
    },
    "KRAL": {
      "name": "Riverside Municipal",
      "metar": "METAR KRAL 010753Z AUTO 10003KT 10SM CLR 17/08 A2995 RMK AO2 SLP127 T01720083 403110139",
      "metarTime": "2026-03-01T08:00:00.000Z",
      "taf": "",
      "tafTime": ""
    }
  }
}
