{
  "updated": "2026-03-17T23:35:00.000Z",
  "airports": {
    "KPOC": {
      "name": "Brackett Field",
      "metar": "METAR KPOC 172247Z 25009KT 10SM CLR 36/03 A2993",
      "metarTime": "2026-03-17T23:00:00.000Z",
      "taf": "",
      "tafTime": ""
    },
    "KCCB": {
      "name": "Cable Airport",
      "metar": "METAR KCCB 172335Z AUTO 28006G11KT 10SM CLR 35/M00 A2993 RMK AO2",
      "metarTime": "2026-03-17T23:35:00.000Z",
      "taf": "",
      "tafTime": ""
    },
    "KRAL": {
      "name": "Riverside Municipal",
      "metar": "METAR KRAL 172253Z 28004KT 10SM CLR 37/03 A2989 RMK AO2 SLP104 T03720028",
      "metarTime": "2026-03-17T23:00:00.000Z",
      "taf": "",
      "tafTime": ""
    }
  }
}
