{
  "updated": "2026-07-12T17:35:00.000Z",
  "airports": {
    "KPOC": {
      "name": "Brackett Field",
      "metar": "METAR KPOC 121647Z 00000KT 10SM CLR 24/14 A3002",
      "metarTime": "2026-07-12T17:00:00.000Z",
      "taf": "",
      "tafTime": ""
    },
    "KCCB": {
      "name": "Cable Airport",
      "metar": "METAR KCCB 121735Z AUTO 29004KT 10SM CLR 24/15 A3000 RMK AO2",
      "metarTime": "2026-07-12T17:35:00.000Z",
      "taf": "",
      "tafTime": ""
    },
    "KRAL": {
      "name": "Riverside Municipal",
      "metar": "METAR KRAL 121653Z 03003KT 10SM FEW090 FEW110 23/16 A3000 RMK AO2 SLP144 T02280156",
      "metarTime": "2026-07-12T17:00:00.000Z",
      "taf": "",
      "tafTime": ""
    }
  }
}
