{
  "updated": "2026-06-22T11:15:00.000Z",
  "airports": {
    "KPOC": {
      "name": "Brackett Field",
      "metar": "",
      "metarTime": "",
      "taf": "",
      "tafTime": ""
    },
    "KCCB": {
      "name": "Cable Airport",
      "metar": "METAR KCCB 221115Z AUTO 00000KT 6SM BR 15/14 A2989 RMK AO2",
      "metarTime": "2026-06-22T11:15:00.000Z",
      "taf": "",
      "tafTime": ""
    },
    "KRAL": {
      "name": "Riverside Municipal",
      "metar": "METAR KRAL 221053Z AUTO 00000KT 10SM CLR 16/13 A2990 RMK AO2 SLP108 T01560128",
      "metarTime": "2026-06-22T11:00:00.000Z",
      "taf": "",
      "tafTime": ""
    }
  }
}
