{
  "updated": "2026-04-30T18:00:00.000Z",
  "airports": {
    "KPOC": {
      "name": "Brackett Field",
      "metar": "METAR KPOC 301747Z 26006KT 10SM CLR 18/11 A2992",
      "metarTime": "2026-04-30T18:00:00.000Z",
      "taf": "",
      "tafTime": ""
    },
    "KCCB": {
      "name": "Cable Airport",
      "metar": "METAR KCCB 301755Z AUTO 21006KT 10SM CLR 18/10 A2990 RMK AO2",
      "metarTime": "2026-04-30T18:00:00.000Z",
      "taf": "",
      "tafTime": ""
    },
    "KRAL": {
      "name": "Riverside Municipal",
      "metar": "METAR KRAL 301753Z 27006KT 10SM CLR 19/09 A2990 RMK AO2 SLP111 T01940094 10194 20117 58012",
      "metarTime": "2026-04-30T18:00:00.000Z",
      "taf": "",
      "tafTime": ""
    }
  }
}
