{
  "updated": "2026-03-22T17:00:00.000Z",
  "airports": {
    "KPOC": {
      "name": "Brackett Field",
      "metar": "METAR KPOC 221647Z 25005KT 3SM HZ 18/14 A2995",
      "metarTime": "2026-03-22T17:00:00.000Z",
      "taf": "",
      "tafTime": ""
    },
    "KCCB": {
      "name": "Cable Airport",
      "metar": "METAR KCCB 221655Z AUTO 00000KT 10SM CLR 23/10 A2995 RMK AO2",
      "metarTime": "2026-03-22T17:00:00.000Z",
      "taf": "",
      "tafTime": ""
    },
    "KRAL": {
      "name": "Riverside Municipal",
      "metar": "METAR KRAL 221653Z 00000KT 10SM CLR 21/11 A2994 RMK AO2 SLP123 T02060111",
      "metarTime": "2026-03-22T17:00:00.000Z",
      "taf": "",
      "tafTime": ""
    }
  }
}
