{
  "updated": "2026-06-05T23:00:00.000Z",
  "airports": {
    "KPOC": {
      "name": "Brackett Field",
      "metar": "METAR KPOC 052247Z 25013KT 10SM CLR 27/15 A2984",
      "metarTime": "2026-06-05T23:00:00.000Z",
      "taf": "",
      "tafTime": ""
    },
    "KCCB": {
      "name": "Cable Airport",
      "metar": "METAR KCCB 052235Z AUTO 27013G18KT 10SM CLR 28/14 A2985 RMK AO2",
      "metarTime": "2026-06-05T22:35:00.000Z",
      "taf": "",
      "tafTime": ""
    },
    "KRAL": {
      "name": "Riverside Municipal",
      "metar": "METAR KRAL 052253Z 27012G18KT 10SM CLR 29/14 A2981 RMK AO2 SLP078 T02940144",
      "metarTime": "2026-06-05T23:00:00.000Z",
      "taf": "",
      "tafTime": ""
    }
  }
}
