{
  "updated": "2026-04-10T11:35:00.000Z",
  "airports": {
    "KPOC": {
      "name": "Brackett Field",
      "metar": "",
      "metarTime": "",
      "taf": "",
      "tafTime": ""
    },
    "KCCB": {
      "name": "Cable Airport",
      "metar": "METAR KCCB 101135Z AUTO 05004KT 10SM OVC012 16/15 A2993 RMK AO2",
      "metarTime": "2026-04-10T11:35:00.000Z",
      "taf": "",
      "tafTime": ""
    },
    "KRAL": {
      "name": "Riverside Municipal",
      "metar": "METAR KRAL 101053Z AUTO 00000KT 9SM OVC011 16/14 A2994 RMK AO2 SLP124 T01560139",
      "metarTime": "2026-04-10T11:00:00.000Z",
      "taf": "",
      "tafTime": ""
    }
  }
}
