{
  "updated": "2026-02-27T11:00:00.000Z",
  "airports": {
    "KPOC": {
      "name": "Brackett Field",
      "metar": "",
      "metarTime": "",
      "taf": "",
      "tafTime": ""
    },
    "KCCB": {
      "name": "Cable Airport",
      "metar": "METAR KCCB 271055Z AUTO 33004KT 10SM CLR 19/07 A3000 RMK AO2",
      "metarTime": "2026-02-27T11:00:00.000Z",
      "taf": "",
      "tafTime": ""
    },
    "KRAL": {
      "name": "Riverside Municipal",
      "metar": "METAR KRAL 271053Z AUTO 06003KT 10SM CLR 16/11 A2999 RMK AO2 SLP138 T01610106",
      "metarTime": "2026-02-27T11:00:00.000Z",
      "taf": "",
      "tafTime": ""
    }
  }
}
