{
  "updated": "2026-06-28T06:35:00.000Z",
  "airports": {
    "KPOC": {
      "name": "Brackett Field",
      "metar": "",
      "metarTime": "",
      "taf": "",
      "tafTime": ""
    },
    "KCCB": {
      "name": "Cable Airport",
      "metar": "METAR KCCB 280635Z AUTO 23007KT 10SM OVC011 17/16 A2994 RMK AO2",
      "metarTime": "2026-06-28T06:35:00.000Z",
      "taf": "",
      "tafTime": ""
    },
    "KRAL": {
      "name": "Riverside Municipal",
      "metar": "SPECI KRAL 280630Z AUTO VRB04KT 10SM BKN017 BKN025 18/14 A2993 RMK AO2 T01780144",
      "metarTime": "2026-06-28T06:30:00.000Z",
      "taf": "",
      "tafTime": ""
    }
  }
}
