{
  "updated": "2026-07-13T16:15:00.000Z",
  "airports": {
    "KPOC": {
      "name": "Brackett Field",
      "metar": "METAR KPOC 131547Z 00000KT 10SM CLR 22/18 A3000",
      "metarTime": "2026-07-13T16:00:00.000Z",
      "taf": "",
      "tafTime": ""
    },
    "KCCB": {
      "name": "Cable Airport",
      "metar": "METAR KCCB 131615Z AUTO 00000KT 9SM CLR 25/18 A3000 RMK AO2",
      "metarTime": "2026-07-13T16:15:00.000Z",
      "taf": "",
      "tafTime": ""
    },
    "KRAL": {
      "name": "Riverside Municipal",
      "metar": "METAR KRAL 131553Z 00000KT 10SM CLR 23/17 A2998 RMK AO2 SLP136 T02330172",
      "metarTime": "2026-07-13T16:00:00.000Z",
      "taf": "",
      "tafTime": ""
    }
  }
}
