{
  "updated": "2026-05-07T23:35:00.000Z",
  "airports": {
    "KPOC": {
      "name": "Brackett Field",
      "metar": "METAR KPOC 072247Z 24013KT 10SM CLR 26/13 A2994",
      "metarTime": "2026-05-07T23:00:00.000Z",
      "taf": "",
      "tafTime": ""
    },
    "KCCB": {
      "name": "Cable Airport",
      "metar": "METAR KCCB 072335Z AUTO 26016G22KT 10SM CLR 26/13 A2993 RMK AO2",
      "metarTime": "2026-05-07T23:35:00.000Z",
      "taf": "",
      "tafTime": ""
    },
    "KRAL": {
      "name": "Riverside Municipal",
      "metar": "METAR KRAL 072253Z AUTO 26007G19KT 10SM CLR 27/12 A2992 RMK AO2 SLP116 T02720122",
      "metarTime": "2026-05-07T23:00:00.000Z",
      "taf": "",
      "tafTime": ""
    }
  }
}
