{
  "updated": "2026-07-21T18:00:00.000Z",
  "airports": {
    "KPOC": {
      "name": "Brackett Field",
      "metar": "METAR KPOC 211747Z 27005KT 10SM CLR 28/12 A3003",
      "metarTime": "2026-07-21T18:00:00.000Z",
      "taf": "",
      "tafTime": ""
    },
    "KCCB": {
      "name": "Cable Airport",
      "metar": "METAR KCCB 211755Z AUTO 27004KT 10SM CLR 27/10 A3003 RMK AO2",
      "metarTime": "2026-07-21T18:00:00.000Z",
      "taf": "",
      "tafTime": ""
    },
    "KRAL": {
      "name": "Riverside Municipal",
      "metar": "METAR KRAL 211753Z 00000KT 10SM CLR 29/12 A3001 RMK AO2 SLP143 T02890122 10294 20211 50001",
      "metarTime": "2026-07-21T18:00:00.000Z",
      "taf": "",
      "tafTime": ""
    }
  }
}
