{
  "updated": "2026-03-13T11:15:00.000Z",
  "airports": {
    "KPOC": {
      "name": "Brackett Field",
      "metar": "",
      "metarTime": "",
      "taf": "",
      "tafTime": ""
    },
    "KCCB": {
      "name": "Cable Airport",
      "metar": "METAR KCCB 131115Z AUTO 00000KT 10SM 20/M06 A3001 RMK AO2",
      "metarTime": "2026-03-13T11:15:00.000Z",
      "taf": "",
      "tafTime": ""
    },
    "KRAL": {
      "name": "Riverside Municipal",
      "metar": "METAR KRAL 131053Z AUTO 04004KT 10SM CLR 15/01 A3001 RMK AO2 SLP145 T01500011",
      "metarTime": "2026-03-13T11:00:00.000Z",
      "taf": "",
      "tafTime": ""
    }
  }
}
