{
  "updated": "2026-06-07T09:35:00.000Z",
  "airports": {
    "KPOC": {
      "name": "Brackett Field",
      "metar": "",
      "metarTime": "",
      "taf": "",
      "tafTime": ""
    },
    "KCCB": {
      "name": "Cable Airport",
      "metar": "METAR KCCB 070935Z AUTO 22004KT 10SM 16/14 A2984 RMK AO2",
      "metarTime": "2026-06-07T09:35:00.000Z",
      "taf": "",
      "tafTime": ""
    },
    "KRAL": {
      "name": "Riverside Municipal",
      "metar": "SPECI KRAL 070913Z AUTO 26003KT 10SM BKN018 16/13 A2984 RMK AO2 T01560128",
      "metarTime": "2026-06-07T09:13:00.000Z",
      "taf": "",
      "tafTime": ""
    }
  }
}
