{
  "updated": "2026-02-20T13:35:00.000Z",
  "airports": {
    "KPOC": {
      "name": "Brackett Field",
      "metar": "",
      "metarTime": "",
      "taf": "",
      "tafTime": ""
    },
    "KCCB": {
      "name": "Cable Airport",
      "metar": "METAR KCCB 201335Z AUTO 03006KT 10SM SCT024 SCT031 05/04 A2996 RMK AO2",
      "metarTime": "2026-02-20T13:35:00.000Z",
      "taf": "",
      "tafTime": ""
    },
    "KRAL": {
      "name": "Riverside Municipal",
      "metar": "METAR KRAL 201253Z AUTO 05003KT 10SM CLR 04/02 A2996 RMK AO2 SLP139 T00440022",
      "metarTime": "2026-02-20T13:00:00.000Z",
      "taf": "",
      "tafTime": ""
    }
  }
}
