{
  "updated": "2026-04-10T12:35:00.000Z",
  "airports": {
    "KPOC": {
      "name": "Brackett Field",
      "metar": "",
      "metarTime": "",
      "taf": "",
      "tafTime": ""
    },
    "KCCB": {
      "name": "Cable Airport",
      "metar": "METAR KCCB 101235Z AUTO 00000KT 7SM 15/15 A2993 RMK AO2",
      "metarTime": "2026-04-10T12:35:00.000Z",
      "taf": "",
      "tafTime": ""
    },
    "KRAL": {
      "name": "Riverside Municipal",
      "metar": "METAR KRAL 101153Z AUTO 00000KT 10SM OVC012 16/14 A2993 RMK AO2 SLP121 T01610139 10172 20144 58010",
      "metarTime": "2026-04-10T12:00:00.000Z",
      "taf": "",
      "tafTime": ""
    }
  }
}
