{
  "updated": "2026-06-17T22:15:00.000Z",
  "airports": {
    "KPOC": {
      "name": "Brackett Field",
      "metar": "METAR KPOC 172147Z 27011KT 10SM CLR 28/13 A2992",
      "metarTime": "2026-06-17T22:00:00.000Z",
      "taf": "",
      "tafTime": ""
    },
    "KCCB": {
      "name": "Cable Airport",
      "metar": "METAR KCCB 172215Z AUTO 24010G19KT 220V280 10SM CLR 28/11 A2992 RMK AO2",
      "metarTime": "2026-06-17T22:15:00.000Z",
      "taf": "",
      "tafTime": ""
    },
    "KRAL": {
      "name": "Riverside Municipal",
      "metar": "METAR KRAL 172153Z 28014G20KT 10SM CLR 29/11 A2988 RMK AO2 SLP104 T02940111",
      "metarTime": "2026-06-17T22:00:00.000Z",
      "taf": "",
      "tafTime": ""
    }
  }
}
