{
  "updated": "2026-02-08T14:35:00.000Z",
  "airports": {
    "KPOC": {
      "name": "Brackett Field",
      "metar": "",
      "metarTime": "",
      "taf": "",
      "tafTime": ""
    },
    "KCCB": {
      "name": "Cable Airport",
      "metar": "METAR KCCB 081435Z AUTO 00000KT 10SM CLR 14/M02 A3021 RMK AO2",
      "metarTime": "2026-02-08T14:35:00.000Z",
      "taf": "",
      "tafTime": ""
    },
    "KRAL": {
      "name": "Riverside Municipal",
      "metar": "METAR KRAL 081353Z AUTO 06005KT 10SM CLR 12/03 A3019 RMK AO2 SLP213 T01170028 $",
      "metarTime": "2026-02-08T14:00:00.000Z",
      "taf": "",
      "tafTime": ""
    }
  }
}
