{
  "updated": "2026-03-25T05:15:00.000Z",
  "airports": {
    "KPOC": {
      "name": "Brackett Field",
      "metar": "",
      "metarTime": "",
      "taf": "",
      "tafTime": ""
    },
    "KCCB": {
      "name": "Cable Airport",
      "metar": "METAR KCCB 250515Z AUTO 27004KT 10SM 18/15 A3001 RMK AO2",
      "metarTime": "2026-03-25T05:15:00.000Z",
      "taf": "",
      "tafTime": ""
    },
    "KRAL": {
      "name": "Riverside Municipal",
      "metar": "METAR KRAL 250453Z AUTO 27004KT 10SM CLR 19/14 A3000 RMK AO2 SLP146 T01890144",
      "metarTime": "2026-03-25T05:00:00.000Z",
      "taf": "",
      "tafTime": ""
    }
  }
}
