{
  "updated": "2026-05-30T23:35:00.000Z",
  "airports": {
    "KPOC": {
      "name": "Brackett Field",
      "metar": "METAR KPOC 302247Z 27011G17KT 10SM CLR 26/12 A2996",
      "metarTime": "2026-05-30T23:00:00.000Z",
      "taf": "",
      "tafTime": ""
    },
    "KCCB": {
      "name": "Cable Airport",
      "metar": "METAR KCCB 302335Z AUTO 25013G18KT 10SM CLR 26/11 A2994 RMK AO2",
      "metarTime": "2026-05-30T23:35:00.000Z",
      "taf": "",
      "tafTime": ""
    },
    "KRAL": {
      "name": "Riverside Municipal",
      "metar": "METAR KRAL 302253Z 26012G20KT 10SM CLR 28/11 A2992 RMK AO2 SLP119 T02780111",
      "metarTime": "2026-05-30T23:00:00.000Z",
      "taf": "",
      "tafTime": ""
    }
  }
}
