{
  "updated": "2026-02-03T17:35:00.000Z",
  "airports": {
    "KPOC": {
      "name": "Brackett Field",
      "metar": "METAR KPOC 031647Z VRB04KT 10SM CLR 16/07 A3023",
      "metarTime": "2026-02-03T17:00:00.000Z",
      "taf": "",
      "tafTime": ""
    },
    "KCCB": {
      "name": "Cable Airport",
      "metar": "METAR KCCB 031735Z AUTO 00000KT 10SM CLR 21/03 A3023 RMK AO2",
      "metarTime": "2026-02-03T17:35:00.000Z",
      "taf": "",
      "tafTime": ""
    },
    "KRAL": {
      "name": "Riverside Municipal",
      "metar": "METAR KRAL 031653Z 08004KT 10SM CLR 15/05 A3023 RMK AO2 SLP225 T01500050",
      "metarTime": "2026-02-03T17:00:00.000Z",
      "taf": "",
      "tafTime": ""
    }
  }
}
