{
  "updated": "2026-02-04T10:15:00.000Z",
  "airports": {
    "KPOC": {
      "name": "Brackett Field",
      "metar": "",
      "metarTime": "",
      "taf": "",
      "tafTime": ""
    },
    "KCCB": {
      "name": "Cable Airport",
      "metar": "METAR KCCB 041015Z AUTO 36008KT 10SM CLR 19/M08 A3017 RMK AO2",
      "metarTime": "2026-02-04T10:15:00.000Z",
      "taf": "",
      "tafTime": ""
    },
    "KRAL": {
      "name": "Riverside Municipal",
      "metar": "METAR KRAL 040953Z AUTO 06003KT 10SM CLR 14/M04 A3020 RMK AO2 SLP211 T01441039",
      "metarTime": "2026-02-04T10:00:00.000Z",
      "taf": "",
      "tafTime": ""
    }
  }
}
