{
  "updated": "2026-02-15T05:00:00.000Z",
  "airports": {
    "KPOC": {
      "name": "Brackett Field",
      "metar": "",
      "metarTime": "",
      "taf": "",
      "tafTime": ""
    },
    "KCCB": {
      "name": "Cable Airport",
      "metar": "METAR KCCB 150455Z AUTO 29004KT 10SM CLR 12/11 A3007 RMK AO2",
      "metarTime": "2026-02-15T05:00:00.000Z",
      "taf": "",
      "tafTime": ""
    },
    "KRAL": {
      "name": "Riverside Municipal",
      "metar": "METAR KRAL 150453Z AUTO 00000KT 10SM CLR 13/10 A3008 RMK AO2 SLP175 T01280100",
      "metarTime": "2026-02-15T05:00:00.000Z",
      "taf": "",
      "tafTime": ""
    }
  }
}
