{
  "updated": "2026-07-18T20:15:00.000Z",
  "airports": {
    "KPOC": {
      "name": "Brackett Field",
      "metar": "METAR KPOC 181947Z 24005KT 10SM CLR 31/16 A2999",
      "metarTime": "2026-07-18T20:00:00.000Z",
      "taf": "",
      "tafTime": ""
    },
    "KCCB": {
      "name": "Cable Airport",
      "metar": "METAR KCCB 182015Z AUTO 26008KT 10SM CLR 32/13 A2999 RMK AO2",
      "metarTime": "2026-07-18T20:15:00.000Z",
      "taf": "",
      "tafTime": ""
    },
    "KRAL": {
      "name": "Riverside Municipal",
      "metar": "METAR KRAL 181953Z VRB05KT 10SM CLR 34/11 A2996 RMK AO2 SLP126 T03390111",
      "metarTime": "2026-07-18T20:00:00.000Z",
      "taf": "",
      "tafTime": ""
    }
  }
}
