{
  "updated": "2026-05-03T00:00:00.000Z",
  "airports": {
    "KPOC": {
      "name": "Brackett Field",
      "metar": "METAR KPOC 022347Z 25011KT 10SM CLR 25/298 A2986",
      "metarTime": "2026-05-03T00:00:00.000Z",
      "taf": "",
      "tafTime": ""
    },
    "KCCB": {
      "name": "Cable Airport",
      "metar": "METAR KCCB 022355Z AUTO 27012KT 8SM CLR 25/12 A2984 RMK AO2",
      "metarTime": "2026-05-03T00:00:00.000Z",
      "taf": "",
      "tafTime": ""
    },
    "KRAL": {
      "name": "Riverside Municipal",
      "metar": "METAR KRAL 022353Z 27011KT 10SM CLR 27/13 A2982 RMK AO2 SLP083 T02670128 10283 20194 56019",
      "metarTime": "2026-05-03T00:00:00.000Z",
      "taf": "",
      "tafTime": ""
    }
  }
}
