{
  "updated": "2026-02-07T15:00:00.000Z",
  "airports": {
    "KPOC": {
      "name": "Brackett Field",
      "metar": "METAR KPOC 071447Z 00000KT 4SM BR CLR 10/08 A3020",
      "metarTime": "2026-02-07T15:00:00.000Z",
      "taf": "",
      "tafTime": ""
    },
    "KCCB": {
      "name": "Cable Airport",
      "metar": "METAR KCCB 071455Z AUTO 05005KT 2 1/2SM BR CLR 11/11 A3018 RMK AO2",
      "metarTime": "2026-02-07T15:00:00.000Z",
      "taf": "",
      "tafTime": ""
    },
    "KRAL": {
      "name": "Riverside Municipal",
      "metar": "METAR KRAL 071453Z AUTO 03003KT 4SM BR CLR 10/09 A3020 RMK AO2 SLP216 T01000089 53013",
      "metarTime": "2026-02-07T15:00:00.000Z",
      "taf": "",
      "tafTime": ""
    }
  }
}
