{
  "updated": "2026-04-02T20:15:00.000Z",
  "airports": {
    "KPOC": {
      "name": "Brackett Field",
      "metar": "METAR KPOC 021947Z 23005KT 10SM BKN035 18/10 A2998",
      "metarTime": "2026-04-02T20:00:00.000Z",
      "taf": "",
      "tafTime": ""
    },
    "KCCB": {
      "name": "Cable Airport",
      "metar": "METAR KCCB 022015Z AUTO 29006G14KT 10SM SCT030 BKN038 18/09 A2996 RMK AO2",
      "metarTime": "2026-04-02T20:15:00.000Z",
      "taf": "",
      "tafTime": ""
    },
    "KRAL": {
      "name": "Riverside Municipal",
      "metar": "METAR KRAL 021953Z 00000KT 10SM BKN041 BKN049 19/09 A2997 RMK AO2 SLP136 T01890089",
      "metarTime": "2026-04-02T20:00:00.000Z",
      "taf": "",
      "tafTime": ""
    }
  }
}
