{
  "updated": "2026-05-28T23:00:00.000Z",
  "airports": {
    "KPOC": {
      "name": "Brackett Field",
      "metar": "METAR KPOC 282247Z 23012KT 10SM SCT040 19/07 A2992",
      "metarTime": "2026-05-28T23:00:00.000Z",
      "taf": "",
      "tafTime": ""
    },
    "KCCB": {
      "name": "Cable Airport",
      "metar": "METAR KCCB 282255Z AUTO 23014KT 10SM CLR 19/05 A2991 RMK AO2",
      "metarTime": "2026-05-28T23:00:00.000Z",
      "taf": "",
      "tafTime": ""
    },
    "KRAL": {
      "name": "Riverside Municipal",
      "metar": "METAR KRAL 282253Z 26012G21KT 10SM CLR 22/07 A2990 RMK AO2 SLP112 T02220067",
      "metarTime": "2026-05-28T23:00:00.000Z",
      "taf": "",
      "tafTime": ""
    }
  }
}
