{
  "updated": "2026-07-18T14:00:00.000Z",
  "airports": {
    "KPOC": {
      "name": "Brackett Field",
      "metar": "METAR KPOC 181347Z 00000KT 10SM CLR 20/17 A3003",
      "metarTime": "2026-07-18T14:00:00.000Z",
      "taf": "",
      "tafTime": ""
    },
    "KCCB": {
      "name": "Cable Airport",
      "metar": "METAR KCCB 181355Z AUTO 00000KT 9SM CLR 21/17 A3003 RMK AO2",
      "metarTime": "2026-07-18T14:00:00.000Z",
      "taf": "",
      "tafTime": ""
    },
    "KRAL": {
      "name": "Riverside Municipal",
      "metar": "METAR KRAL 181353Z 00000KT 10SM CLR 21/17 A3002 RMK AO2 SLP148 T02060172",
      "metarTime": "2026-07-18T14:00:00.000Z",
      "taf": "",
      "tafTime": ""
    }
  }
}
