{
  "updated": "2026-02-18T16:00:00.000Z",
  "airports": {
    "KPOC": {
      "name": "Brackett Field",
      "metar": "METAR KPOC 181547Z 26010KT 10SM FEW035 08/05 A2998",
      "metarTime": "2026-02-18T16:00:00.000Z",
      "taf": "",
      "tafTime": ""
    },
    "KCCB": {
      "name": "Cable Airport",
      "metar": "METAR KCCB 181555Z AUTO 27006KT 10SM FEW025 SCT031 BKN039 07/06 A2996 RMK AO2",
      "metarTime": "2026-02-18T16:00:00.000Z",
      "taf": "",
      "tafTime": ""
    },
    "KRAL": {
      "name": "Riverside Municipal",
      "metar": "METAR KRAL 181553Z 24011KT 10SM CLR 09/04 A2999 RMK AO2 SLP146 T00940039",
      "metarTime": "2026-02-18T16:00:00.000Z",
      "taf": "",
      "tafTime": ""
    }
  }
}
