{
  "updated": "2026-06-28T00:00:00.000Z",
  "airports": {
    "KPOC": {
      "name": "Brackett Field",
      "metar": "METAR KPOC 272347Z 22012G17KT 10SM CLR 25/13 A2991",
      "metarTime": "2026-06-28T00:00:00.000Z",
      "taf": "",
      "tafTime": ""
    },
    "KCCB": {
      "name": "Cable Airport",
      "metar": "METAR KCCB 272335Z AUTO 24013G19KT 10SM CLR 25/13 A2991 RMK AO2",
      "metarTime": "2026-06-27T23:35:00.000Z",
      "taf": "",
      "tafTime": ""
    },
    "KRAL": {
      "name": "Riverside Municipal",
      "metar": "METAR KRAL 272253Z 28008G19KT 250V330 10SM CLR 27/13 A2990 RMK AO2 SLP110 T02720128",
      "metarTime": "2026-06-27T23:00:00.000Z",
      "taf": "",
      "tafTime": ""
    }
  }
}
