{
  "updated": "2026-02-14T14:35:00.000Z",
  "airports": {
    "KPOC": {
      "name": "Brackett Field",
      "metar": "",
      "metarTime": "",
      "taf": "",
      "tafTime": ""
    },
    "KCCB": {
      "name": "Cable Airport",
      "metar": "METAR KCCB 141435Z AUTO 05003KT 10SM CLR 09/04 A3012 RMK AO2",
      "metarTime": "2026-02-14T14:35:00.000Z",
      "taf": "",
      "tafTime": ""
    },
    "KRAL": {
      "name": "Riverside Municipal",
      "metar": "SPECI KRAL 141418Z AUTO 03004KT 10SM OVC004 08/07 A3012 RMK AO2 T00830067",
      "metarTime": "2026-02-14T14:18:00.000Z",
      "taf": "",
      "tafTime": ""
    }
  }
}
