{
  "updated": "2026-03-13T18:15:00.000Z",
  "airports": {
    "KPOC": {
      "name": "Brackett Field",
      "metar": "METAR KPOC 131747Z 10004KT 10SM CLR 26/M01 A3004",
      "metarTime": "2026-03-13T18:00:00.000Z",
      "taf": "",
      "tafTime": ""
    },
    "KCCB": {
      "name": "Cable Airport",
      "metar": "METAR KCCB 131815Z AUTO 23004KT 10SM CLR 27/M03 A3003 RMK AO2",
      "metarTime": "2026-03-13T18:15:00.000Z",
      "taf": "",
      "tafTime": ""
    },
    "KRAL": {
      "name": "Riverside Municipal",
      "metar": "METAR KRAL 131753Z 00000KT 10SM CLR 29/01 A3001 RMK AO2 SLP146 T02890011 10289 20111 58003",
      "metarTime": "2026-03-13T18:00:00.000Z",
      "taf": "",
      "tafTime": ""
    }
  }
}
