{
  "updated": "2026-03-02T23:35:00.000Z",
  "airports": {
    "KPOC": {
      "name": "Brackett Field",
      "metar": "",
      "metarTime": "",
      "taf": "",
      "tafTime": ""
    },
    "KCCB": {
      "name": "Cable Airport",
      "metar": "METAR KCCB 022335Z AUTO 23011KT 10SM CLR 21/07 A2993 RMK AO2",
      "metarTime": "2026-03-02T23:35:00.000Z",
      "taf": "",
      "tafTime": ""
    },
    "KRAL": {
      "name": "Riverside Municipal",
      "metar": "METAR KRAL 022253Z 29007KT 260V330 10SM CLR 23/07 A2992 RMK AO2 SLP120 T02280072",
      "metarTime": "2026-03-02T23:00:00.000Z",
      "taf": "",
      "tafTime": ""
    }
  }
}
