{
  "updated": "2026-07-19T23:30:00.000Z",
  "airports": {
    "KPOC": {
      "name": "Brackett Field",
      "metar": "METAR KPOC 192247Z 26011KT 10SM CLR 34/11 A2989",
      "metarTime": "2026-07-19T23:00:00.000Z",
      "taf": "",
      "tafTime": ""
    },
    "KCCB": {
      "name": "Cable Airport",
      "metar": "METAR KCCB 192330Z AUTO 26014KT 10SM CLR 34/08 A2989 RMK AO2",
      "metarTime": "2026-07-19T23:30:00.000Z",
      "taf": "",
      "tafTime": ""
    },
    "KRAL": {
      "name": "Riverside Municipal",
      "metar": "METAR KRAL 192253Z 27014G21KT 10SM CLR 36/11 A2986 RMK AO2 SLP092 T03610106",
      "metarTime": "2026-07-19T23:00:00.000Z",
      "taf": "",
      "tafTime": ""
    }
  }
}
