{
  "updated": "2026-07-05T12:00:00.000Z",
  "airports": {
    "KPOC": {
      "name": "Brackett Field",
      "metar": "",
      "metarTime": "",
      "taf": "",
      "tafTime": ""
    },
    "KCCB": {
      "name": "Cable Airport",
      "metar": "METAR KCCB 051155Z AUTO 00000KT 2 1/2SM HZ 19/15 A3000 RMK AO2",
      "metarTime": "2026-07-05T12:00:00.000Z",
      "taf": "",
      "tafTime": ""
    },
    "KRAL": {
      "name": "Riverside Municipal",
      "metar": "METAR KRAL 051153Z AUTO 23003KT 7SM CLR 19/14 A2999 RMK AO2 SLP137 T01940139 10228 20189 53000",
      "metarTime": "2026-07-05T12:00:00.000Z",
      "taf": "",
      "tafTime": ""
    }
  }
}
