{
  "updated": "2026-02-22T08:00:00.000Z",
  "airports": {
    "KPOC": {
      "name": "Brackett Field",
      "metar": "",
      "metarTime": "",
      "taf": "",
      "tafTime": ""
    },
    "KCCB": {
      "name": "Cable Airport",
      "metar": "METAR KCCB 220755Z AUTO 00000KT 10SM CLR 13/M02 A3021 RMK AO2",
      "metarTime": "2026-02-22T08:00:00.000Z",
      "taf": "",
      "tafTime": ""
    },
    "KRAL": {
      "name": "Riverside Municipal",
      "metar": "METAR KRAL 220753Z AUTO 00000KT 10SM CLR 11/M01 A3022 RMK AO2 SLP222 T01111011 402060028 $",
      "metarTime": "2026-02-22T08:00:00.000Z",
      "taf": "",
      "tafTime": ""
    }
  }
}
