{
  "updated": "2026-07-16T20:35:00.000Z",
  "airports": {
    "KPOC": {
      "name": "Brackett Field",
      "metar": "METAR KPOC 161947Z 24011KT 10SM CLR 33/17 A2985",
      "metarTime": "2026-07-16T20:00:00.000Z",
      "taf": "",
      "tafTime": ""
    },
    "KCCB": {
      "name": "Cable Airport",
      "metar": "METAR KCCB 162035Z AUTO 28011KT 9SM CLR 34/15 A2986 RMK AO2",
      "metarTime": "2026-07-16T20:35:00.000Z",
      "taf": "",
      "tafTime": ""
    },
    "KRAL": {
      "name": "Riverside Municipal",
      "metar": "METAR KRAL 161953Z VRB05KT 10SM CLR 37/13 A2981 RMK AO2 SLP076 T03720128",
      "metarTime": "2026-07-16T20:00:00.000Z",
      "taf": "",
      "tafTime": ""
    }
  }
}
