{
  "updated": "2026-03-02T03:35:00.000Z",
  "airports": {
    "KPOC": {
      "name": "Brackett Field",
      "metar": "",
      "metarTime": "",
      "taf": "",
      "tafTime": ""
    },
    "KCCB": {
      "name": "Cable Airport",
      "metar": "METAR KCCB 020335Z AUTO 28005KT 10SM CLR 21/09 A2997 RMK AO2",
      "metarTime": "2026-03-02T03:35:00.000Z",
      "taf": "",
      "tafTime": ""
    },
    "KRAL": {
      "name": "Riverside Municipal",
      "metar": "METAR KRAL 020253Z 28005KT 10SM CLR 22/11 A2996 RMK AO2 SLP132 T02220106 53009",
      "metarTime": "2026-03-02T03:00:00.000Z",
      "taf": "",
      "tafTime": ""
    }
  }
}
