{
  "updated": "2026-07-08T19:00:00.000Z",
  "airports": {
    "KPOC": {
      "name": "Brackett Field",
      "metar": "METAR KPOC 081847Z 27006KT 10SM CLR 29/14 A2998",
      "metarTime": "2026-07-08T19:00:00.000Z",
      "taf": "",
      "tafTime": ""
    },
    "KCCB": {
      "name": "Cable Airport",
      "metar": "METAR KCCB 081835Z AUTO 26009KT 10SM CLR 28/12 A2999 RMK AO2",
      "metarTime": "2026-07-08T18:35:00.000Z",
      "taf": "",
      "tafTime": ""
    },
    "KRAL": {
      "name": "Riverside Municipal",
      "metar": "METAR KRAL 081753Z VRB04KT 10SM CLR 29/13 A2995 RMK AO2 SLP127 T02940128 10300 20172 58007",
      "metarTime": "2026-07-08T18:00:00.000Z",
      "taf": "",
      "tafTime": ""
    }
  }
}
