{
  "updated": "2026-02-27T07:00:00.000Z",
  "airports": {
    "KPOC": {
      "name": "Brackett Field",
      "metar": "",
      "metarTime": "",
      "taf": "",
      "tafTime": ""
    },
    "KCCB": {
      "name": "Cable Airport",
      "metar": "METAR KCCB 270655Z AUTO 01007KT 10SM CLR 23/05 A3004 RMK AO2",
      "metarTime": "2026-02-27T07:00:00.000Z",
      "taf": "",
      "tafTime": ""
    },
    "KRAL": {
      "name": "Riverside Municipal",
      "metar": "METAR KRAL 270653Z AUTO 10004KT 10SM CLR 18/13 A3003 RMK AO2 SLP153 T01780128",
      "metarTime": "2026-02-27T07:00:00.000Z",
      "taf": "",
      "tafTime": ""
    }
  }
}
