{
  "updated": "2026-03-13T10:00:00.000Z",
  "airports": {
    "KPOC": {
      "name": "Brackett Field",
      "metar": "",
      "metarTime": "",
      "taf": "",
      "tafTime": ""
    },
    "KCCB": {
      "name": "Cable Airport",
      "metar": "METAR KCCB 130955Z AUTO 36004KT 10SM FEW015 FEW021 22/M06 A3004 RMK AO2",
      "metarTime": "2026-03-13T10:00:00.000Z",
      "taf": "",
      "tafTime": ""
    },
    "KRAL": {
      "name": "Riverside Municipal",
      "metar": "METAR KRAL 130953Z AUTO 04005KT 10SM CLR 16/01 A3003 RMK AO2 SLP153 T01610011",
      "metarTime": "2026-03-13T10:00:00.000Z",
      "taf": "",
      "tafTime": ""
    }
  }
}
