{
  "updated": "2026-06-29T08:30:00.000Z",
  "airports": {
    "KPOC": {
      "name": "Brackett Field",
      "metar": "",
      "metarTime": "",
      "taf": "",
      "tafTime": ""
    },
    "KCCB": {
      "name": "Cable Airport",
      "metar": "METAR KCCB 290830Z AUTO 25006KT 10SM BKN010 OVC014 16/15 A2987 RMK AO2",
      "metarTime": "2026-06-29T08:30:00.000Z",
      "taf": "",
      "tafTime": ""
    },
    "KRAL": {
      "name": "Riverside Municipal",
      "metar": "METAR KRAL 290753Z AUTO 00000KT 10SM SCT021 BKN028 17/13 A2987 RMK AO2 SLP102 T01670128 402610161",
      "metarTime": "2026-06-29T08:00:00.000Z",
      "taf": "",
      "tafTime": ""
    }
  }
}
