{
  "updated": "2026-03-26T18:35:00.000Z",
  "airports": {
    "KPOC": {
      "name": "Brackett Field",
      "metar": "METAR KPOC 261747Z 12006KT 5SM CLR 22/13 A2998 HZ",
      "metarTime": "2026-03-26T18:00:00.000Z",
      "taf": "",
      "tafTime": ""
    },
    "KCCB": {
      "name": "Cable Airport",
      "metar": "METAR KCCB 261835Z AUTO 00000KT 8SM CLR 25/09 A2997 RMK AO2",
      "metarTime": "2026-03-26T18:35:00.000Z",
      "taf": "",
      "tafTime": ""
    },
    "KRAL": {
      "name": "Riverside Municipal",
      "metar": "METAR KRAL 261753Z 00000KT 9SM CLR 23/11 A2996 RMK AO2 SLP132 T02280111 10228 20128 58009",
      "metarTime": "2026-03-26T18:00:00.000Z",
      "taf": "",
      "tafTime": ""
    }
  }
}
