{
  "updated": "2026-07-11T10:35:00.000Z",
  "airports": {
    "KPOC": {
      "name": "Brackett Field",
      "metar": "",
      "metarTime": "",
      "taf": "",
      "tafTime": ""
    },
    "KCCB": {
      "name": "Cable Airport",
      "metar": "METAR KCCB 111035Z AUTO 29004KT 7SM 17/17 A2992 RMK AO2",
      "metarTime": "2026-07-11T10:35:00.000Z",
      "taf": "",
      "tafTime": ""
    },
    "KRAL": {
      "name": "Riverside Municipal",
      "metar": "METAR KRAL 110953Z AUTO 25003KT 10SM CLR 18/15 A2991 RMK AO2 SLP110 T01830150",
      "metarTime": "2026-07-11T10:00:00.000Z",
      "taf": "",
      "tafTime": ""
    }
  }
}
