{
  "updated": "2026-04-25T23:15:00.000Z",
  "airports": {
    "KPOC": {
      "name": "Brackett Field",
      "metar": "METAR KPOC 252247Z 25014KT 8SM SCT036 BKN044 16/08 A2988",
      "metarTime": "2026-04-25T23:00:00.000Z",
      "taf": "",
      "tafTime": ""
    },
    "KCCB": {
      "name": "Cable Airport",
      "metar": "METAR KCCB 252315Z AUTO 24015KT 10SM BKN027 OVC037 15/08 A2987 RMK AO2",
      "metarTime": "2026-04-25T23:15:00.000Z",
      "taf": "",
      "tafTime": ""
    },
    "KRAL": {
      "name": "Riverside Municipal",
      "metar": "METAR KRAL 252253Z AUTO 24018G28KT 10SM SCT050 BKN095 19/07 A2984 RMK AO2 PK WND 25028/2246 SLP092 T01940072",
      "metarTime": "2026-04-25T23:00:00.000Z",
      "taf": "",
      "tafTime": ""
    }
  }
}
