{
  "updated": "2026-02-23T19:35:00.000Z",
  "airports": {
    "KPOC": {
      "name": "Brackett Field",
      "metar": "METAR KPOC 231847Z 00000KT 10SM CLR 21/02 A3020",
      "metarTime": "2026-02-23T19:00:00.000Z",
      "taf": "",
      "tafTime": ""
    },
    "KCCB": {
      "name": "Cable Airport",
      "metar": "METAR KCCB 231935Z AUTO 24004KT 10SM CLR 23/M00 A3018 RMK AO2",
      "metarTime": "2026-02-23T19:35:00.000Z",
      "taf": "",
      "tafTime": ""
    },
    "KRAL": {
      "name": "Riverside Municipal",
      "metar": "METAR KRAL 231853Z VRB03KT 10SM CLR 24/00 A3018 RMK AO2 SLP205 T02440000",
      "metarTime": "2026-02-23T19:00:00.000Z",
      "taf": "",
      "tafTime": ""
    }
  }
}
