{
  "updated": "2026-07-08T20:00:00.000Z",
  "airports": {
    "KPOC": {
      "name": "Brackett Field",
      "metar": "METAR KPOC 081947Z 25010KT 10SM CLR 30/14 A2997",
      "metarTime": "2026-07-08T20:00:00.000Z",
      "taf": "",
      "tafTime": ""
    },
    "KCCB": {
      "name": "Cable Airport",
      "metar": "METAR KCCB 081955Z AUTO 26008KT 230V290 10SM CLR 31/10 A2997 RMK AO2",
      "metarTime": "2026-07-08T20:00:00.000Z",
      "taf": "",
      "tafTime": ""
    },
    "KRAL": {
      "name": "Riverside Municipal",
      "metar": "METAR KRAL 081953Z 28008G16KT 10SM CLR 35/10 A2993 RMK AO2 SLP117 T03500100",
      "metarTime": "2026-07-08T20:00:00.000Z",
      "taf": "",
      "tafTime": ""
    }
  }
}
