{
  "updated": "2026-03-16T12:35:00.000Z",
  "airports": {
    "KPOC": {
      "name": "Brackett Field",
      "metar": "",
      "metarTime": "",
      "taf": "",
      "tafTime": ""
    },
    "KCCB": {
      "name": "Cable Airport",
      "metar": "METAR KCCB 161235Z AUTO 00000KT 10SM 18/04 A2999 RMK AO2",
      "metarTime": "2026-03-16T12:35:00.000Z",
      "taf": "",
      "tafTime": ""
    },
    "KRAL": {
      "name": "Riverside Municipal",
      "metar": "METAR KRAL 161153Z AUTO 07003KT 10SM CLR 13/11 A2999 RMK AO2 SLP142 T01330111 10194 20133 55006",
      "metarTime": "2026-03-16T12:00:00.000Z",
      "taf": "",
      "tafTime": ""
    }
  }
}
