{
  "updated": "2026-03-02T18:15:00.000Z",
  "airports": {
    "KPOC": {
      "name": "Brackett Field",
      "metar": "",
      "metarTime": "",
      "taf": "",
      "tafTime": ""
    },
    "KCCB": {
      "name": "Cable Airport",
      "metar": "METAR KCCB 021815Z AUTO VRB04KT 10SM CLR 19/09 A3001 RMK AO2",
      "metarTime": "2026-03-02T18:15:00.000Z",
      "taf": "",
      "tafTime": ""
    },
    "KRAL": {
      "name": "Riverside Municipal",
      "metar": "METAR KRAL 021753Z 23003KT 10SM CLR 19/11 A3000 RMK AO2 SLP148 T01890111 10189 20117 51008",
      "metarTime": "2026-03-02T18:00:00.000Z",
      "taf": "",
      "tafTime": ""
    }
  }
}
