{
  "updated": "2026-07-07T22:15:00.000Z",
  "airports": {
    "KPOC": {
      "name": "Brackett Field",
      "metar": "",
      "metarTime": "",
      "taf": "",
      "tafTime": ""
    },
    "KCCB": {
      "name": "Cable Airport",
      "metar": "METAR KCCB 072215Z AUTO 27014KT 10SM CLR 33/09 A2994 RMK AO2",
      "metarTime": "2026-07-07T22:15:00.000Z",
      "taf": "",
      "tafTime": ""
    },
    "KRAL": {
      "name": "Riverside Municipal",
      "metar": "METAR KRAL 072153Z 29008KT 10SM CLR 36/11 A2990 RMK AO2 SLP106 T03610106",
      "metarTime": "2026-07-07T22:00:00.000Z",
      "taf": "",
      "tafTime": ""
    }
  }
}
