{
  "updated": "2026-03-31T23:35:00.000Z",
  "airports": {
    "KPOC": {
      "name": "Brackett Field",
      "metar": "METAR KPOC 312247Z 24008KT 7SM SCT030 20/13 A2994",
      "metarTime": "2026-03-31T23:00:00.000Z",
      "taf": "",
      "tafTime": ""
    },
    "KCCB": {
      "name": "Cable Airport",
      "metar": "METAR KCCB 312335Z AUTO 24013KT 9SM FEW018 SCT024 SCT029 18/16 A2996 RMK AO2",
      "metarTime": "2026-03-31T23:35:00.000Z",
      "taf": "",
      "tafTime": ""
    },
    "KRAL": {
      "name": "Riverside Municipal",
      "metar": "METAR KRAL 312253Z 28007KT 10SM FEW034 SCT120 21/13 A2993 RMK AO2 SLP122 T02110133",
      "metarTime": "2026-03-31T23:00:00.000Z",
      "taf": "",
      "tafTime": ""
    }
  }
}
