{
  "updated": "2026-03-19T09:00:00.000Z",
  "airports": {
    "KPOC": {
      "name": "Brackett Field",
      "metar": "",
      "metarTime": "",
      "taf": "",
      "tafTime": ""
    },
    "KCCB": {
      "name": "Cable Airport",
      "metar": "METAR KCCB 190855Z AUTO 01004KT 10SM 22/07 A3008 RMK AO2",
      "metarTime": "2026-03-19T09:00:00.000Z",
      "taf": "",
      "tafTime": ""
    },
    "KRAL": {
      "name": "Riverside Municipal",
      "metar": "METAR KRAL 190853Z AUTO 05003KT 10SM CLR 20/10 A3006 RMK AO2 SLP162 T02000100 58001",
      "metarTime": "2026-03-19T09:00:00.000Z",
      "taf": "",
      "tafTime": ""
    }
  }
}
