{
  "updated": "2026-02-03T23:35:00.000Z",
  "airports": {
    "KPOC": {
      "name": "Brackett Field",
      "metar": "",
      "metarTime": "",
      "taf": "",
      "tafTime": ""
    },
    "KCCB": {
      "name": "Cable Airport",
      "metar": "METAR KCCB 032335Z AUTO 26006KT 10SM CLR 27/M04 A3017 RMK AO2",
      "metarTime": "2026-02-03T23:35:00.000Z",
      "taf": "",
      "tafTime": ""
    },
    "KRAL": {
      "name": "Riverside Municipal",
      "metar": "METAR KRAL 032253Z 36010G21KT 10SM CLR 29/M04 A3014 RMK AO2 SLP193 T02891039",
      "metarTime": "2026-02-03T23:00:00.000Z",
      "taf": "",
      "tafTime": ""
    }
  }
}
