{
  "updated": "2026-02-08T12:15:00.000Z",
  "airports": {
    "KPOC": {
      "name": "Brackett Field",
      "metar": "",
      "metarTime": "",
      "taf": "",
      "tafTime": ""
    },
    "KCCB": {
      "name": "Cable Airport",
      "metar": "METAR KCCB 081215Z AUTO 02005KT 10SM CLR 16/M03 A3017 RMK AO2",
      "metarTime": "2026-02-08T12:15:00.000Z",
      "taf": "",
      "tafTime": ""
    },
    "KRAL": {
      "name": "Riverside Municipal",
      "metar": "METAR KRAL 081153Z AUTO 08004KT 10SM CLR 12/03 A3017 RMK AO2 SLPNO T01220033 10189 20117 51003 $",
      "metarTime": "2026-02-08T12:00:00.000Z",
      "taf": "",
      "tafTime": ""
    }
  }
}
