{
  "updated": "2026-02-16T17:15:00.000Z",
  "airports": {
    "KPOC": {
      "name": "Brackett Field",
      "metar": "SPECI KPOC 161709Z 10009KT 2 3/4SM OVC035 12/08 A2984 -RABR",
      "metarTime": "2026-02-16T17:09:00.000Z",
      "taf": "",
      "tafTime": ""
    },
    "KCCB": {
      "name": "Cable Airport",
      "metar": "METAR KCCB 161715Z AUTO 07008KT 3SM -RA FEW028 FEW033 BKN043 11/09 A2984 RMK AO2",
      "metarTime": "2026-02-16T17:15:00.000Z",
      "taf": "",
      "tafTime": ""
    },
    "KRAL": {
      "name": "Riverside Municipal",
      "metar": "METAR KRAL 161653Z 13006KT 10SM FEW045 OVC060 13/08 A2984 RMK AO2 SLP095 T01280078",
      "metarTime": "2026-02-16T17:00:00.000Z",
      "taf": "",
      "tafTime": ""
    }
  }
}
