{
  "updated": "2026-07-04T13:00:00.000Z",
  "airports": {
    "KPOC": {
      "name": "Brackett Field",
      "metar": "",
      "metarTime": "",
      "taf": "",
      "tafTime": ""
    },
    "KCCB": {
      "name": "Cable Airport",
      "metar": "METAR KCCB 041235Z AUTO 07005KT 10SM CLR 18/11 A3002 RMK AO2",
      "metarTime": "2026-07-04T12:35:00.000Z",
      "taf": "",
      "tafTime": ""
    },
    "KRAL": {
      "name": "Riverside Municipal",
      "metar": "METAR KRAL 041253Z AUTO 00000KT 10SM FEW004 17/13 A3002 RMK AO2 SLP150 T01670133",
      "metarTime": "2026-07-04T13:00:00.000Z",
      "taf": "",
      "tafTime": ""
    }
  }
}
